[
 {
  "sublocation": "", 
  "city": "Nagpur", 
  "pincode": "440010", 
  "state": "Maharashatra", 
  "location": "Law College Road", 
  "address": "WHC Road , Law College Squre"
 }, 
 {
  "sublocation": "", 
  "city": "Nagpur", 
  "pincode": "440017", 
  "state": "Maharashatra", 
  "location": "Kamptee Road", 
  "address": "Kamptee Road , Kadbi Chowk"
 }, 
 {
  "sublocation": "Shop No. 4, 5", 
  "city": "Chindwara", 
  "pincode": "480001", 
  "state": "Madhya Pradesh", 
  "location": "Nagpur Road", 
  "address": "Shop No. 4, 5, Kabra Complex, Opposite Shantinath School"
 }, 
 {
  "sublocation": "", 
  "city": "Chandrapur", 
  "pincode": "442401", 
  "state": "Maharashatra", 
  "location": "Main Road", 
  "address": "Jaitpura Gate, Beside Ganraj Travels"
 }, 
 {
  "sublocation": "Khattri Compound", 
  "city": "Amrawati", 
  "pincode": "413001", 
  "state": "Maharashatra", 
  "location": "Morshi Road", 
  "address": "Khattri Compound, Morshi Road, Amravati"
 }, 
 {
  "sublocation": "", 
  "city": "Durg", 
  "pincode": "491001", 
  "state": "Chattisgarh", 
  "location": "Gurudwara Road", 
  "address": "Shantanand Chambers , Gurudwara Station Road"
 }, 
 {
  "sublocation": "Beside Levis , Aakash Ganga ", 
  "city": "Bhilai", 
  "pincode": "490023", 
  "state": "Chattisgarh", 
  "location": "Supela", 
  "address": "Beside Levis , Aakash Ganga , Supela , Bhilai"
 }, 
 {
  "sublocation": "Nehru Nagar", 
  "city": "Bhilai", 
  "pincode": "490026", 
  "state": "Chattisgarh", 
  "location": "Smriti Nagar", 
  "address": "Nehru Nagar, Shop No. GF 09, Treasure Island Mall"
 }, 
 {
  "sublocation": "Kuber Market ", 
  "city": "Jabalpur", 
  "pincode": "482001", 
  "state": "Madhya Pradesh", 
  "location": "Jabalpur", 
  "address": "Kuber Market , Near 4th Bridge , Napier Town"
 }, 
 {
  "sublocation": "Shop No. 5 , Ground Floor , Guru Ghasidas Plaza ", 
  "city": "Raipur", 
  "pincode": "492001", 
  "state": "Chattisgarh", 
  "location": "G E Road", 
  "address": "Shop No. 5 , Ground Floor , Guru Ghasidas Plaza , GE Road, Amapara"
 }, 
 {
  "sublocation": "Shop No. 1 , 2 , 3 , 4 ", 
  "city": "Korba", 
  "pincode": "423107", 
  "state": "Chattisgarh", 
  "location": "Transport Nagar", 
  "address": "Shop No. 1 , 2 , 3 , 4 , Hotel Kala Sai Building , Shirdi"
 }, 
 {
  "sublocation": "Near Hotel Payal ", 
  "city": "Raipur", 
  "pincode": "492001", 
  "state": "Chattisgarh", 
  "location": "Pandhri Road", 
  "address": "Near Hotel Payal , Jivan Beema Marg , Pandri Road"
 }, 
 {
  "sublocation": "Shop No. 8 , 10 , City Mall 36 , Multiplex ", 
  "city": "Raipur", 
  "pincode": "492006", 
  "state": "Chattisgarh", 
  "location": "National Highway", 
  "address": "Shop No. 8 , 10 , City Mall 36 , Multiplex , National Highway , Purena"
 }, 
 {
  "sublocation": "Shop No. - 35 ", 
  "city": "Ambuja", 
  "pincode": "492001", 
  "state": "Chattisgarh", 
  "location": "Vidhan Sabha Road", 
  "address": "Shop No. - 35 , First Floor, Ambuja City Center Mall"
 }, 
 {
  "sublocation": "Block A ", 
  "city": "Bhopal", 
  "pincode": "462016", 
  "state": "Madhya Pradesh", 
  "location": "Hoshangabad Road", 
  "address": "Block A , Mansarover Complex , Hoshangabad Road"
 }, 
 {
  "sublocation": "DB City Mall ", 
  "city": "Bhopal", 
  "pincode": "462011", 
  "state": "Madhya Pradesh", 
  "location": "Db Mall", 
  "address": "DB City Mall , First Floor , Arera Hills"
 }, 
 {
  "sublocation": "Sree Retail ", 
  "city": "Nizamabad", 
  "pincode": "503001", 
  "state": "Andhra Pradesh", 
  "location": "Hyderabad Road", 
  "address": "Sree Retail , 1-9-82/1 . Opposite Nikhil Sai Hotel , Hyderabad Road"
 }, 
 {
  "sublocation": "Dwark Complex", 
  "city": "Sagar", 
  "pincode": "470002", 
  "state": "Madhya Pradesh", 
  "location": "Sagar", 
  "address": "Dwark Complex, Civil Lines , Sagar"
 }, 
 {
  "sublocation": "Sri Laxmi Retail , 3-1-735 & 736 ", 
  "city": "Karim Nagar", 
  "pincode": "505001", 
  "state": "Andhra Pradesh", 
  "location": "Ambedkar Road", 
  "address": "Sri Laxmi Retail , 3-1-735 & 736 , Opposite Reddy Complex , Ambedkar Road"
 }, 
 {
  "sublocation": "", 
  "city": "Bilaspur", 
  "pincode": "495001", 
  "state": "Chattisgarh", 
  "location": "Mungeli Naka Road 36", 
  "address": "Ground Floor - 14 , City Mall"
 }, 
 {
  "sublocation": "Link Road ", 
  "city": "Bilaspur", 
  "pincode": "495001", 
  "state": "Chattisgarh", 
  "location": "Link Road", 
  "address": "Link Road , Opposite Shakuntalam , Near Moti Lal Petrol Pump"
 }, 
 {
  "sublocation": "Sri Laxmi Retail , Shop No. 5 - 10 - 108 , VMR Mayuri Plaza , Ground Floor ", 
  "city": "Warangal", 
  "pincode": "506001", 
  "state": "Andhra Pradesh", 
  "location": "Karimnagar Warangal Road", 
  "address": "Sri Laxmi Retail , Shop No. 5 - 10 - 108 , VMR Mayuri Plaza , Ground Floor , Kishanpura , Hanamkonda"
 }, 
 {
  "sublocation": "", 
  "city": "Jalgaon", 
  "pincode": "425001", 
  "state": "Maharashatra", 
  "location": "M G Road", 
  "address": "2188, Raka Palace"
 }, 
 {
  "sublocation": "Century 21 Mall ", 
  "city": "Indore", 
  "pincode": "452001", 
  "state": "Madhya Pradesh", 
  "location": "AB Road", 
  "address": "Century 21 Mall , Vijay Nagar , AB Road"
 }, 
 {
  "sublocation": "", 
  "city": "Indore", 
  "pincode": "452001", 
  "state": "Madhya Pradesh", 
  "location": "Sapna Sangeeta", 
  "address": "Scheme No 47 , Sapnasangita Road"
 }, 
 {
  "sublocation": "Bolia Tower ", 
  "city": "Indore", 
  "pincode": "452007", 
  "state": "Madhya Pradesh", 
  "location": "Kothari Market", 
  "address": "Bolia Tower , Kothari Market , M G Road"
 }, 
 {
  "sublocation": "", 
  "city": "Indore", 
  "pincode": "452001", 
  "state": "Madhya Pradesh", 
  "location": "M G Road", 
  "address": "Royal Ratan 7,  M G Road"
 }, 
 {
  "sublocation": "Ground Floor ", 
  "city": "Indore", 
  "pincode": "452001", 
  "state": "Madhya Pradesh", 
  "location": "Treasure Island Mall", 
  "address": "Ground Floor , Treasure Island Mall , Indore"
 }, 
 {
  "sublocation": "Ground Floor ", 
  "city": "Jagdalpur", 
  "pincode": "494001", 
  "state": "Chattisgarh", 
  "location": "Chitrakoot Road", 
  "address": "Ground Floor , Binaka Mall , Chitrakoot Road"
 }, 
 {
  "sublocation": "Shop no. 18, Municipal Complex", 
  "city": "Latur", 
  "pincode": "413512", 
  "state": "Maharashatra", 
  "location": "Main Road", 
  "address": "Shop no. 18, Municipal Complex, Opposite Town Hall, Main Road"
 }, 
 {
  "sublocation": "LIG - B6 , Kiel\u00b4s Plaza , Main Road , Opposite Axis Bank , Dr", 
  "city": "Hyderabad", 
  "pincode": "500062", 
  "state": "Andhra Pradesh", 
  "location": "Main Road", 
  "address": "LIG - B6 , Kiel\u00b4s Plaza , Main Road , Opposite Axis Bank , Dr, AS Rao Nagar , ECIL"
 }, 
 {
  "sublocation": "Shop No. 44, Prozone Mall", 
  "city": "Aurangabad", 
  "pincode": "431210", 
  "state": "Maharashatra", 
  "location": "MIDC", 
  "address": "Shop No. 44, Prozone Mall, API Corner, MIDC"
 }, 
 {
  "sublocation": "M G Trends , Plot No. 24 ", 
  "city": "Hyderabad", 
  "pincode": "500015", 
  "state": "Andhra Pradesh", 
  "location": "Karkhana", 
  "address": "M G Trends , Plot No. 24 , Opposite Rainbow Mall , Karkhana"
 }, 
 {
  "sublocation": "", 
  "city": "Satna", 
  "pincode": "485001", 
  "state": "Madhya Pradesh", 
  "location": "Rewa Road", 
  "address": "Shop No. 14, CMA Market"
 }, 
 {
  "sublocation": "120 & 102/1 , Jubilee Hills Road No. 36 ", 
  "city": "Hyderabad", 
  "pincode": "500033", 
  "state": "Andhra Pradesh", 
  "location": "Jubilee Hills Road No. 36", 
  "address": "120 & 102/1 , Jubilee Hills Road No. 36 , Hyderabad , Randa Reddy District"
 }, 
 {
  "sublocation": "120 & 102/1 , Jubilee Hills Road No. 36 ", 
  "city": "Hyderabad", 
  "pincode": "500033", 
  "state": "Andhra Pradesh", 
  "location": "Jubilee Hills Road No. 36", 
  "address": "120 & 102/1 , Jubilee Hills Road No. 36 , Hyderabad , Randa Reddy District"
 }, 
 {
  "sublocation": "MG Trends , F6 & F7 , First Floor , Inorbit Mall ", 
  "city": "Hyderabad", 
  "pincode": "500081", 
  "state": "Andhra Pradesh", 
  "location": "APIIC Software Layout", 
  "address": "MG Trends , F6 & F7 , First Floor , Inorbit Mall , Survey No 64 , APIIC Software Layout"
 }, 
 {
  "sublocation": "Plot no - 1259/A", 
  "city": "Hyderabad", 
  "pincode": "500033", 
  "state": "Andhra Pradesh", 
  "location": "Jubilee Hills Road No. 36", 
  "address": "Plot no - 1259/A, Road No. 36 , Jubilee Hills"
 }, 
 {
  "sublocation": "Shop No. 12 , First Floor ", 
  "city": "Hyderabad", 
  "pincode": "500034", 
  "state": "Andhra Pradesh", 
  "location": "Banjara Hills", 
  "address": "Shop No. 12 , First Floor , GVK Mall , Banjara Hills"
 }, 
 {
  "sublocation": "Goodwill Enterprises , Shop No. 1 , Uma Chambers ", 
  "city": "Hyderabad", 
  "pincode": "500034", 
  "state": "Andhra Pradesh", 
  "location": "Banjara Hills", 
  "address": "Goodwill Enterprises , Shop No. 1 , Uma Chambers , Road No. 1 , Banjara  Hills"
 }, 
 {
  "sublocation": "", 
  "city": "Hyderabad", 
  "pincode": "500029", 
  "state": "Andhra Pradesh", 
  "location": "Himayat Nagar", 
  "address": "Himayat Nagar Road"
 }, 
 {
  "sublocation": "Punjab Crockery House Pvt. Ltd. , 5-80543 ", 
  "city": "Hyderabad", 
  "pincode": "500001", 
  "state": "Andhra Pradesh", 
  "location": "Abids", 
  "address": "Punjab Crockery House Pvt. Ltd. , 5-80543 , Beside Santosh Sapna Theater , Abids"
 }, 
 {
  "sublocation": "3 - 119 , Plot No. 40 , Hanuman Nagar , Chaitanyapuri ", 
  "city": "Hyderabad", 
  "pincode": "500060", 
  "state": "Andhra Pradesh", 
  "location": "Dilsukhnagar", 
  "address": "3 - 119 , Plot No. 40 , Hanuman Nagar , Chaitanyapuri , Gaddiannaram , Dilsukhnagar"
 }, 
 {
  "sublocation": "G-30/10", 
  "city": "Dingual", 
  "pincode": "624001", 
  "state": "Tamil Nadu", 
  "location": "Salai Road", 
  "address": "G-30/10, SALAI ROAD, DINGUAL-624001"
 }, 
 {
  "sublocation": "Sree Retail , Shop No. 2 , Plot No. 30/1 & 30/2 ", 
  "city": "Hyderabad", 
  "pincode": "500070", 
  "state": "Andhra Pradesh", 
  "location": "Double Side Road", 
  "address": "Sree Retail , Shop No. 2 , Plot No. 30/1 & 30/2 , Double Side , Prashantji Nagar"
 }, 
 {
  "sublocation": "", 
  "city": "Rewa", 
  "pincode": "486001", 
  "state": "Madhya Pradesh", 
  "location": "Pili Kothi Road", 
  "address": "Pili Kothi Road"
 }, 
 {
  "sublocation": "", 
  "city": "Bolangir", 
  "pincode": "767001", 
  "state": "Odisha", 
  "location": "Ramjee Road", 
  "address": "Patneshwari"
 }, 
 {
  "sublocation": "", 
  "city": "Ambikapur", 
  "pincode": "497001", 
  "state": "Chattisgarh", 
  "location": "Brahma Road", 
  "address": "Near Puliya"
 }, 
 {
  "sublocation": "357A ", 
  "city": "Jhansi", 
  "pincode": "284001", 
  "state": "Uttar Pradesh", 
  "location": "Sadar Bazar", 
  "address": "357A , Sadar Bazar, Jhansi"
 }, 
 {
  "sublocation": "Ground Floor ", 
  "city": "Gulbarga", 
  "pincode": "585102", 
  "state": "Karnataka", 
  "location": "City Centre", 
  "address": "Ground Floor , City Centre , Opposite KBN Hospital"
 }, 
 {
  "sublocation": "", 
  "city": "Sambalpur", 
  "pincode": "768004", 
  "state": "Odisha", 
  "location": "Budharaja Road", 
  "address": "Shreeji Apparels, Near Orissa Co-operative Bank"
 }, 
 {
  "sublocation": "157/1C, Railway Lines, Dhruva Hotel", 
  "city": "Solapur", 
  "pincode": "413003", 
  "state": "Maharashatra", 
  "location": "Railway Lines", 
  "address": "157/1C, Railway Lines, Dhruva Hotel, Rajabhau, Patwardhan Chowk"
 }, 
 {
  "sublocation": "", 
  "city": "Jharsuguda", 
  "pincode": "768201", 
  "state": "Odisha", 
  "location": "Jhanda Chowk", 
  "address": "Jhanda Chowk"
 }, 
 {
  "sublocation": "Sri Sai Creations ", 
  "city": "Vijaywada", 
  "pincode": "520008", 
  "state": "Andhra Pradesh", 
  "location": "M G Road", 
  "address": "Sri Sai Creations , 40 - 1 - 165A , M G Road"
 }, 
 {
  "sublocation": "Yellow Enterprises , 9 - 1 - 55/1 , Pushpa Palace , Opposite Swarna Barathi Indoor Stadium ", 
  "city": "Vishakhapatnam", 
  "pincode": "530013", 
  "state": "Andhra Pradesh", 
  "location": "CMR Road", 
  "address": "Yellow Enterprises , 9 - 1 - 55/1 , Pushpa Palace , Opposite Swarna Barathi Indoor Stadium , CMR Road , New Resapuvanipelam"
 }, 
 {
  "sublocation": "", 
  "city": "Kota", 
  "pincode": "324005", 
  "state": "Rajasthan", 
  "location": "Jhalawar Road A47", 
  "address": "City Mall, Shop No. 17"
 }, 
 {
  "sublocation": "Shop No. 1 , First Floor ", 
  "city": "Allahabad", 
  "pincode": "211001", 
  "state": "Uttar Pradesh", 
  "location": "Vinayak Mall", 
  "address": "Shop No. 1 , First Floor , Vinayak City Mall , Civil Lines"
 }, 
 {
  "sublocation": "Shop No. G - 6 ", 
  "city": "Allahabad", 
  "pincode": "211001", 
  "state": "Uttar Pradesh", 
  "location": "Civil Lines", 
  "address": "Shop No. G - 6 , Pushp Vinayak Project , Civil Lines"
 }, 
 {
  "sublocation": "", 
  "city": "Kota", 
  "pincode": "324007", 
  "state": "Rajasthan", 
  "location": "Kotri Road 209", 
  "address": "Ghumanpur"
 }, 
 {
  "sublocation": "Shop No. 9, Ground Floor", 
  "city": "Nasik", 
  "pincode": "422005", 
  "state": "Maharashatra", 
  "location": "C G Road", 
  "address": "Shop No. 9, Ground Floor, SK Open Mall, Collage Road"
 }, 
 {
  "sublocation": "MFS20, City Centre Mall", 
  "city": "Nasik", 
  "pincode": "422008", 
  "state": "Maharashatra", 
  "location": "Untwadi Road", 
  "address": "MFS20, City Centre Mall, Unthwadi Chowk, MIDC"
 }, 
 {
  "sublocation": "Dindayal Mall , First Floor", 
  "city": "Gwalior", 
  "pincode": "474002", 
  "state": "Madhya Pradesh", 
  "location": "MLB Road", 
  "address": "Dindayal Mall , First Floor, MLB Road , Lashkar"
 }, 
 {
  "sublocation": "Shop No. 8,9", 
  "city": "Pune", 
  "pincode": "413033", 
  "state": "Maharashatra", 
  "location": "Baramati", 
  "address": "Shop No. 8,9,10, Vidya Corner Building - MIDC"
 }, 
 {
  "sublocation": "Atmakuri Enterprises , 47 - 10 - 24/26 , Sai Trading Centre , Ground Floor \u00b4B\u00b4 ", 
  "city": "Vishakhapatnam", 
  "pincode": "530016", 
  "state": "Andhra Pradesh", 
  "location": "Dwarka Nagar", 
  "address": "Atmakuri Enterprises , 47 - 10 - 24/26 , Sai Trading Centre , Ground Floor \u00b4B\u00b4 , 2nd Lane , Dwarkanagar"
 }, 
 {
  "sublocation": "116 , H 104 ", 
  "city": "Kanpur", 
  "pincode": "208006", 
  "state": "Uttar Pradesh", 
  "location": "Nand Lal Chauraha", 
  "address": "116 , H 104 , Nand Lal Chauraha , Govind Nagar"
 }, 
 {
  "sublocation": "Sri Devi Associates , Shop No. 116 & 117 , First Floor , Jyoti Mall ", 
  "city": "Kurnool", 
  "pincode": "518001", 
  "state": "Andhra Pradesh", 
  "location": "Bellary Road", 
  "address": "Sri Devi Associates , Shop No. 116 & 117 , First Floor , Jyoti Mall , Bellary Road , Opposite Zilla Parishad"
 }, 
 {
  "sublocation": "", 
  "city": "Kanpur", 
  "pincode": "208001", 
  "state": "Uttar Pradesh", 
  "location": "M G Road", 
  "address": "Shop No. 55 & 56 . Z Square Mall , M G Road"
 }, 
 {
  "sublocation": "", 
  "city": "Raebareli", 
  "pincode": "229001", 
  "state": "Uttar Pradesh", 
  "location": "Kutchery Road", 
  "address": "Vilayat Ali Building, Ghantaghar"
 }, 
 {
  "sublocation": "", 
  "city": "Rourkela", 
  "pincode": "769001", 
  "state": "Odisha", 
  "location": "Bisra Road", 
  "address": "Indera Plaza"
 }, 
 {
  "sublocation": "B-27/96, A 3", 
  "city": "Varanasi", 
  "pincode": "221005", 
  "state": "Uttar Pradesh", 
  "location": "Durga Kund", 
  "address": "B-27/96, A 3, Gurudham Colony, Durga Kund"
 }, 
 {
  "sublocation": "IP Mall, 14", 
  "city": "Varanasi", 
  "pincode": "221001", 
  "state": "Uttar Pradesh", 
  "location": "Kabir Road", 
  "address": "IP Mall, 14, Gokul Nagar, Kanchanpur"
 }, 
 {
  "sublocation": "", 
  "city": "Varanasi", 
  "pincode": "221002", 
  "state": "Uttar Pradesh", 
  "location": "The Mall Road", 
  "address": "JHV Mall , Varanasi"
 }, 
 {
  "sublocation": "C-27/274", 
  "city": "Varanasi", 
  "pincode": "221002", 
  "state": "Uttar Pradesh", 
  "location": "Maldahiya", 
  "address": "C-27/274, AT ,Maldahiya"
 }, 
 {
  "sublocation": "Shop No. 12 ", 
  "city": "Pune", 
  "pincode": "411001", 
  "state": "Maharashatra", 
  "location": "Moledina Road", 
  "address": "Shop No. 12 , Sterling building 11 , Modelina Road"
 }, 
 {
  "sublocation": "318, M G Road", 
  "city": "Pune", 
  "pincode": "411001", 
  "state": "Maharashatra", 
  "location": "M G Road", 
  "address": "318, M G Road, Near Central Bank, Camp"
 }, 
 {
  "sublocation": "Shop No. 1", 
  "city": "Pune", 
  "pincode": "411017", 
  "state": "Maharashatra", 
  "location": "Chinchwad", 
  "address": "Shop No. 1, Ground Floor, Premium Plaza Mall"
 }, 
 {
  "sublocation": "", 
  "city": "Pune", 
  "pincode": "411014", 
  "state": "Maharashatra", 
  "location": "Viman Nagar", 
  "address": "UG 51, Phoenix Market City"
 }, 
 {
  "sublocation": "More Mega Mall", 
  "city": "Baroda", 
  "pincode": "390011", 
  "state": "Gujarat", 
  "location": "More Mall", 
  "address": "More Mega Mall, Manjalpur, Vadodara"
 }, 
 {
  "sublocation": "", 
  "city": "Pune", 
  "pincode": "411004", 
  "state": "Maharashatra", 
  "location": "J M Road", 
  "address": "J M Road"
 }, 
 {
  "sublocation": "", 
  "city": "Pune", 
  "pincode": "411007", 
  "state": "Maharashatra", 
  "location": "Aundh", 
  "address": "Aundh"
 }, 
 {
  "sublocation": "", 
  "city": "Baroda", 
  "pincode": "390007", 
  "state": "Gujarat", 
  "location": "Genda Circle", 
  "address": "Genda Circle"
 }, 
 {
  "sublocation": "", 
  "city": "Baroda", 
  "pincode": "390015", 
  "state": "Gujarat", 
  "location": "Old Padra Road", 
  "address": "Opposite Gajanand Complex , Old Padra  Road"
 }, 
 {
  "sublocation": "", 
  "city": "Pune", 
  "pincode": "411038", 
  "state": "Maharashatra", 
  "location": "Kothrud", 
  "address": "Kothrud"
 }, 
 {
  "sublocation": "", 
  "city": "Baroda", 
  "pincode": "390007", 
  "state": "Gujarat", 
  "location": "Kshitij Mall", 
  "address": "Kshitij Mall , First Floor"
 }, 
 {
  "sublocation": "159, Sheikhpura", 
  "city": "Jaunpur", 
  "pincode": "222001", 
  "state": "Uttar Pradesh", 
  "location": "TT Collage Road", 
  "address": "159, Sheikhpura, TT College Road, Near Jesis Chowk"
 }, 
 {
  "sublocation": "Bank Colony, 3rd Lane", 
  "city": "Berhampur", 
  "pincode": "760001", 
  "state": "Odisha", 
  "location": "Cantonment Road", 
  "address": "Bank Colony, 3rd Lane, Near Radio Station , Patasadan"
 }, 
 {
  "sublocation": "L/320", 
  "city": "New Delhi", 
  "pincode": "110037", 
  "state": "New Delhi", 
  "location": "National Highway 8", 
  "address": "L/320, Mahipalpur Extension, NH-8"
 }, 
 {
  "sublocation": "Fortune Park , Galaxy Campus ", 
  "city": "Vapi", 
  "pincode": "396191", 
  "state": "Gujarat", 
  "location": "Fortune Park Galaxy Complex", 
  "address": "Fortune Park , Galaxy Campus , Comm, Plot C/7/67"
 }, 
 {
  "sublocation": "", 
  "city": "Bhilwara", 
  "pincode": "311001", 
  "state": "Rajasthan", 
  "location": "Nagori Garden", 
  "address": "Shop No. 8&9, Nagori Garden"
 }, 
 {
  "sublocation": "", 
  "city": "Anand", 
  "pincode": "388001", 
  "state": "Gujarat", 
  "location": "Vidyanagar Road", 
  "address": "Opposite Nandubhumi , Vidyanagar Road"
 }, 
 {
  "sublocation": "HG 11 ", 
  "city": "Surat", 
  "pincode": "395007", 
  "state": "Gujarat", 
  "location": "Ghod Dod Road", 
  "address": "HG 11 , Laxmi Vilas Complex , B/s Kotak House Ghod Dod Road"
 }, 
 {
  "sublocation": "", 
  "city": "Surat", 
  "pincode": "400001", 
  "state": "Gujarat", 
  "location": "Iscon Mall", 
  "address": "Iscon Prozone Mall , Dumas Road"
 }, 
 {
  "sublocation": "", 
  "city": "Jamshedpur", 
  "pincode": "831001", 
  "state": "Jharkhand", 
  "location": "Kalimati Road 14", 
  "address": "Sakchi"
 }, 
 {
  "sublocation": "Rahul Raj Mall ", 
  "city": "Surat", 
  "pincode": "395007", 
  "state": "Gujarat", 
  "location": "Rahul Raj Mall", 
  "address": "Rahul Raj Mall , Ground Floor , Shop No. 58"
 }, 
 {
  "sublocation": "", 
  "city": "Lucknow", 
  "pincode": "227001", 
  "state": "Uttar Pradesh", 
  "location": "National Highway 25", 
  "address": "Phoenix Mall, National Highway 25"
 }, 
 {
  "sublocation": "Shop No - B116", 
  "city": "Surat", 
  "pincode": "395007", 
  "state": "Gujarat", 
  "location": "Dumas Road", 
  "address": "Shop No - B116, First Floor, Virtuous mall"
 }, 
 {
  "sublocation": "10 - 13, Ground Floor, New Wing", 
  "city": "Lucknow", 
  "pincode": "226010", 
  "state": "Uttar Pradesh", 
  "location": "Gomti Nagar", 
  "address": "10 - 13, Ground Floor, New Wing, East End Mall, TC - 54"
 }, 
 {
  "sublocation": "76-A, M.G. Road", 
  "city": "Lucknow", 
  "pincode": "226001", 
  "state": "Uttar Pradesh", 
  "location": "M G Road", 
  "address": "76-A, M.G. Road, Hazratganj, Lucknow"
 }, 
 {
  "sublocation": "Shop No. 217", 
  "city": "Lucknow", 
  "pincode": "226001", 
  "state": "Uttar Pradesh", 
  "location": "Saharaganj", 
  "address": "Shop No. 217, Second Floor, Sahara Mall"
 }, 
 {
  "sublocation": "Shop No. 133, 134 & 135 , City Mall , CP - 02", 
  "city": "Lucknow", 
  "pincode": "226010", 
  "state": "Uttar Pradesh", 
  "location": "Vipul Khand", 
  "address": "Shop No. 133, 134 & 135 , City Mall , CP - 02, Vipul Khand 4, Gomti Nagar"
 }, 
 {
  "sublocation": "", 
  "city": "Lucknow", 
  "pincode": "226006", 
  "state": "Uttar Pradesh", 
  "location": "Kapoorthala Road", 
  "address": "Kapoorthala Market, Aliganj"
 }, 
 {
  "sublocation": "Shop No. 217 ", 
  "city": "Lucknow", 
  "pincode": "226001", 
  "state": "Uttar Pradesh", 
  "location": "Saharajanj", 
  "address": "Shop No. 217 , Sahara Mall , Saharaganj"
 }, 
 {
  "sublocation": "", 
  "city": "Udaipur", 
  "pincode": "313001", 
  "state": "Rajasthan", 
  "location": "Ashok Nagar Main Road", 
  "address": "Mahaveer Colony"
 }, 
 {
  "sublocation": "Shop No. 21", 
  "city": "Udaipur", 
  "pincode": "313001", 
  "state": "Rajasthan", 
  "location": "Bhuwana", 
  "address": "Shop No. 21, First Floor, Celebration Mall"
 }, 
 {
  "sublocation": "", 
  "city": "Thane", 
  "pincode": "400601", 
  "state": "Maharashatra", 
  "location": "Viva City", 
  "address": "Viva City"
 }, 
 {
  "sublocation": "", 
  "city": "Thane", 
  "pincode": "400602", 
  "state": "Maharashatra", 
  "location": "Ram Maruti Road", 
  "address": "Ram Maruti Road"
 }, 
 {
  "sublocation": "G 20/21, Ground Floor", 
  "city": "Thane", 
  "pincode": "400602", 
  "state": "Maharashatra", 
  "location": "Goregaon", 
  "address": "G 20/21, Ground Floor, Oberoi, Garden City"
 }, 
 {
  "sublocation": "", 
  "city": "Mumbai", 
  "pincode": "400614", 
  "state": "Maharashatra", 
  "location": "Belapur", 
  "address": "Belapur"
 }, 
 {
  "sublocation": "", 
  "city": "Mumbai", 
  "pincode": "400709", 
  "state": "Maharashatra", 
  "location": "Koper Khairne", 
  "address": "Koper Khairne"
 }, 
 {
  "sublocation": "", 
  "city": "Mumbai", 
  "pincode": "400703", 
  "state": "Maharashatra", 
  "location": "Vashi", 
  "address": "Sector 17 , Vashi"
 }, 
 {
  "sublocation": "Part of Bungalow # 49", 
  "city": "Agra", 
  "pincode": "282001", 
  "state": "Uttar Pradesh", 
  "location": "G C Shivare Road", 
  "address": "Part of Bungalow # 49, G C Shivare Road , Agra Cantt."
 }, 
 {
  "sublocation": "Unit 118/24 ", 
  "city": "Agra", 
  "pincode": "282002", 
  "state": "Uttar Pradesh", 
  "location": "M G Road", 
  "address": "Unit 118/24 , of Block 36/2/4 , Sanjay Place"
 }, 
 {
  "sublocation": "", 
  "city": "Agra", 
  "pincode": "281419", 
  "state": "Uttar Pradesh", 
  "location": "Central Road", 
  "address": "B - 53 , Central Road"
 }, 
 {
  "sublocation": "", 
  "city": "Ranchi", 
  "pincode": "834001", 
  "state": "Jharkhand", 
  "location": "Harmu Bypass Road", 
  "address": "Near Prakash Raj Industries"
 }, 
 {
  "sublocation": "R City Mall , First Floor", 
  "city": "Mumbai", 
  "pincode": "400086", 
  "state": "Maharashatra", 
  "location": "LBS Marg", 
  "address": "R City Mall , First Floor, L B S Marg , Ghatkoper"
 }, 
 {
  "sublocation": "SV Road ", 
  "city": "Mumbai", 
  "pincode": "400062", 
  "state": "Maharashatra", 
  "location": "Filmistan", 
  "address": "SV Road , Opposite Filmistan Studio , Goregaon (W)"
 }, 
 {
  "sublocation": "Avirahi , Next to Star Apartment ", 
  "city": "Mumbai", 
  "pincode": "400092", 
  "state": "Maharashatra", 
  "location": "Borivalli", 
  "address": "Avirahi , Next to Star Apartment , S V Road, Borivali West"
 }, 
 {
  "sublocation": "G20/21 , Ground Floor", 
  "city": "Mumbai", 
  "pincode": "400063", 
  "state": "Maharashatra", 
  "location": "Oberon Mall", 
  "address": "G20/21 , Ground Floor, Oberoi Garden City , Goregaon"
 }, 
 {
  "sublocation": "", 
  "city": "Mumbai", 
  "pincode": "400070", 
  "state": "Maharashatra", 
  "location": "Kurla", 
  "address": "Unisource Trading Pvt. Ltd. Phoenix Market City"
 }, 
 {
  "sublocation": "", 
  "city": "Ranchi", 
  "pincode": "834001", 
  "state": "Jharkhand", 
  "location": "Sirom Toli", 
  "address": "Horma Tower"
 }, 
 {
  "sublocation": "", 
  "city": "Mumbai", 
  "pincode": "400064", 
  "state": "Maharashatra", 
  "location": "Infinity Mall", 
  "address": "Link Road , Malad"
 }, 
 {
  "sublocation": "", 
  "city": "Mumbai", 
  "pincode": "400064", 
  "state": "Maharashatra", 
  "location": "Infinity Mall , Malad", 
  "address": "Link Road , Malad"
 }, 
 {
  "sublocation": "Revenue Mohalla", 
  "city": "Azamgarh", 
  "pincode": "276001", 
  "state": "Uttar Pradesh", 
  "location": "Ailwal", 
  "address": "Revenue Mohalla, Ailwal, Near Nizamuddin Tehsil"
 }, 
 {
  "sublocation": "", 
  "city": "Ranchi", 
  "pincode": "834001", 
  "state": "Jharkhand", 
  "location": "Main Road", 
  "address": "Roshpa Tower, 1st Floor"
 }, 
 {
  "sublocation": "", 
  "city": "Ranchi", 
  "pincode": "834001", 
  "state": "Jharkhand", 
  "location": "Main Road", 
  "address": "12 Gel Church Complex"
 }, 
 {
  "sublocation": "", 
  "city": "Ranchi", 
  "pincode": "834001", 
  "state": "Jharkhand", 
  "location": "Vishnu Cinema Lane", 
  "address": "Vishnu Cinema Lane, Main Road"
 }, 
 {
  "sublocation": "", 
  "city": "Mumbai", 
  "pincode": "400058", 
  "state": "Maharashatra", 
  "location": "S V Road", 
  "address": "S V Road , Andheri"
 }, 
 {
  "sublocation": "", 
  "city": "Ranchi", 
  "pincode": "834001", 
  "state": "Jharkhand", 
  "location": "Circular Road", 
  "address": "Shop No. 2, Le Desire Complex"
 }, 
 {
  "sublocation": "537", 
  "city": "Mumbai", 
  "pincode": "400052", 
  "state": "Maharashatra", 
  "location": "Linking Road", 
  "address": "537, Linking Road, Khar (West)"
 }, 
 {
  "sublocation": "", 
  "city": "Mumbai", 
  "pincode": "400052", 
  "state": "Maharashatra", 
  "location": "Linking Road", 
  "address": "Linking Road , Khar"
 }, 
 {
  "sublocation": "Gordhandas Mansion, Dr.Ambedkar Road,Parel ", 
  "city": "Mumbai", 
  "pincode": "400012", 
  "state": "Maharashatra", 
  "location": "Ambedkar Road", 
  "address": "Gordhandas Mansion, Dr.Ambedkar Road,Parel , opposite central railway workshop,parel"
 }, 
 {
  "sublocation": "Phoenix Mills Compound , 462 ", 
  "city": "Mumbai", 
  "pincode": "400013", 
  "state": "Maharashatra", 
  "location": "Phoenix, Parel", 
  "address": "Phoenix Mills Compound , 462 , Senapati Bapat Marg , Lower Parel"
 }, 
 {
  "sublocation": "Willington House", 
  "city": "Mumbai", 
  "pincode": "400012", 
  "state": "Maharashatra", 
  "location": "Dr Ambedkar Road", 
  "address": "Willington House, Parel , Dr Ambedkar Road"
 }, 
 {
  "sublocation": "Sidhpura Complex ", 
  "city": "Ahmedabad", 
  "pincode": "380008", 
  "state": "Gujarat", 
  "location": "Mani Nagar", 
  "address": "Sidhpura Complex , Opposite Vijaya Bank , Maninagar"
 }, 
 {
  "sublocation": "25 , Nawaz Mansion ", 
  "city": "Mumbai", 
  "pincode": "400039", 
  "state": "Maharashatra", 
  "location": "Shahid Bhagat Singh Road", 
  "address": "25 , Nawaz Mansion , Shahid Bhagat Singh Road , Next to Metro Shoe"
 }, 
 {
  "sublocation": "1 & 2 , York House ", 
  "city": "Mumbai", 
  "pincode": "400039", 
  "state": "Maharashatra", 
  "location": "Colaba", 
  "address": "1 & 2 , York House , Opposite Electric House , Colaba Causeway"
 }, 
 {
  "sublocation": "Shop No", 
  "city": "Gandhinagar", 
  "pincode": "382010", 
  "state": "Gujarat", 
  "location": "Info City", 
  "address": "Shop No, 36/37, Behind Bank of India"
 }, 
 {
  "sublocation": "4d Mall , Near D Mart ", 
  "city": "Ahmedabad", 
  "pincode": "380005", 
  "state": "Gujarat", 
  "location": "VisatVisatGandhinagar Highway", 
  "address": "4d Mall , Near D Mart , Visat Gandhinagar Highway , Motera"
 }, 
 {
  "sublocation": "Agarwal Complex ", 
  "city": "Ahmedabad", 
  "pincode": "380009", 
  "state": "Gujarat", 
  "location": "C G Road", 
  "address": "Agarwal Complex , Municipal Market , Navrangpura"
 }, 
 {
  "sublocation": "", 
  "city": "Ahmedabad", 
  "pincode": "380059", 
  "state": "Gujarat", 
  "location": "Iscon Mall", 
  "address": "Iscon Mega Mall , S G Highway"
 }, 
 {
  "sublocation": "Alpha One Mall ", 
  "city": "Ahmedabad", 
  "pincode": "380054", 
  "state": "Gujarat", 
  "location": "Alpha 1", 
  "address": "Alpha One Mall , Near Vastrapur Lake , Vastrapur"
 }, 
 {
  "sublocation": "NKB Plaza , 74B/9 ", 
  "city": "Bellary", 
  "pincode": "583101", 
  "state": "Karnataka", 
  "location": "Infantry Road", 
  "address": "NKB Plaza , 74B/9 , Infantry Road , Opposite Vasavi School"
 }, 
 {
  "sublocation": "", 
  "city": "Jaipur", 
  "pincode": "302015", 
  "state": "Rajasthan", 
  "location": "Pratap Nagar", 
  "address": "Shop No. 5A"
 }, 
 {
  "sublocation": "1", 
  "city": "Kolhapur", 
  "pincode": "416001", 
  "state": "Maharashatra", 
  "location": "Rajarampuri", 
  "address": "1, Royal Prestige, Sykes Extension"
 }, 
 {
  "sublocation": "Pal Heights", 
  "city": "Bhubaneswar", 
  "pincode": "751013", 
  "state": "Odisha", 
  "location": "Jayadev Bihar", 
  "address": "Pal Heights, Shop No, 104"
 }, 
 {
  "sublocation": "", 
  "city": "Ranchi", 
  "pincode": "751009", 
  "state": "Jharkhand", 
  "location": "Ashok Nagar", 
  "address": "45-46 Janpath"
 }, 
 {
  "sublocation": "45 - 46 , Janpath ", 
  "city": "Bhubaneswar", 
  "pincode": "751009", 
  "state": "Odisha", 
  "location": "Janpath", 
  "address": "45 - 46 , Janpath , Ashok Nagar , Bhubaneshwar"
 }, 
 {
  "sublocation": "", 
  "city": "Bhubaneswar", 
  "pincode": "751001", 
  "state": "Odisha", 
  "location": "Cantonment Road", 
  "address": "Janpath, Mathamat"
 }, 
 {
  "sublocation": "", 
  "city": "Cuttack", 
  "pincode": "753001", 
  "state": "Odisha", 
  "location": "Kharvela Nagar, Cantonment Road", 
  "address": "Gurudwara Singh Sabha"
 }, 
 {
  "sublocation": "", 
  "city": "Bhubaneswar", 
  "pincode": "751010", 
  "state": "Odisha", 
  "location": "Bomikhal, Cuttack Road", 
  "address": "Plot No. 37/2 & 505/1"
 }, 
 {
  "sublocation": "12/B", 
  "city": "Jaipur", 
  "pincode": "302003", 
  "state": "Rajasthan", 
  "location": "Adarsh Nagar", 
  "address": "12/B, Govind Marg, Adarsh Nagar"
 }, 
 {
  "sublocation": "215/42, Devi Nagar", 
  "city": "Mathura", 
  "pincode": "281004", 
  "state": "Uttar Pradesh", 
  "location": "Govardhan Road", 
  "address": "215/42, Devi Nagar, Govardhan Road, Krishna Nagar"
 }, 
 {
  "sublocation": "", 
  "city": "Puri", 
  "pincode": "752001", 
  "state": "Odisha", 
  "location": "Grand Road 506", 
  "address": "Hotel Paradise"
 }, 
 {
  "sublocation": "", 
  "city": "Bhavnager", 
  "pincode": "364002", 
  "state": "Gujarat", 
  "location": "Waghawadi Road", 
  "address": "Opposite Madhav Darshan , Waghawadi Road"
 }, 
 {
  "sublocation": "", 
  "city": "Jaipur", 
  "pincode": "302001", 
  "state": "Rajasthan", 
  "location": "MI Road", 
  "address": "Shop No. 381,"
 }, 
 {
  "sublocation": "Sharma Building", 
  "city": "Jaipur", 
  "pincode": "302001", 
  "state": "Rajasthan", 
  "location": "MI Road", 
  "address": "Sharma Building, Shop No. 67, Near Niros Restaurant"
 }, 
 {
  "sublocation": "Shop No. 24,25,26, Crystal Palm", 
  "city": "Jaipur", 
  "pincode": "302001", 
  "state": "Rajasthan", 
  "location": "C-Scheme", 
  "address": "Shop No. 24,25,26, Crystal Palm, C-Scheme, Sahkar Circle"
 }, 
 {
  "sublocation": "", 
  "city": "Jaipur", 
  "pincode": "302020", 
  "state": "Rajasthan", 
  "location": "Mansarover, VT Road", 
  "address": "Shop No. 4 & 9, Madhyam Marg"
 }, 
 {
  "sublocation": "", 
  "city": "Jaipur", 
  "pincode": "302012", 
  "state": "Rajasthan", 
  "location": "Kalwar Road", 
  "address": "Triton Mall, Shop No. 33"
 }, 
 {
  "sublocation": "Shop No- LG-09 ,Block- B, WTP Mall", 
  "city": "Jaipur", 
  "pincode": "302017", 
  "state": "Rajasthan", 
  "location": "JLN Marg, Malviya Nagar", 
  "address": "Shop No- LG-09 ,Block- B, WTP Mall, J.L.N. Marg, Malviya Nagar"
 }, 
 {
  "sublocation": "Upper Ground Floor 7 , Elements Mall", 
  "city": "Jaipur", 
  "pincode": "302021", 
  "state": "Rajasthan", 
  "location": "Ajmer Road", 
  "address": "Upper Ground Floor 7 , Elements Mall, Opposite Nirman Nagar, Ajmer Road"
 }, 
 {
  "sublocation": "", 
  "city": "Jaipur", 
  "pincode": "302021", 
  "state": "Rajasthan", 
  "location": "Vaishali Nagar", 
  "address": "4A, RSEB Colony"
 }, 
 {
  "sublocation": "", 
  "city": "Jaipur", 
  "pincode": "302023", 
  "state": "Rajasthan", 
  "location": "Vidyadhar Nagar", 
  "address": "Shop No. G39-40, Time Square Mall"
 }, 
 {
  "sublocation": "Gajadhar Gharana Complex ", 
  "city": "Gaya", 
  "pincode": "823001", 
  "state": "Bihar", 
  "location": "G.B.Road", 
  "address": "Gajadhar Gharana Complex , Opposite Head Office , GB road"
 }, 
 {
  "sublocation": "", 
  "city": "Jajpur", 
  "pincode": "755019", 
  "state": "Odisha", 
  "location": "Banks Street Jajpur Road", 
  "address": "Radha Nath Marg"
 }, 
 {
  "sublocation": "Shop No. 14 & 15", 
  "city": "Mehsana", 
  "pincode": "384002", 
  "state": "Gujarat", 
  "location": "Mehsana", 
  "address": "Shop No. 14 & 15, Prabhu Complex, Near Rajkamal Petrol Pump"
 }, 
 {
  "sublocation": "11", 
  "city": "Ajmer", 
  "pincode": "305006", 
  "state": "Rajasthan", 
  "location": "ASC Road", 
  "address": "11, Ashok Nagar, ASC Road"
 }, 
 {
  "sublocation": "", 
  "city": "Alwar", 
  "pincode": "301001", 
  "state": "Rajasthan", 
  "location": "Manu Marg, 2", 
  "address": "Rishabh Tower"
 }, 
 {
  "sublocation": "31, Lajpat Nagar, Opposite ICICI Bank", 
  "city": "Alwar", 
  "pincode": "301001", 
  "state": "Rajasthan", 
  "location": "Bhagat Singh Marg", 
  "address": "31, Lajpat Nagar, Opposite ICICI Bank, Bhagat Singh Circle , Alwar"
 }, 
 {
  "sublocation": "3/13A , Sevti Complex , Samad Road ", 
  "city": "Aligarh", 
  "pincode": "202001", 
  "state": "Uttar Pradesh", 
  "location": "Samad Road", 
  "address": "3/13A , Sevti Complex , Samad Road , Centre Point , Aligarh"
 }, 
 {
  "sublocation": "", 
  "city": "Jamshedpur", 
  "pincode": "831001", 
  "state": "Jharkhand", 
  "location": "Main Road, Bistupur", 
  "address": "Main Road , Bistupur"
 }, 
 {
  "sublocation": "", 
  "city": "Alwar", 
  "pincode": "301001", 
  "state": "Rajasthan", 
  "location": "Cross Point Mall", 
  "address": "Shop No. 10, Cross Point Mall"
 }, 
 {
  "sublocation": "Hotel Highway King", 
  "city": "ViratNagar", 
  "pincode": "303119", 
  "state": "Rajasthan", 
  "location": "National Highway 8", 
  "address": "Hotel Highway King, Village Bhabhru, ViratNagar"
 }, 
 {
  "sublocation": "Shop No. 14 & 15, First Floor", 
  "city": "Gorakhpur", 
  "pincode": "273010", 
  "state": "Uttar Pradesh", 
  "location": "City Mall", 
  "address": "Shop No. 14 & 15, First Floor, City Mall, Gorakhpur"
 }, 
 {
  "sublocation": "", 
  "city": "Palanpur", 
  "pincode": "385001", 
  "state": "Gujarat", 
  "location": "Palanpur Dessa Highway", 
  "address": "Abu Highway"
 }, 
 {
  "sublocation": "", 
  "city": "Belgaum", 
  "pincode": "590002", 
  "state": "Karnataka", 
  "location": "Belgaum", 
  "address": "2901 , Khade Bazaar"
 }, 
 {
  "sublocation": "Lower Ground Floor ", 
  "city": "Gorakhpur", 
  "pincode": "273001", 
  "state": "Uttar Pradesh", 
  "location": "Mangalam Tower", 
  "address": "Lower Ground Floor , Mangalam Tower , Golghar"
 }, 
 {
  "sublocation": "Shop No. 6, Ground Floor", 
  "city": "Ratnagiri", 
  "pincode": "415612", 
  "state": "Maharashatra", 
  "location": "Ratnagiri", 
  "address": "Shop No. 6, Ground Floor, DY Plaza, Opp. HDFC Bank"
 }, 
 {
  "sublocation": "Shop No. 5 & 6 ", 
  "city": "Hubli", 
  "pincode": "580020", 
  "state": "Karnataka", 
  "location": "Coen Road", 
  "address": "Shop No. 5 & 6 , Umachigi Complex , Coen Road"
 }, 
 {
  "sublocation": "", 
  "city": "Patna", 
  "pincode": "800014", 
  "state": "Bihar", 
  "location": "Main Bailey Road", 
  "address": "M/s Amritvarsha, Sheikhpura"
 }, 
 {
  "sublocation": "P&M Mall, Shop No", 
  "city": "Patna", 
  "pincode": "800013", 
  "state": "Bihar", 
  "location": "Pataliputra Industrial Area", 
  "address": "P&M Mall, Shop No, 1, 2nd Floor"
 }, 
 {
  "sublocation": "", 
  "city": "Patna", 
  "pincode": "800001", 
  "state": "Bihar", 
  "location": "Boring Canal Road", 
  "address": "Surya Bageshwari Apartment"
 }, 
 {
  "sublocation": "", 
  "city": "Patna", 
  "pincode": "800001", 
  "state": "Bihar", 
  "location": "Maurya Lok", 
  "address": "C-132/133"
 }, 
 {
  "sublocation": "G6", 
  "city": "Patna", 
  "pincode": "800001", 
  "state": "Bihar", 
  "location": "Frazer Road", 
  "address": "G6,Grand Plaza, Dak Bunglow Road"
 }, 
 {
  "sublocation": "", 
  "city": "Patna", 
  "pincode": "800001", 
  "state": "Bihar", 
  "location": "Frazer Road", 
  "address": "G6, Grand Plaza"
 }, 
 {
  "sublocation": "", 
  "city": "Patna", 
  "pincode": "800020", 
  "state": "Bihar", 
  "location": "Lohia Nagar, Kankar Bagh", 
  "address": "NC-2C, Near Shri Ram Hospital"
 }, 
 {
  "sublocation": "", 
  "city": "Patna", 
  "pincode": "800004", 
  "state": "Bihar", 
  "location": "Gandhi Maidan", 
  "address": "Shiv Sundar Garments, Udyog Bhavan"
 }, 
 {
  "sublocation": "", 
  "city": "Palwal", 
  "pincode": "121102", 
  "state": "Haryana", 
  "location": "Delhi Mathura Road", 
  "address": "Opp HDFC Bank, Agra Chowk Delhi Mathura Road"
 }, 
 {
  "sublocation": "C 14, Ekta Nagar", 
  "city": "Bareilly", 
  "pincode": "243122", 
  "state": "Uttar Pradesh", 
  "location": "Dd Puram", 
  "address": "C 14, Ekta Nagar, Opposite LIC Office, Dd Puram"
 }, 
 {
  "sublocation": "", 
  "city": "Dhanbad", 
  "pincode": "826001", 
  "state": "Jharkhand", 
  "location": "Luby Circular Road", 
  "address": "City Centre, 216"
 }, 
 {
  "sublocation": "132", 
  "city": "Bulandshahar", 
  "pincode": "203001", 
  "state": "Uttar Pradesh", 
  "location": "Civil Lines", 
  "address": "132, Kothiyat, Opposite Moti Bagh Telephone Exchange"
 }, 
 {
  "sublocation": "Shop No. 2", 
  "city": "Bhiwadi", 
  "pincode": "301019", 
  "state": "Rajasthan", 
  "location": "Hari Ram Market", 
  "address": "Shop No. 2, Hari Ram Market, Bhiwadi"
 }, 
 {
  "sublocation": "", 
  "city": "Balasore", 
  "pincode": "756001", 
  "state": "Odisha", 
  "location": "Chirapole", 
  "address": "Vivekananda Marg"
 }, 
 {
  "sublocation": "No. 2972/L , Poornima Complex , Ground Floor , MCCP Block ", 
  "city": "Davengere", 
  "pincode": "577004", 
  "state": "Karnataka", 
  "location": "Mamas Joint Road", 
  "address": "No. 2972/L , Poornima Complex , Ground Floor , MCCP Block , Mama\u00b4s Joint Road , Davengere"
 }, 
 {
  "sublocation": "", 
  "city": "Sikar", 
  "pincode": "332001", 
  "state": "Rajasthan", 
  "location": "Station Road", 
  "address": "Pawan Travels, Opp. State Bank of India"
 }, 
 {
  "sublocation": "Shop No. 26", 
  "city": "Rewari", 
  "pincode": "123401", 
  "state": "Haryana", 
  "location": "Bawal Road", 
  "address": "Shop No. 26, Brass Market, Bawal Road"
 }, 
 {
  "sublocation": "", 
  "city": "Faridabad", 
  "pincode": "121007", 
  "state": "Haryana", 
  "location": "Sector 12", 
  "address": "SRS Multiplex, City Centre"
 }, 
 {
  "sublocation": "GA-08", 
  "city": "Faridabad", 
  "pincode": "121107", 
  "state": "Haryana", 
  "location": "Sector 15A", 
  "address": "GA-08, Ansal Plaza, Crown Plaza"
 }, 
 {
  "sublocation": "", 
  "city": "Faridabad", 
  "pincode": "121001", 
  "state": "Haryana", 
  "location": "Sector 15", 
  "address": "SCF-57, Sector 15"
 }, 
 {
  "sublocation": "42 & 43", 
  "city": "Faridabad", 
  "pincode": "121003", 
  "state": "Haryana", 
  "location": "Delhi Mathura Road", 
  "address": "42 & 43, Crown Interior Mall, Near Saari Chowk"
 }, 
 {
  "sublocation": "Plot No. 649, Residency Road", 
  "city": "Jodhpur", 
  "pincode": "342001", 
  "state": "Rajasthan", 
  "location": "Residency Road 649", 
  "address": "Plot No. 649, Residency Road, Near Mani Bari Hospital, Jaljog Circle"
 }, 
 {
  "sublocation": "Shop No. 92/12A", 
  "city": "Gurgaon", 
  "pincode": "122001", 
  "state": "Haryana", 
  "location": "Jharsa Road", 
  "address": "Shop No. 92/12A, Kirti Nagar,"
 }, 
 {
  "sublocation": "Upper Ground, Shop No.17", 
  "city": "Gurgaon", 
  "pincode": "122001", 
  "state": "Haryana", 
  "location": "Golf Course Road", 
  "address": "Upper Ground, Shop No.17, South Point Mall, Sec-53"
 }, 
 {
  "sublocation": "", 
  "city": "Gurgaon", 
  "pincode": "122001", 
  "state": "Haryana", 
  "location": "DLF Phase IV", 
  "address": "SG-100, Galleria"
 }, 
 {
  "sublocation": "", 
  "city": "Gurgaon", 
  "pincode": "122001", 
  "state": "Haryana", 
  "location": "Sohna Chowk", 
  "address": "Sohna Chowk , Bada Bazar"
 }, 
 {
  "sublocation": "", 
  "city": "Gurgaon", 
  "pincode": "122002", 
  "state": "Haryana", 
  "location": "Sohna Road", 
  "address": "Shop No.24, Ground Floor Nine X City Mart"
 }, 
 {
  "sublocation": "GFS-08", 
  "city": "Gurgaon", 
  "pincode": "122017", 
  "state": "Haryana", 
  "location": "Palam Vihar", 
  "address": "GFS-08, Ansal Plaza, Palam Vihar"
 }, 
 {
  "sublocation": "", 
  "city": "Gurgaon", 
  "pincode": "122009", 
  "state": "Haryana", 
  "location": "Leisure Valley Road", 
  "address": "Sector 29, Near Kingdom of Dreams"
 }, 
 {
  "sublocation": "6 , Magnum Centre ", 
  "city": "Panjim", 
  "pincode": "403001", 
  "state": "Goa", 
  "location": "M G Road", 
  "address": "6 , Magnum Centre , M G Road , Panjim"
 }, 
 {
  "sublocation": "6 , Magnum Centre ", 
  "city": "Panjim", 
  "pincode": "403001", 
  "state": "Goa", 
  "location": "M G Road", 
  "address": "6 , Magnum Centre , M G Road , Panjim"
 }, 
 {
  "sublocation": "", 
  "city": "Gurgaon", 
  "pincode": "122002", 
  "state": "Haryana", 
  "location": "Mehrauli Gurgaon Road", 
  "address": "Shop No. 2, DT City Centre Mall"
 }, 
 {
  "sublocation": "", 
  "city": "Gurgaon", 
  "pincode": "122002", 
  "state": "Haryana", 
  "location": "MGF Metropolitan Road", 
  "address": "MGF Mall , MGF Metropolitan Road"
 }, 
 {
  "sublocation": "15,16", 
  "city": "Gurgaon", 
  "pincode": "122002", 
  "state": "Haryana", 
  "location": "Mehrauli Road", 
  "address": "15,16, Annapurna Market, Sharol Mod"
 }, 
 {
  "sublocation": "", 
  "city": "Gurgaon", 
  "pincode": "122001", 
  "state": "Haryana", 
  "location": "Old Delhi Road", 
  "address": "Old Delhi Road"
 }, 
 {
  "sublocation": "G-13A, Upper Ground Floor", 
  "city": "New Delhi", 
  "pincode": "110076", 
  "state": "New Delhi", 
  "location": "Jasola", 
  "address": "G-13A, Upper Ground Floor, Abul Fazal Part - II, Jasola"
 }, 
 {
  "sublocation": "Shop No. 5, Community Centre", 
  "city": "New Delhi", 
  "pincode": "110017", 
  "state": "New Delhi", 
  "location": "Saket", 
  "address": "Shop No. 5, Community Centre, Malviya Nagar Extension, Near PVR Saket"
 }, 
 {
  "sublocation": "Shop No. 55", 
  "city": "New Delhi", 
  "pincode": "110017", 
  "state": "New Delhi", 
  "location": "Saket", 
  "address": "Shop No. 55, Select City Walk Mall, Saket"
 }, 
 {
  "sublocation": "", 
  "city": "Gurgaon", 
  "pincode": "122002", 
  "state": "Haryana", 
  "location": "National Highway 8", 
  "address": "Ambience Mall"
 }, 
 {
  "sublocation": "2515", 
  "city": "New Delhi", 
  "pincode": "110019", 
  "state": "New Delhi", 
  "location": "Hudson Lane", 
  "address": "2515, Ground Floor, Kingsway Camp"
 }, 
 {
  "sublocation": "H3,B, Kalkaji", 
  "city": "New Delhi", 
  "pincode": "110019", 
  "state": "New Delhi", 
  "location": "Kalkaji", 
  "address": "H3,B, Kalkaji, Main Market, Near Deshbandhu College"
 }, 
 {
  "sublocation": "A - 95, Ground Floor & Basement", 
  "city": "New Delhi", 
  "pincode": "110070", 
  "state": "New Delhi", 
  "location": "Madsoodpur", 
  "address": "A - 95, Ground Floor & Basement, Main Road, Vasant Kunj"
 }, 
 {
  "sublocation": "S214 & 225", 
  "city": "New Delhi", 
  "pincode": "110070", 
  "state": "New Delhi", 
  "location": "Vasant Kunj", 
  "address": "S214 & 225, Ambience Mall, Vasant Kunj"
 }, 
 {
  "sublocation": "Shop No. 145 & 146", 
  "city": "New Delhi", 
  "pincode": "110070", 
  "state": "New Delhi", 
  "location": "Vasant Kunj", 
  "address": "Shop No. 145 & 146, Ground Floor, Promenade Mall"
 }, 
 {
  "sublocation": "Unit No. 17, 18, 26, 27 , Ground Floor , Centre Stage Mall ", 
  "city": "Noida", 
  "pincode": "201301", 
  "state": "Uttar Pradesh", 
  "location": "Sector 18", 
  "address": "Unit No. 17, 18, 26, 27 , Ground Floor , Centre Stage Mall , L1 , Sector 18"
 }, 
 {
  "sublocation": "C 3", 
  "city": "New Delhi", 
  "pincode": "110017", 
  "state": "New Delhi", 
  "location": "Malviya Nagar", 
  "address": "C 3, Malviya Nagar, Main Market"
 }, 
 {
  "sublocation": "", 
  "city": "Noida", 
  "pincode": "201301", 
  "state": "Uttar Pradesh", 
  "location": "Sector 38A", 
  "address": "Sector 38A , Noida"
 }, 
 {
  "sublocation": "", 
  "city": "Noida", 
  "pincode": "201301", 
  "state": "Uttar Pradesh", 
  "location": "Sector 38A", 
  "address": "A2, Ashok Marg"
 }, 
 {
  "sublocation": "G-20", 
  "city": "New Delhi", 
  "pincode": "110049", 
  "state": "New Delhi", 
  "location": "South Extension - I", 
  "address": "G-20, South Extension,Part I"
 }, 
 {
  "sublocation": "Unit No. 17,18,26,27 Ground Floor", 
  "city": "Noida", 
  "pincode": "201301", 
  "state": "Uttar Pradesh", 
  "location": "Sector 18", 
  "address": "Unit No. 17,18,26,27 Ground Floor, Centre Stage Mall, L1"
 }, 
 {
  "sublocation": "", 
  "city": "New Delhi", 
  "pincode": "110049", 
  "state": "New Delhi", 
  "location": "Khel Gaon Marg", 
  "address": "Pro Shop, Siri Fort Sports Complex"
 }, 
 {
  "sublocation": "", 
  "city": "New Delhi", 
  "pincode": "110048", 
  "state": "New Delhi", 
  "location": "GK Market, Part 1", 
  "address": "M-56, GK-1"
 }, 
 {
  "sublocation": "335/2 & 336/2", 
  "city": "New Delhi", 
  "pincode": "110037", 
  "state": "New Delhi", 
  "location": "National Highway 8", 
  "address": "335/2 & 336/2, Rangpuri, Mahipalpur"
 }, 
 {
  "sublocation": "E-13C", 
  "city": "New Delhi", 
  "pincode": "110049", 
  "state": "New Delhi", 
  "location": "South Extension - II", 
  "address": "E-13C,E-13D & E-13B, NDSE-II"
 }, 
 {
  "sublocation": "2 , Community Centre (Adjacent to PVR) ", 
  "city": "Noida", 
  "pincode": "201301", 
  "state": "Uttar Pradesh", 
  "location": "Bhagwan Sahai Place", 
  "address": "2 , Community Centre (Adjacent to PVR) , Naraina ,Phase I"
 }, 
 {
  "sublocation": "50/4,Yusuf Sarai Market", 
  "city": "New Delhi", 
  "pincode": "110016", 
  "state": "New Delhi", 
  "location": "Aurobindo Marg", 
  "address": "50/4,Yusuf Sarai Market,Aurbindo Marg,NEW DELHI-16"
 }, 
 {
  "sublocation": "", 
  "city": "New Delhi", 
  "pincode": "110037", 
  "state": "New Delhi", 
  "location": "National Highway 8", 
  "address": "L - 22A, Mahipalpur Extension"
 }, 
 {
  "sublocation": "Oxford Cut ", 
  "city": "New Delhi", 
  "pincode": "110057", 
  "state": "New Delhi", 
  "location": "Vasant Vihar", 
  "address": "Oxford Cut , 48 Basant Lok , Vasant Vihar"
 }, 
 {
  "sublocation": "", 
  "city": "Muzaffarpur", 
  "pincode": "840002", 
  "state": "Bihar", 
  "location": "Kalmbag Road", 
  "address": "Chata Chowk"
 }, 
 {
  "sublocation": "", 
  "city": "New Delhi", 
  "pincode": "110023", 
  "state": "New Delhi", 
  "location": "Rajmata Vijayraje Scindia Marg", 
  "address": "Shop No. 78, Sarojini Nagar Market"
 }, 
 {
  "sublocation": "76", 
  "city": "New Delhi", 
  "pincode": "110024", 
  "state": "New Delhi", 
  "location": "Hauz Rani", 
  "address": "76, Hauz Rani, Malviya Nagar"
 }, 
 {
  "sublocation": "C - 4, Acharya Niketan Complex", 
  "city": "New Delhi", 
  "pincode": "110091", 
  "state": "New Delhi", 
  "location": "Mayur Vihar, Phase I", 
  "address": "C - 4, Acharya Niketan Complex, Mayur Vihar, Phase I"
 }, 
 {
  "sublocation": "", 
  "city": "New Delhi", 
  "pincode": "110001", 
  "state": "New Delhi", 
  "location": "Khan Market", 
  "address": "44B, Khan Market"
 }, 
 {
  "sublocation": "Near Income Tax Office ", 
  "city": "Rampur", 
  "pincode": "172001", 
  "state": "Uttar Pradesh", 
  "location": "National Highway 22", 
  "address": "Near Income Tax Office , National Highway 22 , Rampur"
 }, 
 {
  "sublocation": "Shop No. 82 & 83, Shipra Mall", 
  "city": "Ghaziabad", 
  "pincode": "201012", 
  "state": "Uttar Pradesh", 
  "location": "Indirapuram", 
  "address": "Shop No. 82 & 83, Shipra Mall, Shipra Sun City, Vaibhav Khand"
 }, 
 {
  "sublocation": "2", 
  "city": "Ghaziabad", 
  "pincode": "201001", 
  "state": "Uttar Pradesh", 
  "location": "Naraina", 
  "address": "2,Community Centre, Phase 1"
 }, 
 {
  "sublocation": "", 
  "city": "Ghaziabad", 
  "pincode": "201001", 
  "state": "Uttar Pradesh", 
  "location": "Vaishali", 
  "address": "Shop No. USGR-34,Ansal Plaza"
 }, 
 {
  "sublocation": "Shop No. 20", 
  "city": "Ghaziabad", 
  "pincode": "201010", 
  "state": "Uttar Pradesh", 
  "location": "Vaishali", 
  "address": "Shop No. 20, Mahagun Metro Mall, Sector 3"
 }, 
 {
  "sublocation": "G-28/29", 
  "city": "New Delhi", 
  "pincode": "110092", 
  "state": "New Delhi", 
  "location": "Vikas Marg", 
  "address": "G-28/29,V3S Mall, Vikas Marg"
 }, 
 {
  "sublocation": "17", 
  "city": "Ghaziabad", 
  "pincode": "201101", 
  "state": "Uttar Pradesh", 
  "location": "RD City", 
  "address": "17, RD City, Advocate Chambers"
 }, 
 {
  "sublocation": "D 32", 
  "city": "New Delhi", 
  "pincode": "110092", 
  "state": "New Delhi", 
  "location": "Vikas Marg", 
  "address": "D 32, Main Vikas Marg Road , Laxmi Nagar"
 }, 
 {
  "sublocation": "Plot No 58 ", 
  "city": "Ghaziabad", 
  "pincode": "201001", 
  "state": "Uttar Pradesh", 
  "location": "Ambedkar Road", 
  "address": "Plot No 58 , Ground Floor , Ambedkar Nagar"
 }, 
 {
  "sublocation": "N-45", 
  "city": "New Delhi", 
  "pincode": "110001", 
  "state": "New Delhi", 
  "location": "Connaught Place", 
  "address": "N-45, Pratap Building, Connaught Circus"
 }, 
 {
  "sublocation": "N-45", 
  "city": "New Delhi", 
  "pincode": "110001", 
  "state": "New Delhi", 
  "location": "Connaught Circus", 
  "address": "N-45, Pratap Building, Connaught Circus"
 }, 
 {
  "sublocation": "WZ - 1672A ", 
  "city": "New Delhi", 
  "pincode": "110046", 
  "state": "New Delhi", 
  "location": "Nangalraya", 
  "address": "WZ - 1672A , Ground Floor & Basement, Nangalraya"
 }, 
 {
  "sublocation": "", 
  "city": "New Delhi", 
  "pincode": "110001", 
  "state": "New Delhi", 
  "location": "Connaught Place", 
  "address": "E-13, Inner Circle"
 }, 
 {
  "sublocation": "Shop No. G4,G5, Manish Twin Plaza - II, Plot No. 03", 
  "city": "New Delhi", 
  "pincode": "110075", 
  "state": "New Delhi", 
  "location": "Desh Bandhu Gupta Marg", 
  "address": "Shop No. G4,G5, Manish Twin Plaza - II, Plot No. 03, Sector 11, Dwarka"
 }, 
 {
  "sublocation": "", 
  "city": "New Delhi", 
  "pincode": "110002", 
  "state": "New Delhi", 
  "location": "Daryaganj", 
  "address": "3646-47, Netaji Subhash Marg"
 }, 
 {
  "sublocation": "A-30, Raja Puri", 
  "city": "New Delhi", 
  "pincode": "110059", 
  "state": "New Delhi", 
  "location": "Dwarka", 
  "address": "A-30, Raja Puri, Opposite JDM Apartments, Sector 5"
 }, 
 {
  "sublocation": "662/2, Pandit Park, Patpar Ganj Road", 
  "city": "New Delhi", 
  "pincode": "110051", 
  "state": "New Delhi", 
  "location": "Patpar Ganj Road", 
  "address": "662/2, Pandit Park, Patpar Ganj Road, Opposite Police Station, Geeta Colony"
 }, 
 {
  "sublocation": "C - 2/16, Shop No. 1 & 2", 
  "city": "New Delhi", 
  "pincode": "110058", 
  "state": "New Delhi", 
  "location": "Janakpuri", 
  "address": "C - 2/16, Shop No. 1 & 2, - BR Set, Janakpuri"
 }, 
 {
  "sublocation": "1897", 
  "city": "New Delhi", 
  "pincode": "110006", 
  "state": "New Delhi", 
  "location": "Chandni Chowk", 
  "address": "1897, Chandni Chowk, Opp. Gurudwara"
 }, 
 {
  "sublocation": "18/45", 
  "city": "New Delhi", 
  "pincode": "110008", 
  "state": "New Delhi", 
  "location": "East Patel Nagar", 
  "address": "18/45, East Patel Nagar, Main Market"
 }, 
 {
  "sublocation": "150A", 
  "city": "New Delhi", 
  "pincode": "110058", 
  "state": "New Delhi", 
  "location": "Jail Road", 
  "address": "150A, BA Block, Janakpuri"
 }, 
 {
  "sublocation": "", 
  "city": "New Delhi", 
  "pincode": "110043", 
  "state": "New Delhi", 
  "location": "Najafgarh", 
  "address": "RZ-6A, Ratiram Park"
 }, 
 {
  "sublocation": "G-14", 
  "city": "New Delhi", 
  "pincode": "110058", 
  "state": "New Delhi", 
  "location": "Janakpuri", 
  "address": "G-14, Jaina Tower - 1, District Centre"
 }, 
 {
  "sublocation": "GF - 20, Ground Floor", 
  "city": "New Delhi", 
  "pincode": "110027", 
  "state": "New Delhi", 
  "location": "Raja Garden", 
  "address": "GF - 20, Ground Floor, West Gate Mall, Raja Garden"
 }, 
 {
  "sublocation": "", 
  "city": "New Delhi", 
  "pincode": "110008", 
  "state": "New Delhi", 
  "location": "West Patel Nagar", 
  "address": "A-43, West Patel Nagar"
 }, 
 {
  "sublocation": "", 
  "city": "New Delhi", 
  "pincode": "110037", 
  "state": "New Delhi", 
  "location": "Kapashera Road", 
  "address": "Kapashera"
 }, 
 {
  "sublocation": "", 
  "city": "New Delhi", 
  "pincode": "110018", 
  "state": "New Delhi", 
  "location": "Mall Road", 
  "address": "24/1 - A. Mall Road, Tilak Nagar"
 }, 
 {
  "sublocation": "", 
  "city": "New Delhi", 
  "pincode": "110027", 
  "state": "New Delhi", 
  "location": "Rajouri Garden", 
  "address": "Shop No. F139, Main Market"
 }, 
 {
  "sublocation": "1524", 
  "city": "New Delhi", 
  "pincode": "110006", 
  "state": "New Delhi", 
  "location": "Church Road 1524", 
  "address": "1524, Church Road, Kashmiri Gate"
 }, 
 {
  "sublocation": "", 
  "city": "New Delhi", 
  "pincode": "110095", 
  "state": "New Delhi", 
  "location": "Dilshad Garden", 
  "address": "L/50A, Dilshad Garden"
 }, 
 {
  "sublocation": "G 5 & 6 ", 
  "city": "Ghaziabad", 
  "pincode": "110027", 
  "state": "Uttar Pradesh", 
  "location": "Najafgarh Road", 
  "address": "G 5 & 6 , Pacific Mall , Sahibabad (Opposite Anand vihar Bus Terminal )"
 }, 
 {
  "sublocation": "", 
  "city": "Krishna Nagar", 
  "pincode": "741101", 
  "state": "West Bengal", 
  "location": "Foreshore Road 103/20", 
  "address": "Opposite Jain Hospital Bus Stop"
 }, 
 {
  "sublocation": "", 
  "city": "New Delhi", 
  "pincode": "110085", 
  "state": "New Delhi", 
  "location": "Kirti Nagar", 
  "address": "Moments Mall, Shop No. 103"
 }, 
 {
  "sublocation": "", 
  "city": "New Delhi", 
  "pincode": "110018", 
  "state": "New Delhi", 
  "location": "Vikaspuri", 
  "address": "KG 1/13, Vikaspuri"
 }, 
 {
  "sublocation": "70, Main Najafgarh Road", 
  "city": "New Delhi", 
  "pincode": "110015", 
  "state": "New Delhi", 
  "location": "Main Najafgarh Road", 
  "address": "70, Main Najafgarh Road, Industrial Area, Motinagar"
 }, 
 {
  "sublocation": "A-15", 
  "city": "New Delhi", 
  "pincode": "110094", 
  "state": "New Delhi", 
  "location": "Main 100 Feet Road", 
  "address": "A-15, West Jyoti Nagar, Near Durgapuri Chowk"
 }, 
 {
  "sublocation": "", 
  "city": "New Delhi", 
  "pincode": "110007", 
  "state": "New Delhi", 
  "location": "Kamla Nagar", 
  "address": "10A"
 }, 
 {
  "sublocation": "", 
  "city": "New Delhi", 
  "pincode": "110007", 
  "state": "New Delhi", 
  "location": "Bungalow Road", 
  "address": "3 , UB Jawahar Nagar"
 }, 
 {
  "sublocation": "16 UB, Jawahar Nagar", 
  "city": "New Delhi", 
  "pincode": "110007", 
  "state": "New Delhi", 
  "location": "Bungalow Road", 
  "address": "16 UB, Jawahar Nagar, Bungalow Road, Kamla Nagar"
 }, 
 {
  "sublocation": "A - 3/3 , Shop No. 1", 
  "city": "New Delhi", 
  "pincode": "110063", 
  "state": "New Delhi", 
  "location": "Paschim Vihar", 
  "address": "A - 3/3 , Shop No. 1, Ground Floor, Paschim Vihar"
 }, 
 {
  "sublocation": "117A, Deep Enclave, Ashok Vihar", 
  "city": "New Delhi", 
  "pincode": "110052", 
  "state": "New Delhi", 
  "location": "Ashok Vihar - Phase III", 
  "address": "117A, Deep Enclave, Ashok Vihar, Phase III, Opposite Sagar Ratna"
 }, 
 {
  "sublocation": "", 
  "city": "New Delhi", 
  "pincode": "110009", 
  "state": "New Delhi", 
  "location": "Mukherjee Nagar", 
  "address": "708, Mukherjee Nagar"
 }, 
 {
  "sublocation": "", 
  "city": "Asansol", 
  "pincode": "713303", 
  "state": "West Bengal", 
  "location": "G T Road (East)", 
  "address": "Rambandhutala Road"
 }, 
 {
  "sublocation": "19", 
  "city": "New Delhi", 
  "pincode": "110034", 
  "state": "New Delhi", 
  "location": "Road No. 44", 
  "address": "19, DDA Community Centre , Pitampura"
 }, 
 {
  "sublocation": "", 
  "city": "New Delhi", 
  "pincode": "110034", 
  "state": "New Delhi", 
  "location": "Pitampura", 
  "address": "Kapil Vihar"
 }, 
 {
  "sublocation": "C-8/12", 
  "city": "New Delhi", 
  "pincode": "110085", 
  "state": "New Delhi", 
  "location": "Rohini", 
  "address": "C-8/12, Sector 7, Rohini"
 }, 
 {
  "sublocation": "Main Bazar", 
  "city": "Jhajjar", 
  "pincode": "124103", 
  "state": "Haryana", 
  "location": "Main Bazar", 
  "address": "Main Bazar, Near Old Post Office, Jhajjar"
 }, 
 {
  "sublocation": "Shop No. 2, Opposite Nagar Parishad", 
  "city": "Jhunjhunu", 
  "pincode": "333001", 
  "state": "Rajasthan", 
  "location": "Road no. 2", 
  "address": "Shop No. 2, Opposite Nagar Parishad, Balaji Tower, Road No. 1"
 }, 
 {
  "sublocation": "", 
  "city": "Pilani", 
  "pincode": "333031", 
  "state": "Rajasthan", 
  "location": "Main Market", 
  "address": "Shop No. 1 &2"
 }, 
 {
  "sublocation": "Delhi Rohtak Road ", 
  "city": "Bahadurgarh", 
  "pincode": "124507", 
  "state": "Haryana", 
  "location": "Delhi Rohtak Road", 
  "address": "Delhi Rohtak Road , Near Sainik Public School , Bahadurgarh"
 }, 
 {
  "sublocation": "", 
  "city": "Deoghar", 
  "pincode": "814112", 
  "state": "Jharkhand", 
  "location": "Jalsar Road", 
  "address": "Sagar Enterprises, Tower Chowk"
 }, 
 {
  "sublocation": "Shop No. 1 & 4, Shivam Complex ", 
  "city": "Rajkot", 
  "pincode": "360001", 
  "state": "Gujarat", 
  "location": "Yagniq Road", 
  "address": "Shop No. 1 & 4, Shivam Complex , Opposite Satyam Store , Yagniq Road"
 }, 
 {
  "sublocation": "", 
  "city": "New Delhi", 
  "pincode": "110086", 
  "state": "New Delhi", 
  "location": "Rohini , Sector 10", 
  "address": "Shop No. GA - 21. Ground Floor, Unitech Amusement Park"
 }, 
 {
  "sublocation": "Delhi Meerut Highway", 
  "city": "Modinagar", 
  "pincode": "201204", 
  "state": "Uttar Pradesh", 
  "location": "Delhi Meerut Highway", 
  "address": "Delhi Meerut Highway, Near Bus Stand , Modinagar"
 }, 
 {
  "sublocation": "", 
  "city": "Rajkot", 
  "pincode": "360005", 
  "state": "Gujarat", 
  "location": "Kalawad Road", 
  "address": "Shop No 1 Kotecha Ckowk Opp Ghareshwar Dairy Kalawad Road Rajkot"
 }, 
 {
  "sublocation": "Ahuja Complex , C 50 & 51, Hari Mandir Gali ", 
  "city": "Rudrapur", 
  "pincode": "263153", 
  "state": "Uttarakhand", 
  "location": "Hari Mandir Gali", 
  "address": "Ahuja Complex , C 50 & 51, Hari Mandir Gali , Main Market , Rudrapur"
 }, 
 {
  "sublocation": "1962/1, Arya Samaj Road", 
  "city": "New Delhi", 
  "pincode": "110040", 
  "state": "New Delhi", 
  "location": "Arya Samaj Road", 
  "address": "1962/1, Arya Samaj Road, Ground Floor, Narela"
 }, 
 {
  "sublocation": "Shop No. 15 , 16 , 17 , 18 ", 
  "city": "Bahadurgarh", 
  "pincode": "141028", 
  "state": "Haryana", 
  "location": "Karnal Road", 
  "address": "Shop No. 15 , 16 , 17 , 18 , Khatri Market , Kundli"
 }, 
 {
  "sublocation": "48 , Ground Floor ", 
  "city": "Shimoga", 
  "pincode": "577201", 
  "state": "Karnataka", 
  "location": "Savalanga Road", 
  "address": "48 , Ground Floor , JJ Commercial Building , Savalanga Road"
 }, 
 {
  "sublocation": "", 
  "city": "Durgapur", 
  "pincode": "713216", 
  "state": "West Bengal", 
  "location": "City Centre", 
  "address": "The Junction Mall"
 }, 
 {
  "sublocation": "Gaur Central", 
  "city": "Ghaziabad", 
  "pincode": "201002", 
  "state": "Uttar Pradesh", 
  "location": "Raj Nagar", 
  "address": "Gaur Central, A1 to A4, RDC"
 }, 
 {
  "sublocation": "Marion Sky Tech Mall ", 
  "city": "Rohtak", 
  "pincode": "124001", 
  "state": "Haryana", 
  "location": "Sonipat Road", 
  "address": "Marion Sky Tech Mall , Sector 3 , Sonipat Road"
 }, 
 {
  "sublocation": "256/1 ", 
  "city": "Kashipur", 
  "pincode": "263153", 
  "state": "Uttarakhand", 
  "location": "Ram Nagar Road", 
  "address": "256/1 , Ram Nagar Road , Near Prem Deep Hotel"
 }, 
 {
  "sublocation": "Vinika Towers, Shastri Kunj ", 
  "city": "Haldwani", 
  "pincode": "263139", 
  "state": "Uttarakhand", 
  "location": "Nainital Road", 
  "address": "Vinika Towers, Shastri Kunj , Opposite Nagar Palika , Nainital Road"
 }, 
 {
  "sublocation": "Shop No. 1034 & 1035", 
  "city": "Sonipat", 
  "pincode": "131001", 
  "state": "Haryana", 
  "location": "Button Factory Road", 
  "address": "Shop No. 1034 & 1035, Button Factory Road, Subhash Chowk"
 }, 
 {
  "sublocation": "", 
  "city": "Bhiwani", 
  "pincode": "127021", 
  "state": "Haryana", 
  "location": "Circular Road", 
  "address": "Near Old Bus Stand , Circular Road"
 }, 
 {
  "sublocation": "295 ", 
  "city": "Tirunelveli", 
  "pincode": "600098", 
  "state": "Tamil Nadu", 
  "location": "Ambattur", 
  "address": "295 , SIDCO Industrial Estate , Ambattur"
 }, 
 {
  "sublocation": "No.295 ", 
  "city": "Chennai", 
  "pincode": "600098", 
  "state": "Tamil Nadu", 
  "location": "Ambattur", 
  "address": "No.295 ,SIDCO Industrial Estate , Ambattur"
 }, 
 {
  "sublocation": "12 , Paper Mills Road , Ram Nagar ", 
  "city": "Chennai", 
  "pincode": "600082", 
  "state": "Tamil Nadu", 
  "location": "Perambur", 
  "address": "12 , Paper Mills Road , Ram Nagar , Peravallur , Near Queen Hall"
 }, 
 {
  "sublocation": "C 32 ", 
  "city": "Chennai", 
  "pincode": "600040", 
  "state": "Tamil Nadu", 
  "location": "Second Avenue", 
  "address": "C 32 , Second Avenue , Anna Nagar"
 }, 
 {
  "sublocation": "C - 1 , 5th Block ", 
  "city": "Chennai", 
  "pincode": "600037", 
  "state": "Tamil Nadu", 
  "location": "Pari Road", 
  "address": "C - 1 , 5th Block , Mogappair East , (Junction of Pari and Ori Street )"
 }, 
 {
  "sublocation": "", 
  "city": "Rohtak", 
  "pincode": "124001", 
  "state": "Haryana", 
  "location": "Delhi Road", 
  "address": "Delhi Road , Opposite Pizza Hut"
 }, 
 {
  "sublocation": "S - 121 , Ampa Mall ", 
  "city": "Chennai", 
  "pincode": "600029", 
  "state": "Tamil Nadu", 
  "location": "P H Road", 
  "address": "S - 121 , Ampa Mall , PH Road , Aminjikarai"
 }, 
 {
  "sublocation": "Opportunity Towers , 122 , Nelson Manickam Road ", 
  "city": "Chennai", 
  "pincode": "600029", 
  "state": "Tamil Nadu", 
  "location": "N M Road", 
  "address": "Opportunity Towers , 122 , Nelson Manickam Road , Next to Pantaloon , Aminjikari"
 }, 
 {
  "sublocation": "Shop No. 73 ", 
  "city": "Chennai", 
  "pincode": "600008", 
  "state": "Tamil Nadu", 
  "location": "Casa Major Road", 
  "address": "Shop No. 73 , Casa Major Road , Egmore"
 }, 
 {
  "sublocation": "295 ", 
  "city": "Chennai", 
  "pincode": "600034", 
  "state": "Tamil Nadu", 
  "location": "Ambattur", 
  "address": "295 , SIDCO Industrial Estate , Ambattur"
 }, 
 {
  "sublocation": "36 , Dwarka ", 
  "city": "Chennai", 
  "pincode": "600034", 
  "state": "Tamil Nadu", 
  "location": "Uttamar Gandhi Salai", 
  "address": "36 , Dwarka ,  Uttamar Gandhi Salai , Nungambakkam"
 }, 
 {
  "sublocation": "G  129 , Spencer Plaza , Phase III ", 
  "city": "Chennai", 
  "pincode": "600002", 
  "state": "Tamil Nadu", 
  "location": "Anna Salai", 
  "address": "G  129 , Spencer Plaza , Phase III , 769 , Anna Salai"
 }, 
 {
  "sublocation": "Express Avenue , No. 49 , 50L ", 
  "city": "Chennai", 
  "pincode": "600014", 
  "state": "Tamil Nadu", 
  "location": "Whites Road", 
  "address": "Express Avenue , No. 49 , 50L , Whites Road , Roypettah"
 }, 
 {
  "sublocation": "Unit No. 223, Second Floor ", 
  "city": "Chennai", 
  "pincode": "600026", 
  "state": "Tamil Nadu", 
  "location": "Vadapalani", 
  "address": "Unit No. 223, Second Floor , Forum Vijaya Mall , Vadapalani"
 }, 
 {
  "sublocation": "347/1 ", 
  "city": "Chennai", 
  "pincode": "600024", 
  "state": "Tamil Nadu", 
  "location": "Arcot Road", 
  "address": "347/1 , Arcot Road , Kodambakkam"
 }, 
 {
  "sublocation": "1152 , 1st B Main , 16th B Cross ", 
  "city": "Bangalore", 
  "pincode": "560063", 
  "state": "Karnataka", 
  "location": "Yelahanka", 
  "address": "1152 , 1st B Main , 16th B Cross , Yelahanka New Town , Bangalore"
 }, 
 {
  "sublocation": "No. 4/31", 
  "city": "Chennai", 
  "pincode": "600041", 
  "state": "Tamil Nadu", 
  "location": "East Coast Road", 
  "address": "No. 4/31, East Coast Road , Palavakkam"
 }, 
 {
  "sublocation": "Number 4 ", 
  "city": "Chennai", 
  "pincode": "600116", 
  "state": "Tamil Nadu", 
  "location": "Arcot Road", 
  "address": "Number 4 , Arcot Road, Porur"
 }, 
 {
  "sublocation": "117 , Citi Towers ", 
  "city": "Chennai", 
  "pincode": "600017", 
  "state": "Tamil Nadu", 
  "location": "Thyagaraya Road", 
  "address": "117 , Citi Towers , Thyagaraya Road , T Nagar"
 }, 
 {
  "sublocation": "Shop No, 7 , 2nd Floor ", 
  "city": "Chennai", 
  "pincode": "600004", 
  "state": "Tamil Nadu", 
  "location": "RK Road", 
  "address": "Shop No, 7 , 2nd Floor , Chennai Citi Centre RK Road , Mylapore"
 }, 
 {
  "sublocation": "65 ", 
  "city": "Chennai", 
  "pincode": "600098", 
  "state": "Tamil Nadu", 
  "location": "Ttk Road", 
  "address": "65 , Ttk Road , Alwarpet"
 }, 
 {
  "sublocation": "No. 47F , Ground Floor 1 ", 
  "city": "Chennai", 
  "pincode": "600085", 
  "state": "Tamil Nadu", 
  "location": "Gandhi Mandapam Road", 
  "address": "No. 47F , Ground Floor 1 , Gandhi Mandapam Road , Kotturpuram"
 }, 
 {
  "sublocation": "Archana Centre , No. 29 , Annasalai ", 
  "city": "Chennai", 
  "pincode": "600015", 
  "state": "Tamil Nadu", 
  "location": "Annasalai", 
  "address": "Archana Centre , No. 29 , Annasalai , Saidapet , Near Ashok Leyland Building"
 }, 
 {
  "sublocation": "C/o New Light Studio ", 
  "city": "Nainital", 
  "pincode": "263002", 
  "state": "Uttarakhand", 
  "location": "Mallital", 
  "address": "C/o New Light Studio , Popular Compound, Mallital"
 }, 
 {
  "sublocation": "9 ", 
  "city": "Chennai", 
  "pincode": "600024", 
  "state": "Tamil Nadu", 
  "location": "Medavakkam Road", 
  "address": "9 , Medavakkam Road , Adambakkam"
 }, 
 {
  "sublocation": "52/100 ", 
  "city": "Chennai", 
  "pincode": "600020", 
  "state": "Tamil Nadu", 
  "location": "L B Road", 
  "address": "52/100 , L B Road Adeyar , Near Ganapati Ram"
 }, 
 {
  "sublocation": "G 56 , Phoenix Market City ", 
  "city": "Chennai", 
  "pincode": "600042", 
  "state": "Tamil Nadu", 
  "location": "Velachery Main Road", 
  "address": "G 56 , Phoenix Market City , 142 , Velachery Main Road"
 }, 
 {
  "sublocation": "28B ,100 Ft Road ", 
  "city": "Chennai", 
  "pincode": "600042", 
  "state": "Tamil Nadu", 
  "location": "Velacherry", 
  "address": "28B ,100 Ft Road , Lakshminagar , Vellacherry"
 }, 
 {
  "sublocation": "8 , ITI Employees Colony , New BEL Road ", 
  "city": "Bangalore", 
  "pincode": "560011", 
  "state": "Karnataka", 
  "location": "Bel Road", 
  "address": "8 , ITI Employees Colony , New BEL Road , RMV , 2nd Stage"
 }, 
 {
  "sublocation": "", 
  "city": "Vellore", 
  "pincode": "632001", 
  "state": "Tamil Nadu", 
  "location": "Officers Lane", 
  "address": "19A , Officers Lane"
 }, 
 {
  "sublocation": "No. 1 ", 
  "city": "Bangalore", 
  "pincode": "560084", 
  "state": "Karnataka", 
  "location": "Kamanahalli Main Road", 
  "address": "No. 1 , SMS Royale , Kamanahalli Main Road"
 }, 
 {
  "sublocation": "F - 32 ", 
  "city": "Bangalore", 
  "pincode": "560011", 
  "state": "Karnataka", 
  "location": "Phoenix Market City", 
  "address": "F - 32 ,Phoenix Market City , Near Krishnarjuna Flyover"
 }, 
 {
  "sublocation": "No. 302A", 
  "city": "Chennai", 
  "pincode": "600098", 
  "state": "Tamil Nadu", 
  "location": "Chrompet", 
  "address": "No. 302A, GST Road , Chrompet"
 }, 
 {
  "sublocation": "Unit No. UG 15 , Brigade Orion Mall ", 
  "city": "Bangalore", 
  "pincode": "560038", 
  "state": "Karnataka", 
  "location": "Orion Mall", 
  "address": "Unit No. UG 15 , Brigade Orion Mall , Subramanya Nagar , Rajaji Nagar"
 }, 
 {
  "sublocation": "Mantri Mall , First Floor , F14 , Sampige Road ", 
  "city": "Bangalore", 
  "pincode": "560003", 
  "state": "Karnataka", 
  "location": "Mantri Mall", 
  "address": "Mantri Mall , First Floor , F14 , Sampige Road , Malleshwaram , Bangalore"
 }, 
 {
  "sublocation": "Forum Value Mall , Shop No. 25", 
  "city": "Bangalore", 
  "pincode": "560066", 
  "state": "Karnataka", 
  "location": "Whitefield Main Road", 
  "address": "Forum Value Mall , Shop No. 25, No. 62 , Whitefield Main Road"
 }, 
 {
  "sublocation": "No. G2 & G3 , Ground Floor", 
  "city": "Bangalore", 
  "pincode": "560003", 
  "state": "Karnataka", 
  "location": "Sampige Road", 
  "address": "No. G2 & G3 , Ground Floor, No. 494, 4th Cross Road"
 }, 
 {
  "sublocation": "109/5385/3735 ", 
  "city": "Chikmaglur", 
  "pincode": "577101", 
  "state": "Karnataka", 
  "location": "Chikmagalur", 
  "address": "109/5385/3735 , Opposite Corporation Bank , MG Road"
 }, 
 {
  "sublocation": "202 , Anirudha Apartments , Velachery Main Road", 
  "city": "Chennai", 
  "pincode": "600073", 
  "state": "Tamil Nadu", 
  "location": "Velachery Main Road", 
  "address": "202 , Anirudha Apartments , Velachery Main Road, Camp Road , Selayur"
 }, 
 {
  "sublocation": "Ground Floor 5 , Sigma Arcade II ", 
  "city": "Bangalore", 
  "pincode": "560037", 
  "state": "Karnataka", 
  "location": "Sigma Arcade", 
  "address": "Ground Floor 5 , Sigma Arcade II , 227/70/B , Marathahalli"
 }, 
 {
  "sublocation": "261 ", 
  "city": "Bangalore", 
  "pincode": "560011", 
  "state": "Karnataka", 
  "location": "Brigade Road", 
  "address": "261 , Brigade Road , Civil Station"
 }, 
 {
  "sublocation": "No. 18 , Ground Floor", 
  "city": "Bangalore", 
  "pincode": "560011", 
  "state": "Karnataka", 
  "location": "Brigade Road", 
  "address": "No. 18 , Ground Floor, Brigade Road , Next to Sony World"
 }, 
 {
  "sublocation": "1937 , 17th Cross ", 
  "city": "Bangalore", 
  "pincode": "560050", 
  "state": "Karnataka", 
  "location": "Magadi Road", 
  "address": "1937 , 17th Cross , Magadi Road , Vijaynagar"
 }, 
 {
  "sublocation": "204 ", 
  "city": "Bangalore", 
  "pincode": "560025", 
  "state": "Karnataka", 
  "location": "Garuda Mall", 
  "address": "204 , Second Floor , Garuda Mall"
 }, 
 {
  "sublocation": "C - 32", 
  "city": "Chennai", 
  "pincode": "600040", 
  "state": "Tamil Nadu", 
  "location": "Anna Nagar", 
  "address": "C - 32, Second Avenue , Anna Nagar"
 }, 
 {
  "sublocation": "Katti-ma , 2001, 100 Ft Road ", 
  "city": "Bangalore", 
  "pincode": "560038", 
  "state": "Karnataka", 
  "location": "100 Feet Road", 
  "address": "Katti-ma , 2001, 100 Ft Road , HAL 2nd Stage , Indiranagar"
 }, 
 {
  "sublocation": "", 
  "city": "Bhagalpur", 
  "pincode": "813001", 
  "state": "Bihar", 
  "location": "Rajendra Prasad Road", 
  "address": "Near Mahadev Talkies"
 }, 
 {
  "sublocation": "No. 32 ", 
  "city": "Chennai", 
  "pincode": "600041", 
  "state": "Tamil Nadu", 
  "location": "Omr", 
  "address": "No. 32 , Ramalinga Nagar , OMR IT Highway"
 }, 
 {
  "sublocation": "No. 2 , Ground Floor, Kukreja Towers , 11th Main ", 
  "city": "Bangalore", 
  "pincode": "560011", 
  "state": "Karnataka", 
  "location": "11th Main", 
  "address": "No. 2 , Ground Floor, Kukreja Towers , 11th Main , 3rd Block , Jayanagar"
 }, 
 {
  "sublocation": "Shop no. 104 , Ground Floor", 
  "city": "Bangalore", 
  "pincode": "560035", 
  "state": "Karnataka", 
  "location": "Sarjapur Road", 
  "address": "Shop no. 104 , Ground Floor, Total Mall , Sarjapur Road"
 }, 
 {
  "sublocation": "434 , 27th Main ", 
  "city": "Bangalore", 
  "pincode": "560038", 
  "state": "Karnataka", 
  "location": "HSR Layout", 
  "address": "434 , 27th Main , HSR Layout , 1st Sector"
 }, 
 {
  "sublocation": "158 , Redhills Road ", 
  "city": "Chennai", 
  "pincode": "600053", 
  "state": "Tamil Nadu", 
  "location": "Redhills Road", 
  "address": "158 , Redhills Road , Oragadam , Ambattur"
 }, 
 {
  "sublocation": "No. 25 , Kathriguppe Main Road ", 
  "city": "Bangalore", 
  "pincode": "560085", 
  "state": "Karnataka", 
  "location": "Kathriguppe Main Road", 
  "address": "No. 25 , Kathriguppe Main Road , Banashankari 3rd Stage , 4th Block"
 }, 
 {
  "sublocation": "No. 161/166 & 161A/166 , Vinayaka Nagar ", 
  "city": "Bangalore", 
  "pincode": "560076", 
  "state": "Karnataka", 
  "location": "Bannerghatta Main Road", 
  "address": "No. 161/166 & 161A/166 , Vinayaka Nagar , Arakere , Bannerghatta Main Road"
 }, 
 {
  "sublocation": "", 
  "city": "Bangalore", 
  "pincode": "560076", 
  "state": "Karnataka", 
  "location": "Bannerghatta Main Road", 
  "address": "Syndicate Bank Colony , Omkar Nagar"
 }, 
 {
  "sublocation": "6 ,Gherkhatti ", 
  "city": "Muzaffarnagar", 
  "pincode": "251001", 
  "state": "Uttar Pradesh", 
  "location": "Gaushala Road", 
  "address": "6 ,Gherkhatti , Gaushala Road , New Mandi"
 }, 
 {
  "sublocation": "Shop No. G9, 101", 
  "city": "Panipat", 
  "pincode": "132103", 
  "state": "Haryana", 
  "location": "Mittal Mall", 
  "address": "Shop No. G9, 101, Mittal Mega Mall, Sector 25 (II)"
 }, 
 {
  "sublocation": "G6 & 7 ", 
  "city": "Jamnagar", 
  "pincode": "361008", 
  "state": "Gujarat", 
  "location": "Manek Centre", 
  "address": "G6 & 7 ,Manek Centre , P N Marg"
 }, 
 {
  "sublocation": "", 
  "city": "Hisar", 
  "pincode": "125001", 
  "state": "Haryana", 
  "location": "Urban State Market", 
  "address": "SCF - 44 , Urban - Estate 2"
 }, 
 {
  "sublocation": "DBZ S189", 
  "city": "Gandhidham", 
  "pincode": "370201", 
  "state": "Gujarat", 
  "location": "Gandhidham", 
  "address": "DBZ S189, Ward 12 A, Opposite Shivaji Park"
 }, 
 {
  "sublocation": "", 
  "city": "Kolkata", 
  "pincode": "700127", 
  "state": "West Bengal", 
  "location": "Jessore Road 22/4", 
  "address": "Barasat , North 24 Parganas"
 }, 
 {
  "sublocation": "Shop No. 31", 
  "city": "Jind", 
  "pincode": "126102", 
  "state": "Haryana", 
  "location": "Diwan Khan Market", 
  "address": "Shop No. 31, Diwan Khan Market, Rani Talab"
 }, 
 {
  "sublocation": "29 ", 
  "city": "Hisar", 
  "pincode": "125001", 
  "state": "Haryana", 
  "location": "Parijat Chowk", 
  "address": "29 , Guru Jambeshwar Market , Near Parijat Chowk"
 }, 
 {
  "sublocation": "", 
  "city": "Bikaner", 
  "pincode": "334001", 
  "state": "Rajasthan", 
  "location": "Rani Bazaar", 
  "address": "Roshan Plaza, Mahesh Building"
 }, 
 {
  "sublocation": "", 
  "city": "Kolkata", 
  "pincode": "711102", 
  "state": "West Bengal", 
  "location": "Jagat Banerjee Ghat Road", 
  "address": "Avani Riverside Mall"
 }, 
 {
  "sublocation": "", 
  "city": "Kolkata", 
  "pincode": "700008", 
  "state": "West Bengal", 
  "location": "Diamond Harbor Road", 
  "address": "199/1, Near Shilpara Bus Stand"
 }, 
 {
  "sublocation": "", 
  "city": "Kolkata", 
  "pincode": "711101", 
  "state": "West Bengal", 
  "location": "G T Road 16", 
  "address": "Opposite Sarat Sadan"
 }, 
 {
  "sublocation": "", 
  "city": "Kolkata", 
  "pincode": "700071", 
  "state": "West Bengal", 
  "location": "Shakespeare Sarani", 
  "address": "Shakespeare Sarani"
 }, 
 {
  "sublocation": "Door No. 2 - 94 ", 
  "city": "Kolkata", 
  "pincode": "500050", 
  "state": "West Bengal", 
  "location": "Chandannagar", 
  "address": "Door No. 2 - 94 , Chandannagar , Near Swagath Hotel"
 }, 
 {
  "sublocation": "", 
  "city": "Kolkata", 
  "pincode": "700087", 
  "state": "West Bengal", 
  "location": "Lindsay Street", 
  "address": "SS Hogg Market, Shop No. 7-10"
 }, 
 {
  "sublocation": "", 
  "city": "Kolkata", 
  "pincode": "700068", 
  "state": "West Bengal", 
  "location": "Prince Anwar Shah Road 375", 
  "address": "F455"
 }, 
 {
  "sublocation": "", 
  "city": "Kolkata", 
  "pincode": "700047", 
  "state": "West Bengal", 
  "location": "NSC Bose Road 358/1", 
  "address": "Kalmbag Road"
 }, 
 {
  "sublocation": "Jhilmil Dhaba, VPO", 
  "city": "Karnal", 
  "pincode": "132001", 
  "state": "Haryana", 
  "location": "Delhi Chandigarh Highway", 
  "address": "Jhilmil Dhaba, VPO, Uchana, Delhi Chandigarh Highway"
 }, 
 {
  "sublocation": "", 
  "city": "Kolkata", 
  "pincode": "700029", 
  "state": "West Bengal", 
  "location": "Ras Behari Avenue", 
  "address": "Cantonment Road"
 }, 
 {
  "sublocation": "", 
  "city": "Kolkata", 
  "pincode": "700017", 
  "state": "West Bengal", 
  "location": "Sir Syed Amir Ali Avenue", 
  "address": "Quest Mall, Shop No. 214"
 }, 
 {
  "sublocation": "", 
  "city": "Kolkata", 
  "pincode": "700013", 
  "state": "West Bengal", 
  "location": "Chowranghee", 
  "address": "Grand Hotel Arcade"
 }, 
 {
  "sublocation": "", 
  "city": "Karnal", 
  "pincode": "132001", 
  "state": "Haryana", 
  "location": "Kunjpura Road", 
  "address": "Kunjpura Road"
 }, 
 {
  "sublocation": "", 
  "city": "Kolkata", 
  "pincode": "700054", 
  "state": "West Bengal", 
  "location": "Maniktala Main Road 164/1", 
  "address": "Shop No. 038, Mani Square Mall"
 }, 
 {
  "sublocation": "", 
  "city": "Kolkata", 
  "pincode": "700056", 
  "state": "West Bengal", 
  "location": "Station Road", 
  "address": "Sodepur, Bangashree"
 }, 
 {
  "sublocation": "Ras Behari Avenue", 
  "city": "Hoogly", 
  "pincode": "712136", 
  "state": "West Bengal", 
  "location": "Chandan Nagar", 
  "address": "Ras Behari Avenue, Shop No, 486"
 }, 
 {
  "sublocation": "", 
  "city": "Kolkata", 
  "pincode": "700064", 
  "state": "West Bengal", 
  "location": "Citi Centre, Salt Lake", 
  "address": "Citi Centre, Salt Lake"
 }, 
 {
  "sublocation": "", 
  "city": "Kolkata", 
  "pincode": "700120", 
  "state": "West Bengal", 
  "location": "S N Banerjee Road", 
  "address": "S N Banerjee Road"
 }, 
 {
  "sublocation": "Unit B004", 
  "city": "Kolkata", 
  "pincode": "700157", 
  "state": "West Bengal", 
  "location": "Rajarhat", 
  "address": "Unit B004, City Centre, New Town"
 }, 
 {
  "sublocation": "", 
  "city": "Dharmshala", 
  "pincode": "176215", 
  "state": "Himachal Pradesh", 
  "location": "Kotwali Bazar", 
  "address": "Kotwali Bazar, Dharmshala"
 }, 
 {
  "sublocation": "Ground Floor , Premier Height , Manipal Road , Laxmidra Nagar ", 
  "city": "Manipal", 
  "pincode": "576104", 
  "state": "Karnataka", 
  "location": "Manipal Road", 
  "address": "Ground Floor , Premier Height , Manipal Road , Laxmidra Nagar , Manipal , Udupi"
 }, 
 {
  "sublocation": "", 
  "city": "Kolkata", 
  "pincode": "743145", 
  "state": "West Bengal", 
  "location": "North 24 Parganas", 
  "address": "Ground Floor, 57 KGR Path"
 }, 
 {
  "sublocation": "", 
  "city": "Bhuj", 
  "pincode": "370001", 
  "state": "Gujarat", 
  "location": "Hospital Road", 
  "address": "Near Government Hospital"
 }, 
 {
  "sublocation": "", 
  "city": "Rishikesh", 
  "pincode": "249201", 
  "state": "Uttarakhand", 
  "location": "Mukharji Marg", 
  "address": "6, Mukharji Marg"
 }, 
 {
  "sublocation": "Sirsa Hissar Highway ", 
  "city": "Fatehabad", 
  "pincode": "125050", 
  "state": "Haryana", 
  "location": "National Highway 10", 
  "address": "Sirsa Hissar Highway , Near HDFC Bank , Fatehabad"
 }, 
 {
  "sublocation": "", 
  "city": "Berhampur", 
  "pincode": "742103", 
  "state": "West Bengal", 
  "location": "Netaji Road 365", 
  "address": "Khagra, Murshidabad"
 }, 
 {
  "sublocation": "Beside Liberty Hotel , Near Bus Stand ", 
  "city": "Kaithal", 
  "pincode": "136027", 
  "state": "Haryana", 
  "location": "Ambala Road", 
  "address": "Beside Liberty Hotel , Near Bus Stand , Pawa Chowk , Kaithal"
 }, 
 {
  "sublocation": "", 
  "city": "Tohana", 
  "pincode": "125120", 
  "state": "Haryana", 
  "location": "Railway Road", 
  "address": "Main Market , Railway Road"
 }, 
 {
  "sublocation": "Sector 17", 
  "city": "Kurukshetra", 
  "pincode": "136118", 
  "state": "Haryana", 
  "location": "Kurukshetra", 
  "address": "Sector 17, SOC 53, Kurukshetra"
 }, 
 {
  "sublocation": "", 
  "city": "Yamunanagar", 
  "pincode": "135501", 
  "state": "Haryana", 
  "location": "Yamunanagar", 
  "address": "Model Town , Yamuna Nagar"
 }, 
 {
  "sublocation": "Shah Satnam Ji Market ", 
  "city": "Sirsa", 
  "pincode": "125055", 
  "state": "Haryana", 
  "location": "Dera Sacha Sauda", 
  "address": "Shah Satnam Ji Market , Dera Sacha Sauda , Sirsa"
 }, 
 {
  "sublocation": "", 
  "city": "Sirsa", 
  "pincode": "125055", 
  "state": "Haryana", 
  "location": "PNB Lane", 
  "address": "PNB Lane, Rori Bazar"
 }, 
 {
  "sublocation": "Shop No. 131 , Devraj Urs Road ", 
  "city": "Mysore", 
  "pincode": "570001", 
  "state": "Karnataka", 
  "location": "Devraj Urs Rd", 
  "address": "Shop No. 131 , Devraj Urs Road , 4th Block , Devraj Mohalla"
 }, 
 {
  "sublocation": "103 , Amity Complex", 
  "city": "Dehradun", 
  "pincode": "248001", 
  "state": "Uttarakhand", 
  "location": "Silver City", 
  "address": "103 , Amity Complex, Near Pizza Hut , Dehradun"
 }, 
 {
  "sublocation": "Shop No. F 14 , First Floor ", 
  "city": "Dehradun", 
  "pincode": "248001", 
  "state": "Uttarakhand", 
  "location": "Rajpur Road", 
  "address": "Shop No. F 14 , First Floor , Pacific Mall , Rajpur Road"
 }, 
 {
  "sublocation": "103, Rajpur Road", 
  "city": "Dehradun", 
  "pincode": "248001", 
  "state": "Uttarakhand", 
  "location": "Rajpur Road", 
  "address": "103, Rajpur Road, Amity Complex, Dehradun"
 }, 
 {
  "sublocation": "No. 1 , Ground Floor , Bharath Mall ", 
  "city": "Mangalore", 
  "pincode": "575003", 
  "state": "Karnataka", 
  "location": "Bharat Mall", 
  "address": "No. 1 , Ground Floor , Bharath Mall , Opposite KSRTC Bus Stand , Biaji"
 }, 
 {
  "sublocation": "Upper Ground Floor 18 ", 
  "city": "Mangalore", 
  "pincode": "575001", 
  "state": "Karnataka", 
  "location": "City Centre", 
  "address": "Upper Ground Floor 18 , City Centre , K S Rao Nagar"
 }, 
 {
  "sublocation": "353 , M G Road ", 
  "city": "Pondicherry", 
  "pincode": "605001", 
  "state": "Tamil Nadu", 
  "location": "M G Road", 
  "address": "353 , M G Road , Opposite L G Show Room , Near Petit Seminaire School"
 }, 
 {
  "sublocation": "NH - 1 ", 
  "city": "Ambala", 
  "pincode": "133004", 
  "state": "Haryana", 
  "location": "National Highway 1", 
  "address": "NH - 1 , Shopping Complex, Kuldeep Nagar"
 }, 
 {
  "sublocation": "Ground Floor , 5365/1 ", 
  "city": "Ambala", 
  "pincode": "133001", 
  "state": "Haryana", 
  "location": "Nicholson Road", 
  "address": "Ground Floor , 5365/1 , Nicholson Road, Ambala Cantt"
 }, 
 {
  "sublocation": "B-886", 
  "city": "New Delhi", 
  "pincode": "110075", 
  "state": "New Delhi", 
  "location": "Dwarka", 
  "address": "B-886, Palam Extn Sec-7,Ramphal Chowk Dwarka"
 }, 
 {
  "sublocation": "Ground Floor 11", 
  "city": "Patiala", 
  "pincode": "147001", 
  "state": "Punjab", 
  "location": "Omaxe Mall", 
  "address": "Ground Floor 11, Omaxe Mall, Opposite Kali Mata Mandir"
 }, 
 {
  "sublocation": "", 
  "city": "Patiala", 
  "pincode": "147001", 
  "state": "Punjab", 
  "location": "Bhupindra Road", 
  "address": "Bhupendra Road"
 }, 
 {
  "sublocation": "", 
  "city": "Hanumangarh", 
  "pincode": "335513", 
  "state": "Rajasthan", 
  "location": "Hanumangarh Town", 
  "address": "Ridhi Sidhi complex"
 }, 
 {
  "sublocation": "101 , Sharada College Main Road", 
  "city": "Salem", 
  "pincode": "636016", 
  "state": "Tamil Nadu", 
  "location": "Sharada College Main Road", 
  "address": "101 , Sharada College Main Road, Fairlands , Next to Ratnavel Gounder Kalayanamantapam"
 }, 
 {
  "sublocation": "SCO 11", 
  "city": "Sangrur", 
  "pincode": "148001", 
  "state": "Punjab", 
  "location": "Kaula Park", 
  "address": "SCO 11, SCO 12 , Kaula Park"
 }, 
 {
  "sublocation": "B 28 & 29, Ground Floor, Miles Mall ", 
  "city": "Rajpura", 
  "pincode": "140406", 
  "state": "Punjab", 
  "location": "National Highway 64", 
  "address": "B 28 & 29, Ground Floor, Miles Mall , Near Mc Donalds , Fatehgarh Sahib"
 }, 
 {
  "sublocation": "", 
  "city": "Rajpura", 
  "pincode": "140401", 
  "state": "Punjab", 
  "location": "Caliber Market", 
  "address": "Caliber Market"
 }, 
 {
  "sublocation": "Ground Floor, 10", 
  "city": "Zirakpur", 
  "pincode": "140603", 
  "state": "Punjab", 
  "location": "Zirakpur", 
  "address": "Ground Floor, 10,Paras DownTown Square Mall, Zirakpur"
 }, 
 {
  "sublocation": "SCO 394", 
  "city": "Panchkula", 
  "pincode": "134108", 
  "state": "Haryana", 
  "location": "Panchkula", 
  "address": "SCO 394, Sector 8, Panchkula"
 }, 
 {
  "sublocation": "Shop No. 103 & 104", 
  "city": "Bathinda", 
  "pincode": "151001", 
  "state": "Punjab", 
  "location": "Amrik Singh Road", 
  "address": "Shop No. 103 & 104, First Floor , Mittal City Mall"
 }, 
 {
  "sublocation": "Shop No . 2089G ", 
  "city": "Bathinda", 
  "pincode": "155001", 
  "state": "Punjab", 
  "location": "Mall Road", 
  "address": "Shop No . 2089G , Khippal Shopping Complex , The Mall"
 }, 
 {
  "sublocation": "", 
  "city": "Chandigarh", 
  "pincode": "160035", 
  "state": "Chandigarh", 
  "location": "Himalaya Marg", 
  "address": "SCO 413 - 414"
 }, 
 {
  "sublocation": "Shop No. 4, Ground Floor", 
  "city": "Malerkotla", 
  "pincode": "148023", 
  "state": "Punjab", 
  "location": "Railway Road", 
  "address": "Shop No. 4, Ground Floor, Shopping Complex, Railway Road"
 }, 
 {
  "sublocation": "SCF 33 ", 
  "city": "Mohali", 
  "pincode": "160059", 
  "state": "Punjab", 
  "location": "Phase 7", 
  "address": "SCF 33 , Phase 7 , Mohali"
 }, 
 {
  "sublocation": "Shop No.109 , First Floor ", 
  "city": "Chandigarh", 
  "pincode": "160002", 
  "state": "Chandigarh", 
  "location": "Elante", 
  "address": "Shop No.109 , First Floor , Elante Mall , Industrial Area Phase I"
 }, 
 {
  "sublocation": "", 
  "city": "Chandigarh", 
  "pincode": "160017", 
  "state": "Chandigarh", 
  "location": "Sector 17E", 
  "address": "SCO - 6 , Sector 17E"
 }, 
 {
  "sublocation": "", 
  "city": "Chandigarh", 
  "pincode": "160017", 
  "state": "Chandigarh", 
  "location": "Sector 17E", 
  "address": "SCO - 6 , Sector 17E"
 }, 
 {
  "sublocation": "", 
  "city": "Pinjore", 
  "pincode": "134102", 
  "state": "Haryana", 
  "location": "Pinjor Shimla Highway", 
  "address": "Kalka Shimla Highway , Near Shera Wali Mata Mandir"
 }, 
 {
  "sublocation": "Below Amartex , C/o Karam Business Centre Pvt. Ltd. ", 
  "city": "Khanna", 
  "pincode": "141401", 
  "state": "Chandigarh", 
  "location": "G T Road", 
  "address": "Below Amartex , C/o Karam Business Centre Pvt. Ltd. , Near Malerkotla Chowk , G T Road"
 }, 
 {
  "sublocation": "AFA Fabrics Pvt. LTd., Below Amartex", 
  "city": "Khanna", 
  "pincode": "141401", 
  "state": "Punjab", 
  "location": "G T Road", 
  "address": "AFA Fabrics Pvt. LTd., Below Amartex, C/o Karam Business Centre Pvt. Ltd., Near Malerkotla"
 }, 
 {
  "sublocation": "Kwality Footwear", 
  "city": "Solan", 
  "pincode": "173212", 
  "state": "Himachal Pradesh", 
  "location": "Upper Bazaar", 
  "address": "Kwality Footwear, Main Bazar, Solan"
 }, 
 {
  "sublocation": "No. 296 ", 
  "city": "Erode", 
  "pincode": "600098", 
  "state": "Tamil Nadu", 
  "location": "Perundurai Road", 
  "address": "No. 296 , Brough Road , Opposite Hotel Sivaranjini"
 }, 
 {
  "sublocation": "51, N - Block", 
  "city": "Sriganganagar", 
  "pincode": "335001", 
  "state": "Rajasthan", 
  "location": "Gaushala Road", 
  "address": "51, N - Block, (Opposite Bhatia Petrol Pump), Gaushala Road"
 }, 
 {
  "sublocation": "", 
  "city": "Baddi", 
  "pincode": "173205", 
  "state": "Himachal Pradesh", 
  "location": "Sai Road", 
  "address": "Opposite Malhotra Hospital, Sai Road"
 }, 
 {
  "sublocation": "24 & 25 , Lala Lajpat Rai Market ", 
  "city": "Abohar", 
  "pincode": "152116", 
  "state": "Punjab", 
  "location": "Circular Road", 
  "address": "24 & 25 , Lala Lajpat Rai Market , Circular Road , Abohar"
 }, 
 {
  "sublocation": "Shop No. 26 ", 
  "city": "Ooty", 
  "pincode": "643001", 
  "state": "Tamil Nadu", 
  "location": "Commercial Street", 
  "address": "Shop No. 26 , Next to Radio Palace , Commercial Street"
 }, 
 {
  "sublocation": "Shop No. 5 & 6", 
  "city": "Shimla", 
  "pincode": "171006", 
  "state": "Himachal Pradesh", 
  "location": "Sanjauli", 
  "address": "Shop No. 5 & 6, Chopra Complex, Sanjauli"
 }, 
 {
  "sublocation": "New Capital Boot House ", 
  "city": "Shimla", 
  "pincode": "171001", 
  "state": "Himachal Pradesh", 
  "location": "Mall Road", 
  "address": "New Capital Boot House , 32 , The Mall"
 }, 
 {
  "sublocation": "Khurana Building, Upper Bazar", 
  "city": "Rohru", 
  "pincode": "171207", 
  "state": "Himachal Pradesh", 
  "location": "Main Market", 
  "address": "Khurana Building, Upper Bazar, Main Market , Rohru"
 }, 
 {
  "sublocation": "1123 ", 
  "city": "Ludhiana", 
  "pincode": "141003", 
  "state": "Punjab", 
  "location": "Ludhiana Road", 
  "address": "1123 , Sector 39 , Chandigarh Road"
 }, 
 {
  "sublocation": "16", 
  "city": "Ludhiana", 
  "pincode": "141002", 
  "state": "Punjab", 
  "location": "Model Town", 
  "address": "16, Gole Market, Model Town"
 }, 
 {
  "sublocation": "Ground Floor 201", 
  "city": "Ludhiana", 
  "pincode": "141001", 
  "state": "Punjab", 
  "location": "Elite Arcade", 
  "address": "Ground Floor 201, Elite Arcade , The Mall"
 }, 
 {
  "sublocation": "", 
  "city": "Ludhiana", 
  "pincode": "141012", 
  "state": "Punjab", 
  "location": "Ferozpur Road", 
  "address": "Ground Floor 1, West End Mall"
 }, 
 {
  "sublocation": "Bank Road ", 
  "city": "Muktsar", 
  "pincode": "152026", 
  "state": "Punjab", 
  "location": "Bank Road", 
  "address": "Bank Road , Near Bansal Jewellers , Muktsar"
 }, 
 {
  "sublocation": "", 
  "city": "Siliguri", 
  "pincode": "734010", 
  "state": "West Bengal", 
  "location": "Uttorayan", 
  "address": "C0014, Ground Floor"
 }, 
 {
  "sublocation": "E-004", 
  "city": "Siliguri", 
  "pincode": "734010", 
  "state": "West Bengal", 
  "location": "National Highway 31", 
  "address": "E-004, Ground Floor, City Centre"
 }, 
 {
  "sublocation": "", 
  "city": "Siliguri", 
  "pincode": "734401", 
  "state": "West Bengal", 
  "location": "Sevoke Road", 
  "address": "Cosmos Mall"
 }, 
 {
  "sublocation": "Gemini Towers , No. 40A , 41A ", 
  "city": "Tirupur", 
  "pincode": "641601", 
  "state": "Tamil Nadu", 
  "location": "Sabhari Salai", 
  "address": "Gemini Towers , No. 40A , 41A , Balaji Layout , Sabhari Salai"
 }, 
 {
  "sublocation": "", 
  "city": "Darjeeling", 
  "pincode": "734101", 
  "state": "West Bengal", 
  "location": "Rink Mall", 
  "address": "Shop No. 12 & 17"
 }, 
 {
  "sublocation": "", 
  "city": "Faridkot", 
  "pincode": "151204", 
  "state": "Punjab", 
  "location": "Connecting Road", 
  "address": "SCO 5 ,Baba Farid Market"
 }, 
 {
  "sublocation": "SCF - 18 ", 
  "city": "Moga", 
  "pincode": "142001", 
  "state": "Punjab", 
  "location": "G T Road", 
  "address": "SCF - 18 , Bhagat Singh Market , GT Road"
 }, 
 {
  "sublocation": "Chaudhary Plaza ", 
  "city": "Nawanshahar", 
  "pincode": "144514", 
  "state": "Punjab", 
  "location": "Chandigarh highway", 
  "address": "Chaudhary Plaza , Opposite Car Parking , Railway Road"
 }, 
 {
  "sublocation": "479 ", 
  "city": "Coimbatore", 
  "pincode": "641004", 
  "state": "Tamil Nadu", 
  "location": "Avinashi Road", 
  "address": "479 , Avinashi Road , Peelamedu"
 }, 
 {
  "sublocation": "B - 14 ", 
  "city": "Trichy", 
  "pincode": "620018", 
  "state": "Tamil Nadu", 
  "location": "Thillainagar Main Road", 
  "address": "B - 14 , Door No. 24 , Thillainagar Main Road"
 }, 
 {
  "sublocation": "G 16 , Ground Floor , No. 61 to 71 ", 
  "city": "Coimbatore", 
  "pincode": "641001", 
  "state": "Tamil Nadu", 
  "location": "Krishnasamy Road", 
  "address": "G 16 , Ground Floor , No. 61 to 71 , Brookfield Mall , Krishnasamy Road"
 }, 
 {
  "sublocation": "Shop No. 144 ", 
  "city": "Coimbatore", 
  "pincode": "641002", 
  "state": "Tamil Nadu", 
  "location": "Thiruvenkataswamy Road", 
  "address": "Shop No. 144 , Thiruvenkataswamy Road , West RS Puram"
 }, 
 {
  "sublocation": "Shop No. 4 , Ground Floor , Satara Galleria ", 
  "city": "Calicut", 
  "pincode": "673004", 
  "state": "Kerala", 
  "location": "Mavoor Road", 
  "address": "Shop No. 4 , Ground Floor , Satara Galleria , Mavoor Road , Opposite Moffusil Bus Stand"
 }, 
 {
  "sublocation": "M/s Raj Footwear, Main Bazar", 
  "city": "Kinnaur", 
  "pincode": "172107", 
  "state": "Himachal Pradesh", 
  "location": "India Tibet Border Police Road", 
  "address": "M/s Raj Footwear, Main Bazar, India Tibet Border Police Road, Peo"
 }, 
 {
  "sublocation": "", 
  "city": "Ferozpur", 
  "pincode": "152001", 
  "state": "Punjab", 
  "location": "Bazar No 7", 
  "address": "164 & 165 , Bazar No. 7"
 }, 
 {
  "sublocation": "Bank of India Building", 
  "city": "Firozpur", 
  "pincode": "152002", 
  "state": "Punjab", 
  "location": "Malwal Road", 
  "address": "Bank of India Building, Malwal Road, Near Udham Singh Chowk"
 }, 
 {
  "sublocation": "", 
  "city": "Jalandhar", 
  "pincode": "144001", 
  "state": "Punjab", 
  "location": "Lajpat Nagar", 
  "address": "401, Lajpat Nagar Market"
 }, 
 {
  "sublocation": "SCO 25 , Crystal Plaza ,Chotti Baradri , Part 1 ", 
  "city": "Jalandhar", 
  "pincode": "144021", 
  "state": "Punjab", 
  "location": "Garha Road", 
  "address": "SCO 25 , Crystal Plaza ,Chotti Baradri , Part 1 , Near Medical College , Garha Road"
 }, 
 {
  "sublocation": "301R, Gaba Mall", 
  "city": "Jalandhar", 
  "pincode": "144003", 
  "state": "Punjab", 
  "location": "Model Town", 
  "address": "301R, Gaba Mall, Near Post Office, Model Town"
 }, 
 {
  "sublocation": "7/34 (11) , Ground Floor , N J Complex ", 
  "city": "Palakkad", 
  "pincode": "678001", 
  "state": "Kerala", 
  "location": "College Road", 
  "address": "7/34 (11) , Ground Floor , N J Complex , College Road , Palakkad"
 }, 
 {
  "sublocation": "C/o J S Apparel , 10th Milestone, Highway 1 , G T Road , Near Haveli ", 
  "city": "Jalandhar", 
  "pincode": "144402", 
  "state": "Punjab", 
  "location": "G T Road", 
  "address": "C/o J S Apparel , 10th Milestone, Highway 1 , G T Road , Near Haveli , Khajurla , Tehsil Phagwara"
 }, 
 {
  "sublocation": "", 
  "city": "Jalandhar", 
  "pincode": "144001", 
  "state": "Punjab", 
  "location": "G T Road", 
  "address": "Shop No 9 & 10,Centrum Jyoti Mall"
 }, 
 {
  "sublocation": "", 
  "city": "Gangtok", 
  "pincode": "737101", 
  "state": "Sikkim", 
  "location": "Deorali Bazar", 
  "address": "Deorali Bazar"
 }, 
 {
  "sublocation": "Shop No. 442, Mangwain Mohalla", 
  "city": "Mandi", 
  "pincode": "175001", 
  "state": "Himachal Pradesh", 
  "location": "Mandi Town", 
  "address": "Shop No. 442, Mangwain Mohalla, Mandi Town, Mandi"
 }, 
 {
  "sublocation": "", 
  "city": "Hoshiarpur", 
  "pincode": "146001", 
  "state": "Punjab", 
  "location": "Mall Road", 
  "address": "Mall Road, Opposite LIC Office"
 }, 
 {
  "sublocation": "Kumar Walk n Wear ", 
  "city": "Hamirpur", 
  "pincode": "177001", 
  "state": "Himachal Pradesh", 
  "location": "National Highway 70", 
  "address": "Kumar Walk n Wear , Gandhi Chowk , Main Bazar"
 }, 
 {
  "sublocation": "Kumar Walk n Wear, Gandhi Chowk ", 
  "city": "Hamirpur", 
  "pincode": "177001", 
  "state": "Himachal Pradesh", 
  "location": "National Highway 70", 
  "address": "Kumar Walk n Wear, Gandhi Chowk , Main Bazar, Hamirpur"
 }, 
 {
  "sublocation": "256/1 , Ram Nagar Road ", 
  "city": "Kashipur", 
  "pincode": "263153", 
  "state": "Uttar Pradesh", 
  "location": "Ram Nagar Road", 
  "address": "256/1 , Ram Nagar Road , Near Prem Deep Hotel , Kashipur"
 }, 
 {
  "sublocation": "", 
  "city": "Bhawanipatna", 
  "pincode": "766001", 
  "state": "Odisha", 
  "location": "Bhawanipatna", 
  "address": "Manikeshwari Chowk, Near Punjab National Bank"
 }, 
 {
  "sublocation": "", 
  "city": "Coochbehar", 
  "pincode": "736101", 
  "state": "West Bengal", 
  "location": "NN Road", 
  "address": "NN Shopping Mall, Opposite Cooch Bihar Palace"
 }, 
 {
  "sublocation": "", 
  "city": "Gangtok", 
  "pincode": "737101", 
  "state": "Sikkim", 
  "location": "M G Road", 
  "address": "Metro Point, Below Vijaya Bank"
 }, 
 {
  "sublocation": "Shop No. 11G/10 DC Chowk", 
  "city": "Kapurthala", 
  "pincode": "144601", 
  "state": "Punjab", 
  "location": "Jalandhar Road", 
  "address": "Shop No. 11G/10 DC Chowk, Jalandhar Road, Kapurthala"
 }, 
 {
  "sublocation": "", 
  "city": "Kullu", 
  "pincode": "175101", 
  "state": "Himachal Pradesh", 
  "location": "Akhara Bazar", 
  "address": "Akhara Bazar"
 }, 
 {
  "sublocation": "First Floor , 37 ", 
  "city": "Amritsar", 
  "pincode": "143001", 
  "state": "Punjab", 
  "location": "GT Road", 
  "address": "First Floor , 37 , Alpha One , G T Road"
 }, 
 {
  "sublocation": "Shop No. 12, First Floor, Wing A , Circular Road ", 
  "city": "Amritsar", 
  "pincode": "143001", 
  "state": "Punjab", 
  "location": "Circular Road", 
  "address": "Shop No. 12, First Floor, Wing A , Circular Road , Basant Avrnue , Trilium Mall"
 }, 
 {
  "sublocation": "1526 , Near Chirag Palace ", 
  "city": "Amritsar", 
  "pincode": "143001", 
  "state": "Punjab", 
  "location": "Lawrence Road", 
  "address": "1526 , Near Chirag Palace , Putlighar , Opposite Ranjit Hospital"
 }, 
 {
  "sublocation": "Upper Ground Floor, 4", 
  "city": "Amritsar", 
  "pincode": "143001", 
  "state": "Punjab", 
  "location": "Mall Road", 
  "address": "Upper Ground Floor, 4, Cee Tee Mall, Mall Road"
 }, 
 {
  "sublocation": "", 
  "city": "Palampur", 
  "pincode": "176062", 
  "state": "Himachal Pradesh", 
  "location": "Palampur Dharamshala Road", 
  "address": "In Touch Apparels, Main Bazar"
 }, 
 {
  "sublocation": "Cedar Shopping Complex ", 
  "city": "Manali", 
  "pincode": "175131", 
  "state": "Himachal Pradesh", 
  "location": "Cedar Shopping Complex", 
  "address": "Cedar Shopping Complex , First Floor , The Mall"
 }, 
 {
  "sublocation": "", 
  "city": "Kangra", 
  "pincode": "176001", 
  "state": "Himachal Pradesh", 
  "location": "Chandigarh - Dharamshala Road", 
  "address": "Chandigarh Dharamshala Road, Opposite Government Polytechnic"
 }, 
 {
  "sublocation": "226/1, Bypass Road ", 
  "city": "Madurai", 
  "pincode": "625001", 
  "state": "Tamil Nadu", 
  "location": "Bypass Road", 
  "address": "226/1, Bypass Road , West Zone , Opposite Aparna Towers"
 }, 
 {
  "sublocation": "X1/228 ", 
  "city": "Cochin", 
  "pincode": "683101", 
  "state": "Kerala", 
  "location": "Railway Station Road", 
  "address": "X1/228 , Railway Station Road , Aluva"
 }, 
 {
  "sublocation": "", 
  "city": "Gurdaspur", 
  "pincode": "143521", 
  "state": "Punjab", 
  "location": "Library Road", 
  "address": "Near Hanuman Chowk , Library Road"
 }, 
 {
  "sublocation": "Lulu International Shopping Mall Pvt. Ltd. , Shop No. S27 ", 
  "city": "Cochin", 
  "pincode": "600014", 
  "state": "Kerala", 
  "location": "National Highway 17", 
  "address": "Lulu International Shopping Mall Pvt. Ltd. , Shop No. S27 , 28 , 50/2392"
 }, 
 {
  "sublocation": "CC34/195 C , Shop 1A , First Floor , Oberon Mall ", 
  "city": "Ernakulam", 
  "pincode": "682024", 
  "state": "Kerala", 
  "location": "Oberon Mall", 
  "address": "CC34/195 C , Shop 1A , First Floor , Oberon Mall , Edappally , National Highway Bypass"
 }, 
 {
  "sublocation": "Shop No. 106 ,First Floor , Centre Square Mall ", 
  "city": "Cochin", 
  "pincode": "682032", 
  "state": "Kerala", 
  "location": "Centre Square Mall", 
  "address": "Shop No. 106 ,First Floor , Centre Square Mall , M G Road , Cochin"
 }, 
 {
  "sublocation": "", 
  "city": "Pathankot", 
  "pincode": "145001", 
  "state": "Punjab", 
  "location": "Dalhousie Road", 
  "address": "Near Arya Public School"
 }, 
 {
  "sublocation": "32/2345 , Shop No. 1 & 2", 
  "city": "Cochin", 
  "pincode": "682035", 
  "state": "Kerala", 
  "location": "M G Road", 
  "address": "32/2345 , Shop No. 1 & 2, MG Road , Ernakulam"
 }, 
 {
  "sublocation": "Improvement Trust Market", 
  "city": "Pathankot", 
  "pincode": "145001", 
  "state": "Punjab", 
  "location": "Saily Road", 
  "address": "Improvement Trust Market, Near Jathedar Kesar Singh Marg, Saily Road"
 }, 
 {
  "sublocation": "Shop  No. 1 ", 
  "city": "Pathankot", 
  "pincode": "145001", 
  "state": "Punjab", 
  "location": "Dalhousie Road", 
  "address": "Shop  No. 1 , Novelty Mall , Mamun Cantt"
 }, 
 {
  "sublocation": "", 
  "city": "Agartala", 
  "pincode": "799001", 
  "state": "Tripura", 
  "location": "Netaji Subash Road", 
  "address": "Netaji Subash Road"
 }, 
 {
  "sublocation": "SCO 1", 
  "city": "Kathua", 
  "pincode": "184101", 
  "state": "Jammu & Kashmir", 
  "location": "ITI Road", 
  "address": "SCO 1, Moon Light Cineplex, Kathua"
 }, 
 {
  "sublocation": "NH -14 ,Kashmiri Mohallah", 
  "city": "Chamba", 
  "pincode": "176310", 
  "state": "Himachal Pradesh", 
  "location": "National Highway 14", 
  "address": "NH -14 ,Kashmiri Mohallah, Near Raja Bhuri Singh Museum, Chaughan"
 }, 
 {
  "sublocation": "", 
  "city": "Bongaigaon", 
  "pincode": "783390", 
  "state": "Assam", 
  "location": "Chapaguri Road", 
  "address": "Chapaguri Road"
 }, 
 {
  "sublocation": "X1/551 , D 1 ", 
  "city": "Kottayam", 
  "pincode": "683101", 
  "state": "Kerala", 
  "location": "Shastri Road", 
  "address": "X1/551 , D 1 , Shastri Road , Kottayam"
 }, 
 {
  "sublocation": "Shop No. 708/185 , (4 & 5 ) , Pulimittathu Building ", 
  "city": "Thiruvella", 
  "pincode": "689107", 
  "state": "Kerala", 
  "location": "Thiruvella", 
  "address": "Shop No. 708/185 , (4 & 5 ) , Pulimittathu Building , Ramanchira , Muthoor"
 }, 
 {
  "sublocation": "First Floor, Opposite Apsara Cinema", 
  "city": "Jammu", 
  "pincode": "180004", 
  "state": "Jammu & Kashmir", 
  "location": "Apsara Road", 
  "address": "First Floor, Opposite Apsara Cinema, Apsara Road, Gandhi Nagar"
 }, 
 {
  "sublocation": "Shop No. 24 , Lower Ground Floor , Wave Mall , Channi Himmat ", 
  "city": "Jammu", 
  "pincode": "180015", 
  "state": "Jammu & Kashmir", 
  "location": "Channi Himmat", 
  "address": "Shop No. 24 , Lower Ground Floor , Wave Mall , Channi Himmat , Bathindi Bye Pass , Narwal Mor"
 }, 
 {
  "sublocation": "NH 1A , Plaza ", 
  "city": "Kunjwani", 
  "pincode": "180001", 
  "state": "Jammu & Kashmir", 
  "location": "Jammu Pathankot National Highway", 
  "address": "NH 1A , Plaza , Jammu Pathankot National Highway , Kunjwani"
 }, 
 {
  "sublocation": "Shop No 1 ", 
  "city": "Jammu", 
  "pincode": "180005", 
  "state": "Jammu & Kashmir", 
  "location": "City Square Mall", 
  "address": "Shop No 1 , Ground Floor , City Square Mall"
 }, 
 {
  "sublocation": "", 
  "city": "Jammu", 
  "pincode": "180001", 
  "state": "Jammu & Kashmir", 
  "location": "Raghunath Bazaar", 
  "address": "165, Raghunath Bazar"
 }, 
 {
  "sublocation": "Bhumika Marg", 
  "city": "Katra", 
  "pincode": "182301", 
  "state": "Jammu & Kashmir", 
  "location": "Kashmir Road", 
  "address": "Bhumika Marg, Kashmir Road, Katra"
 }, 
 {
  "sublocation": "", 
  "city": "Shillong", 
  "pincode": "793001", 
  "state": "Meghalaya", 
  "location": "Jail Road Point", 
  "address": "O B Mall, Police Bazar"
 }, 
 {
  "sublocation": "", 
  "city": "Shillong", 
  "pincode": "793001", 
  "state": "Meghalaya", 
  "location": "Jail Road Point", 
  "address": "O B Mall, Police Bazar"
 }, 
 {
  "sublocation": "Shop No. 1 , Lower Ground/Basement ", 
  "city": "Trivandrum", 
  "pincode": "695004", 
  "state": "Kerala", 
  "location": "Pattam", 
  "address": "Shop No. 1 , Lower Ground/Basement , Ed Heights , Pattam"
 }, 
 {
  "sublocation": "Spanish Garden", 
  "city": "Guwahati", 
  "pincode": "781005", 
  "state": "Assam", 
  "location": "R G Baruah Road", 
  "address": "Spanish Garden, Opposite Assam State Zoo, Zoo Road"
 }, 
 {
  "sublocation": "", 
  "city": "Guwahati", 
  "pincode": "781003", 
  "state": "Assam", 
  "location": "GNB Road", 
  "address": "Shop No. 2"
 }, 
 {
  "sublocation": "", 
  "city": "Guwahati", 
  "pincode": "781008", 
  "state": "Assam", 
  "location": "G S Road", 
  "address": "Paltan Bazaar, Shop No. 10"
 }, 
 {
  "sublocation": "Anil Plaza , Shop No. 2,3", 
  "city": "Guwahati", 
  "pincode": "781005", 
  "state": "Assam", 
  "location": "GS Road", 
  "address": "Anil Plaza , Shop No. 2,3,4,5"
 }, 
 {
  "sublocation": "", 
  "city": "Guwahati", 
  "pincode": "781006", 
  "state": "Assam", 
  "location": "G S Road", 
  "address": "Kay M Plaza, Ganeshgudi"
 }, 
 {
  "sublocation": "669", 
  "city": "Barpeta", 
  "pincode": "781301", 
  "state": "Assam", 
  "location": "Ulubari", 
  "address": "669, 2nd Floor, Above Allahabad Bank"
 }, 
 {
  "sublocation": "", 
  "city": "Aizawl", 
  "pincode": "796001", 
  "state": "Mizoram", 
  "location": "Zodin Square", 
  "address": "R Z Annexe"
 }, 
 {
  "sublocation": "Lian Sang Pui Enterprise", 
  "city": "Aizawl", 
  "pincode": "796001", 
  "state": "Mizoram", 
  "location": "Dwarpui", 
  "address": "Lian Sang Pui Enterprise, E21, Near Ritz Hotel"
 }, 
 {
  "sublocation": "", 
  "city": "Silchar", 
  "pincode": "788001", 
  "state": "Assam", 
  "location": "Park Road", 
  "address": "Silchar Tennis Club, Cachar District"
 }, 
 {
  "sublocation": "Shop No 112/113/123/124/125 , Ground Floor , Sarah City Centre ", 
  "city": "Srinagar", 
  "pincode": "190001", 
  "state": "Jammu & Kashmir", 
  "location": "Exhibition Crossing", 
  "address": "Shop No 112/113/123/124/125 , Ground Floor , Sarah City Centre , Exhibition Crossing , HSHS"
 }, 
 {
  "sublocation": "Nautan Bazar, Near Hazo Masjid", 
  "city": "Nagaon", 
  "pincode": "782001", 
  "state": "Assam", 
  "location": "Itachali  Haibargaon", 
  "address": "Nautan Bazar, Near Hazo Masjid, Itachali , Haibargaon"
 }, 
 {
  "sublocation": "", 
  "city": "Tezpur", 
  "pincode": "784001", 
  "state": "Assam", 
  "location": "Main Road", 
  "address": "A C Plaza"
 }, 
 {
  "sublocation": "", 
  "city": "Imphal", 
  "pincode": "795001", 
  "state": "Manipur", 
  "location": "Paona Bazar", 
  "address": "Beside State Bank of India"
 }, 
 {
  "sublocation": "", 
  "city": "Dimapur", 
  "pincode": "797112", 
  "state": "Nagaland", 
  "location": "Circular Road", 
  "address": "Opposite Chisi Market"
 }, 
 {
  "sublocation": "", 
  "city": "Kohima", 
  "pincode": "797001", 
  "state": "Nagaland", 
  "location": "Gravity", 
  "address": "Opposite Head Post Office"
 }, 
 {
  "sublocation": "", 
  "city": "Itanagar", 
  "pincode": "791111", 
  "state": "Arunachal Pradesh", 
  "location": "Sector C", 
  "address": "Below Hotel Kosing"
 }, 
 {
  "sublocation": "", 
  "city": "Jorhat", 
  "pincode": "785001", 
  "state": "Assam", 
  "location": "Garali", 
  "address": "Below Hotel Blue Moon"
 }, 
 {
  "sublocation": "", 
  "city": "Sibsagar", 
  "pincode": "785640", 
  "state": "Assam", 
  "location": "J P Agarwala Path", 
  "address": "Marwar Patty"
 }, 
 {
  "sublocation": "", 
  "city": "Dibrugarh", 
  "pincode": "786001", 
  "state": "Assam", 
  "location": "RKB Path", 
  "address": "Shop No 2, Junction Mall"
 }, 
 {
  "sublocation": "Opposite ABC Building ", 
  "city": "Duliajan", 
  "pincode": "786602", 
  "state": "Assam", 
  "location": "Station Road", 
  "address": "Opposite ABC Building , Near Axis Bank , Station Road"
 }, 
 {
  "sublocation": "", 
  "city": "Tinsukia", 
  "pincode": "786125", 
  "state": "Assam", 
  "location": "Thana Road 477", 
  "address": "S S Traders, Capital Electronix"
 }
]