[
 {
  "sublocation": "Saffron Lifestyle Traders Pvt Ltd - Nike-\u00c3\u00a1DBZ South 43,Opp Super Xerox", 
  "city": "Gandhidham", 
  "pincode": "370201", 
  "longitude": 70.14324, 
  "state": "Gujarat", 
  "location": "Chawala Chowk", 
  "address": "Saffron Lifestyle Traders Pvt Ltd - Nike-\u00c3\u00a1DBZ South 43,Opp Super Xerox,Chawala Chowk,Gandhidham - 370201", 
  "latitude": 23.06846
 }, 
 {
  "sublocation": "Shop no. 14, Ground Floor, Crystall Mall, Rajkot", 
  "city": "Rajkot", 
  "pincode": "360005", 
  "longitude": 70.7634, 
  "state": "Gujarat", 
  "location": "Crystal Mall", 
  "address": "Shop no. 14, Ground Floor, Crystall Mall, Rajkot, Survey No. 108, Village Nanamava Taluka Rajkot-360005.", 
  "latitude": 22.27982
 }, 
 {
  "sublocation": "Saffron Lifestyle Traders Pvt Ltd -Shop No 64-68, Neo Square Building, Near Amber Cinema", 
  "city": "Jamnagar", 
  "pincode": "361008", 
  "longitude": 70.0668, 
  "state": "Gujarat", 
  "location": "Neo Square", 
  "address": "Saffron Lifestyle Traders Pvt Ltd -Shop No 64-68, Neo Square Building, Near Amber Cinema, P.N Marg, Jamnagar -361008", 
  "latitude": 22.47552
 }, 
 {
  "sublocation": "Iscon Prozone Mall, Ground Floor, Shop No. 102,103, 150 ft. Ring Road", 
  "city": "Rajkot", 
  "pincode": "360005", 
  "longitude": 70.77528, 
  "state": "Gujarat", 
  "location": "Prozone", 
  "address": "Iscon Prozone Mall, Ground Floor, Shop No. 102,103, 150 ft. Ring Road, Rajkot, Gujrat-360005", 
  "latitude": 22.27972
 }, 
 {
  "sublocation": "Nike, \u00c3\u00a1Smeara Enterprises, Ground Floor, P K Commercial Complex", 
  "city": "Calicut", 
  "pincode": "673032", 
  "longitude": 75.77597, 
  "state": "Kerala", 
  "location": "Cherooty Road", 
  "address": "Nike, \u00c3\u00a1Smeara Enterprises, Ground Floor, P K Commercial Complex, Cherooty Road, Calict-673032", 
  "latitude": 11.25614
 }, 
 {
  "sublocation": "#UG15, Upper Ground Floor", 
  "city": "Mangalore", 
  "pincode": "575001", 
  "longitude": 74.8425, 
  "state": "Karnataka", 
  "location": "City Center", 
  "address": "#UG15, Upper Ground Floor, City Centre Mall, K S Rao Road. Hampankatta. Mangalore 575001", 
  "latitude": 12.87139
 }, 
 {
  "sublocation": "", 
  "city": "Manipal", 
  "pincode": "576104", 
  "longitude": 74.78139, 
  "state": "Karnataka", 
  "location": "Laxmindranagar", 
  "address": "Mantralaya Associates No-4 Green View Building.Laxmindranagar , Manipal - 576104", 
  "latitude": 13.34872
 }, 
 {
  "sublocation": "", 
  "city": "Goa", 
  "pincode": "403515", 
  "longitude": 73.76815, 
  "state": "Goa", 
  "location": "Candolim", 
  "address": "Shop No.14.Highland Holiday Homes,Next to Newton Super Market - Candolim -403515", 
  "latitude": 15.51731
 }, 
 {
  "sublocation": "Shop no G/1G/2, Fortune Square", 
  "city": "Goa", 
  "pincode": "403007", 
  "longitude": 73.81214, 
  "state": "Goa", 
  "location": "Mapusa", 
  "address": "Shop no G/1G/2, Fortune Square,Marod,Mapusa - Goa- 403007.", 
  "latitude": 15.58579
 }, 
 {
  "sublocation": "Isidore Baptista Road,Opp Big G", 
  "city": "Goa", 
  "pincode": "403601", 
  "longitude": 73.96269, 
  "state": "Goa", 
  "location": "Margaon", 
  "address": "Isidore Baptista Road,Opp Big G,Pajifond , Margao - 403601", 
  "latitude": 15.27264
 }, 
 {
  "sublocation": "Nike Showroom, M.G Road, Next to Delhi Darbar Restaurant", 
  "city": "Goa", 
  "pincode": "403001", 
  "longitude": 73.8279, 
  "state": "Goa", 
  "location": "Panaji", 
  "address": "Nike Showroom, M.G Road, Next to Delhi Darbar Restaurant, Panaji-403001, Goa", 
  "latitude": 15.50058
 }, 
 {
  "sublocation": "SSIPL Retail Ltd.Mezzanine Floor & Ground Floor, Shop No. 1 &2 , CS No. 8397/7A/2B/2, Municipal House No. 145/3B, Kalpatartu Heights, 145/3 Railway Lines", 
  "city": "Sholapur", 
  "pincode": "413001", 
  "longitude": 75.90053, 
  "state": "Maharashtra", 
  "location": "Kalpataru Heights", 
  "address": "SSIPL Retail Ltd.Mezzanine Floor & Ground Floor, Shop No. 1 &2 , CS No. 8397/7A/2B/2, Municipal House No. 145/3B, Kalpatartu Heights, 145/3 Railway Lines, Sholapur, Maharashtra -413001.", 
  "latitude": 17.663
 }, 
 {
  "sublocation": "SSIPL Retail Ltd. Ground Floor \u00c3\u00b4GF\u00c3\u00b6 & Basement \u00c3\u00b4BMT\u00c3\u00b6, Unit No.1885/B", 
  "city": "Kolhapur", 
  "pincode": "416008", 
  "longitude": 74.24363, 
  "state": "Maharashtra", 
  "location": "Rajarampuri", 
  "address": "SSIPL Retail Ltd. Ground Floor \u00c3\u00b4GF\u00c3\u00b6 & Basement \u00c3\u00b4BMT\u00c3\u00b6, Unit No.1885/B, E ward Rajarampuri 9th Lane, Kolhapur-416008", 
  "latitude": 16.69359
 }, 
 {
  "sublocation": "SSIPL Retail Ltd. Unit No. EB-GF-13, Town Centre-Amanora Park Township, Village Sadesatranali (17-1/2 Nali), Hadapsar", 
  "city": "Pune", 
  "pincode": "411028", 
  "longitude": 73.93426, 
  "state": "Maharashtra", 
  "location": "Amanora Mall", 
  "address": "SSIPL Retail Ltd. Unit No. EB-GF-13, Town Centre-Amanora Park Township, Village Sadesatranali (17-1/2 Nali), Hadapsar, Taluka Haveli, Pune-411028", 
  "latitude": 18.51872
 }, 
 {
  "sublocation": "204,205 Atria Mall, AB Road", 
  "city": "Mumbai", 
  "pincode": "400018", 
  "longitude": 72.81426, 
  "state": "Maharashtra", 
  "location": "Atria Mall", 
  "address": "204,205 Atria Mall, AB Road, Worli, Mumbai - 400018", 
  "latitude": 18.99075
 }, 
 {
  "sublocation": "Shop No 4 & 5, Atur Park,Shiv Parvati Co- Op Soc Ltd,Sion Trombay,Road", 
  "city": "Mumbai", 
  "pincode": "400071", 
  "longitude": 72.90453, 
  "state": "Maharashtra", 
  "location": "Atur Park", 
  "address": "Shop No 4 & 5, Atur Park,Shiv Parvati Co- Op Soc Ltd,Sion Trombay,Road,Chembur,Mumbai-400071", 
  "latitude": 19.05066
 }, 
 {
  "sublocation": "", 
  "city": "Pune", 
  "pincode": "411007", 
  "longitude": 73.81115, 
  "state": "Maharashtra", 
  "location": "Aund", 
  "address": "My Store Pvt Ltd ,Plot no-7 Sanghvi Nagar Aundh Road Pune-411007", 
  "latitude": 18.56058
 }, 
 {
  "sublocation": "My Store - Unit No 16-17,Mahavir Rachana", 
  "city": "Mumbai", 
  "pincode": "400615", 
  "longitude": 73.0335, 
  "state": "Maharashtra", 
  "location": "Belapur", 
  "address": "My Store - Unit No 16-17,Mahavir Rachana,Sector - 15,CBD Belapur - Navi Mumbai", 
  "latitude": 19.01069
 }, 
 {
  "sublocation": "SSIPL Retail Ltd. Shop No. 36, Satra Park, Shimpoli Road", 
  "city": "Mumbai", 
  "pincode": "400092", 
  "longitude": 72.84857, 
  "state": "Maharashtra", 
  "location": "Borivali", 
  "address": "SSIPL Retail Ltd. Shop No. 36, Satra Park, Shimpoli Road, Borivali (W), Mumbai \u00c3\u00bb 400092", 
  "latitude": 19.22385
 }, 
 {
  "sublocation": "Unit G-18, Center One Mall,Plot No # 33,Sector - 30A", 
  "city": "Mumbai", 
  "pincode": "400070", 
  "longitude": 72.99796, 
  "state": "Maharashtra", 
  "location": "Centre One - Vashi", 
  "address": "Unit G-18, Center One Mall,Plot No # 33,Sector - 30A,Near Vashi Rly Station,New Mumbai -400070", 
  "latitude": 19.06324
 }, 
 {
  "sublocation": "Shop No. 1, 2 & 19, Ground Floor", 
  "city": "Nasik", 
  "pincode": "422005", 
  "longitude": 73.76194, 
  "state": "Maharashtra", 
  "location": "City Center Mall", 
  "address": "Shop No. 1, 2 & 19, Ground Floor, City Centre Mall, Nasik - 422005", 
  "latitude": 19.99083
 }, 
 {
  "sublocation": "Kushru Baug", 
  "city": "Mumbai", 
  "pincode": "400001", 
  "longitude": 72.82943, 
  "state": "Maharashtra", 
  "location": "Colaba", 
  "address": "Kushru Baug, Shahid Bhagat Singh Marg, Mumbai - 400001", 
  "latitude": 18.91957
 }, 
 {
  "sublocation": "Merwan Mansion, Opposite Colaba Police Station", 
  "city": "Mumbai", 
  "pincode": "400001", 
  "longitude": 72.83139, 
  "state": "Maharashtra", 
  "location": "Colaba", 
  "address": "Merwan Mansion, Opposite Colaba Police Station, Shahid Bhagat Singh Marg, Mumbai - 400001", 
  "latitude": 18.92205
 }, 
 {
  "sublocation": "29,Harbour View,Colaba Causeway", 
  "city": "Mumbai", 
  "pincode": "400001", 
  "longitude": 72.83181, 
  "state": "Maharashtra", 
  "location": "Colaba", 
  "address": "29,Harbour View,Colaba Causeway,Colaba,Mumbai-1", 
  "latitude": 18.92326
 }, 
 {
  "sublocation": "SSIPL Retail Ltd. Shop No.3, Regal Circle, Colaba Causeway", 
  "city": "Mumbai", 
  "pincode": "400001", 
  "longitude": 72.83234, 
  "state": "Maharashtra", 
  "location": "Colaba", 
  "address": "SSIPL Retail Ltd. Shop No.3, Regal Circle, Colaba Causeway, SB Road, Mumbai-400001", 
  "latitude": 18.92467
 }, 
 {
  "sublocation": "My Store - GF-Unit No1-2,Jagannath Commerce Plaza", 
  "city": "Mumbai", 
  "pincode": "421201", 
  "longitude": 73.09145, 
  "state": "Maharashtra", 
  "location": "Dombivli", 
  "address": "My Store - GF-Unit No1-2,Jagannath Commerce Plaza,Manpada Road,Dombivli ( E ) - 421201", 
  "latitude": 19.21368
 }, 
 {
  "sublocation": "F-29 Empire Mall, Jalna Road P-80 Api Corner", 
  "city": "Aurangabad", 
  "pincode": "431210", 
  "longitude": 75.37204, 
  "state": "Maharashtra", 
  "location": "Empire Mall ( Prozone Mall)", 
  "address": "F-29 Empire Mall, Jalna Road P-80 Api Corner, MIDC Chikalthana, Aurangabad-431210", 
  "latitude": 19.87692
 }, 
 {
  "sublocation": "Shop No G-10 Millenium Plaza", 
  "city": "Pune", 
  "pincode": "411005", 
  "longitude": 73.84114, 
  "state": "Maharashtra", 
  "location": "F C Road", 
  "address": "Shop No G-10 Millenium Plaza,Tal Pune City ,F.C road pune", 
  "latitude": 18.52139
 }, 
 {
  "sublocation": "G-7, Growel Mall,Growel House,Akurli Road", 
  "city": "Mumbai", 
  "pincode": "400101", 
  "longitude": 72.86059, 
  "state": "Maharashtra", 
  "location": "Growel Mall", 
  "address": "G-7, Growel Mall,Growel House,Akurli Road,Kandivali ( E ),Mumbai - 400101", 
  "latitude": 19.20301
 }, 
 {
  "sublocation": "Shop No 5,Ventura Shopping , Hiranandani Business Park , Opp D-Mart", 
  "city": "Mumbai", 
  "pincode": "400076", 
  "longitude": 72.90871, 
  "state": "Maharashtra", 
  "location": "Hiranandani", 
  "address": "Shop No 5,Ventura Shopping , Hiranandani Business Park , Opp D-Mart,Powai, Mumbai-400076", 
  "latitude": 19.11597
 }, 
 {
  "sublocation": "Shop No. 12, Ground Floor, ICC Trade Tower", 
  "city": "Pune", 
  "pincode": "411016", 
  "longitude": 73.82999, 
  "state": "Maharashtra", 
  "location": "ICC Pune", 
  "address": "Shop No. 12, Ground Floor, ICC Trade Tower, Senapati Bapat Marg, Pune - 411016", 
  "latitude": 18.53482
 }, 
 {
  "sublocation": "Unit No. SF224, Infiniti Mall, Next to Goregaon Sports Club, Link Road", 
  "city": "Mumbai", 
  "pincode": "400064", 
  "longitude": 72.83464, 
  "state": "Maharashtra", 
  "location": "Infiniti - 2", 
  "address": "Unit No. SF224, Infiniti Mall, Next to Goregaon Sports Club, Link Road, Malad West, Mumbai-400 064.", 
  "latitude": 19.18491
 }, 
 {
  "sublocation": "Shop No., 118, Infinity Mall ,Andheri Link Road,Next To Fame Adlabs ", 
  "city": "Mumbai", 
  "pincode": "400058", 
  "longitude": 72.83102, 
  "state": "Maharashtra", 
  "location": "Infinity", 
  "address": "Shop No., 118, Infinity Mall ,Andheri Link Road,Next To Fame Adlabs , Andheri (W) ,Mumbai-400058", 
  "latitude": 19.14131
 }, 
 {
  "sublocation": "My Store Pvt Ltd - Unit No F -48, 1st Floor,Link Road", 
  "city": "Mumbai", 
  "pincode": "400064", 
  "longitude": 72.83578, 
  "state": "Maharashtra", 
  "location": "Inorbit Mall", 
  "address": "My Store Pvt Ltd - Unit No F -48, 1st Floor,Link Road,Malad - (W),Mumbai - 400064", 
  "latitude": 19.17307
 }, 
 {
  "sublocation": "My Store (Nike) , Shop No S-046, Ground Floor, Inorbit Mall", 
  "city": "Pune", 
  "pincode": "411014", 
  "longitude": 73.92046, 
  "state": "Maharashtra", 
  "location": "Inorbit Mall - Pune", 
  "address": "My Store (Nike) , Shop No S-046, Ground Floor, Inorbit Mall, Nagar Rd, Pune - 411014", 
  "latitude": 18.56085
 }, 
 {
  "sublocation": "Unit No. S1", 
  "city": "Mumbai", 
  "pincode": "400703", 
  "longitude": 73.00076, 
  "state": "Maharashtra", 
  "location": "Inorbit Vashi", 
  "address": "Unit No. S1, 2nd Floor Inorbit Mall sector 30A, Vashi (Thane) Mumbai - 400703", 
  "latitude": 19.0659
 }, 
 {
  "sublocation": "573/7, JM Road", 
  "city": "Pune", 
  "pincode": "411004", 
  "longitude": 73.84624, 
  "state": "Maharashtra", 
  "location": "JM Road", 
  "address": "573/7, JM Road, Hotel Sapna, Pune - 411004", 
  "latitude": 18.5201
 }, 
 {
  "sublocation": "Unit # 15A,Korum Mall,Pandey Road", 
  "city": "Mumbai", 
  "pincode": "400606", 
  "longitude": 72.96579, 
  "state": "Maharashtra", 
  "location": "Korum Mall", 
  "address": "Unit # 15A,Korum Mall,Pandey Road,Thane ( W ),Thane-400606", 
  "latitude": 19.20247
 }, 
 {
  "sublocation": "Shop No. 4 & 5, Shyam Vihar", 
  "city": "Mumbai", 
  "pincode": "400052", 
  "longitude": 72.8333, 
  "state": "Maharashtra", 
  "location": "Linking - Leros", 
  "address": "Shop No. 4 & 5, Shyam Vihar, Linking Road, Mumbai - 400052.", 
  "latitude": 19.06806
 }, 
 {
  "sublocation": "Shop No. 2 & 3, Shyam Vihar", 
  "city": "Mumbai", 
  "pincode": "400052", 
  "longitude": 72.8333, 
  "state": "Maharashtra", 
  "location": "Linking Rd", 
  "address": "Shop No. 2 & 3, Shyam Vihar, Linking Road, Mumbai - 400052.", 
  "latitude": 19.06806
 }, 
 {
  "sublocation": "Shop No 1,2 and 3 Punam Building, Khar Punam Co-Op Housing Soc Ltd Linking Road", 
  "city": "Mumbai", 
  "pincode": "400052", 
  "longitude": 72.83439, 
  "state": "Maharashtra", 
  "location": "Linking Rd (FFD)", 
  "address": "Shop No 1,2 and 3 Punam Building, Khar Punam Co-Op Housing Soc Ltd Linking Road, Khar (West), Mumbai - 400052.", 
  "latitude": 19.07507
 }, 
 {
  "sublocation": "SSIPL Retail Ltd. Shop No. 7 & 8, Prerna C.H.S., Opp. RNA arcade, S.S. road, cross road no. 4", 
  "city": "Mumbai", 
  "pincode": "400053", 
  "longitude": 72.82326, 
  "state": "Maharashtra", 
  "location": "Lokhandwala", 
  "address": "SSIPL Retail Ltd. Shop No. 7 & 8, Prerna C.H.S., Opp. RNA arcade, S.S. road, cross road no. 4, Lokhandwala complex, Andheri(W) Mumbai \u00c3\u00bb 400053", 
  "latitude": 19.14497
 }, 
 {
  "sublocation": "Shop No. 5, Arora Towers", 
  "city": "Pune", 
  "pincode": "411001", 
  "longitude": 73.87898, 
  "state": "Maharashtra", 
  "location": "M G Road 1", 
  "address": "Shop No. 5, Arora Towers, MG Road, Pune - 411001", 
  "latitude": 18.51801
 }, 
 {
  "sublocation": "Shop # 308", 
  "city": "Pune", 
  "pincode": "411001", 
  "longitude": 73.87871, 
  "state": "Maharashtra", 
  "location": "M.G.Road 2", 
  "address": "Shop # 308, MG Road, Pune-411001", 
  "latitude": 18.51484
 }, 
 {
  "sublocation": "SSIPL Retail Ltd., UG-54, Phoenix Market City Mall, Viman Nagar", 
  "city": "Pune", 
  "pincode": "411014", 
  "longitude": 73.91704, 
  "state": "Maharashtra", 
  "location": "Market City", 
  "address": "SSIPL Retail Ltd., UG-54, Phoenix Market City Mall, Viman Nagar, Nagar Road, Pune-411014", 
  "latitude": 18.56166
 }, 
 {
  "sublocation": "Shop No 53-54, Kurla Marketcity,LBS Marg", 
  "city": "Mumbai", 
  "pincode": "400070", 
  "longitude": 72.88723, 
  "state": "Maharashtra", 
  "location": "Market City", 
  "address": "Shop No 53-54, Kurla Marketcity,LBS Marg, Kurla(W),Mumbai -400070", 
  "latitude": 19.08538
 }, 
 {
  "sublocation": "Shop# F-12, First Floor,Mega Mall,New Link Road , Oshiwara", 
  "city": "Mumbai", 
  "pincode": "400062", 
  "longitude": 72.83422, 
  "state": "Maharashtra", 
  "location": "Mega Mall", 
  "address": "Shop# F-12, First Floor,Mega Mall,New Link Road , Oshiwara,Andheri (W),Mumbai-400062", 
  "latitude": 19.15157
 }, 
 {
  "sublocation": "SSIPL Retail Ltd. G-5, Metro Junction Mall, Netivli Village, Shil Road", 
  "city": "Mumbai", 
  "pincode": "421306", 
  "longitude": 73.12278, 
  "state": "Maharashtra", 
  "location": "Metro Junction Mall", 
  "address": "SSIPL Retail Ltd. G-5, Metro Junction Mall, Netivli Village, Shil Road, Kalyan,Mumbai-421306", 
  "latitude": 19.22898
 }, 
 {
  "sublocation": "S-16, Ground Floor, Nirmal Life style, LBS Marg, Opposite Nirmal Nagar", 
  "city": "Mumbai", 
  "pincode": "400080", 
  "longitude": 72.93722, 
  "state": "Maharashtra", 
  "location": "Mulund", 
  "address": "S-16, Ground Floor, Nirmal Life style, LBS Marg, Opposite Nirmal Nagar, Mulund (West), Mumbai - 400080", 
  "latitude": 19.16611
 }, 
 {
  "sublocation": "F-115/116,Neptune MagnetoMall", 
  "city": "Mumbai", 
  "pincode": "400078", 
  "longitude": 72.93149, 
  "state": "Maharashtra", 
  "location": "Neptune Mall", 
  "address": "F-115/116,Neptune MagnetoMall, LBS Road,Bhandup (W) Mumbai -400078", 
  "latitude": 19.14177
 }, 
 {
  "sublocation": "F-08,1st Floor ,Oberoi Mall", 
  "city": "Mumbai", 
  "pincode": "400063", 
  "longitude": 72.86043, 
  "state": "Maharashtra", 
  "location": "Oberoi Mall", 
  "address": "F-08,1st Floor ,Oberoi Mall,Off I -63Western Express Highway , Goregoan ( E ) Mumbai -63", 
  "latitude": 19.17403
 }, 
 {
  "sublocation": "My Store Pvt Ltd ,F-04, ,Kumar Pacific Mall", 
  "city": "Pune", 
  "pincode": "411042", 
  "longitude": 73.87237, 
  "state": "Maharashtra", 
  "location": "Pacific Mall", 
  "address": "My Store Pvt Ltd ,F-04, ,Kumar Pacific Mall,Shankar Seth Road Gultekdi,Pune-411042", 
  "latitude": 18.50158
 }, 
 {
  "sublocation": "Ruby Terrace, Shop No.1,Dr. Ambedkar Road,Opp. Central Railway Ground, Parel", 
  "city": "Mumbai", 
  "pincode": "400012", 
  "longitude": 72.83832, 
  "state": "Maharashtra", 
  "location": "Parel", 
  "address": "Ruby Terrace, Shop No.1,Dr. Ambedkar Road,Opp. Central Railway Ground, Parel, Mumbai - 400 012, Maharashtra", 
  "latitude": 19.00112
 }, 
 {
  "sublocation": "SSIPL Retail Ltd. Unit No. GF-33, Koregaon Park Plaza, Next to Onyx (Citibank Office), Close to Westin Hotel", 
  "city": "Pune", 
  "pincode": "411001", 
  "longitude": 73.9078, 
  "state": "Maharashtra", 
  "location": "Park Plaza", 
  "address": "SSIPL Retail Ltd. Unit No. GF-33, Koregaon Park Plaza, Next to Onyx (Citibank Office), Close to Westin Hotel, North Main Road Extn. Koregaon Park, Pune-411001", 
  "latitude": 18.5384
 }, 
 {
  "sublocation": "Unit No. 4, Skyzone, Phoenix Mills", 
  "city": "Mumbai", 
  "pincode": "400013", 
  "longitude": 72.82546, 
  "state": "Maharashtra", 
  "location": "Phoenix", 
  "address": "Unit No. 4, Skyzone, Phoenix Mills, Lower Parel, Mumbai - 400013", 
  "latitude": 18.99486
 }, 
 {
  "sublocation": "SSIPL Retail Ltd., Shop\u00c3\u00a1 G-22 R Mall, Ghodbunder Road, Near Runwal Estate", 
  "city": "Mumbai", 
  "pincode": "400601", 
  "longitude": 72.95149, 
  "state": "Maharashtra", 
  "location": "R - Mall", 
  "address": "SSIPL Retail Ltd., Shop\u00c3\u00a1 G-22 R Mall, Ghodbunder Road, Near Runwal Estate, Thane (W),\u00c3\u00a1 Mumbai - 400601", 
  "latitude": 19.18393
 }, 
 {
  "sublocation": "F-61, R City - Phase 2 ", 
  "city": "Mumbai", 
  "pincode": "400077", 
  "longitude": 72.91611, 
  "state": "Maharashtra", 
  "location": "R City -2", 
  "address": "F-61, R City - Phase 2 , L B S Road , Ghatkopar - (W) Mumbai - 400077", 
  "latitude": 19.09917
 }, 
 {
  "sublocation": "SSIPL Retail Ltd. Shop No. G-14, Ground Floor, R- Mall, Mulund", 
  "city": "Mumbai", 
  "pincode": "400080", 
  "longitude": 72.9774, 
  "state": "Maharashtra", 
  "location": "R- Mall", 
  "address": "SSIPL Retail Ltd. Shop No. G-14, Ground Floor, R- Mall, Mulund, LBS Marg, Mumbai - 400080", 
  "latitude": 19.2302
 }, 
 {
  "sublocation": "Shop# 8,R-City Mall,1st Floor,LBS Marg", 
  "city": "Mumbai", 
  "pincode": "400077", 
  "longitude": 72.91611, 
  "state": "Maharashtra", 
  "location": "R-City", 
  "address": "Shop# 8,R-City Mall,1st Floor,LBS Marg,Ghatkopar(W),Mumbai-400077", 
  "latitude": 19.09917
 }, 
 {
  "sublocation": "Shop # 6, Upper Basement SGS Magnum Mall, 231 Moledine Road", 
  "city": "Pune", 
  "pincode": "411001", 
  "longitude": 73.87722, 
  "state": "Maharashtra", 
  "location": "SGS, Kakde Mall", 
  "address": "Shop # 6, Upper Basement SGS Magnum Mall, 231 Moledine Road, Camp, Pune - 411001", 
  "latitude": 18.51944
 }, 
 {
  "sublocation": "SSIPL Retail Ltd. GF, Shop No. 2, 3 & 4, S.No.17-A, Plot No. 9,10 & 13 @ Navgarh Village, Tal Vasai", 
  "city": "Mumbai", 
  "pincode": "401202", 
  "longitude": 72.89467, 
  "state": "Maharashtra", 
  "location": "Vasai", 
  "address": "SSIPL Retail Ltd. GF, Shop No. 2, 3 & 4, S.No.17-A, Plot No. 9,10 & 13 @ Navgarh Village, Tal Vasai, Distt-Thane, Mumbai-401202", 
  "latitude": 19.33727
 }, 
 {
  "sublocation": "Shop No FF-14,Viviana Mall, Next to Jupiter Hospital, Eastern Express Highway", 
  "city": "Mumbai", 
  "pincode": "400610", 
  "longitude": 72.97146, 
  "state": "Maharashtra", 
  "location": "Viviana Mall", 
  "address": "Shop No FF-14,Viviana Mall, Next to Jupiter Hospital, Eastern Express Highway, Thane - (W), Thane - 400610", 
  "latitude": 19.20832
 }, 
 {
  "sublocation": "Shop No-1/2, Atlanta Building, Opp- Joggers Park,Near Park View Restaurant", 
  "city": "Bhavnagar", 
  "pincode": "364002", 
  "longitude": 72.1482, 
  "state": "Gujarat", 
  "location": "Bhavnagar", 
  "address": "Shop No-1/2, Atlanta Building, Opp- Joggers Park,Near Park View Restaurant, Atabhai Rd, Bhavnagar-364002", 
  "latitude": 21.75856
 }, 
 {
  "sublocation": "Shop No-4/5, Fortune Square 1, Plot No 110/A/2, Near Primary School, Chala Daman Road", 
  "city": "Vapi", 
  "pincode": "396191", 
  "longitude": 72.90295, 
  "state": "Gujarat", 
  "location": "Fortune Square", 
  "address": "Shop No-4/5, Fortune Square 1, Plot No 110/A/2, Near Primary School, Chala Daman Road, Chala, Vapi-396191.", 
  "latitude": 20.38371
 }, 
 {
  "sublocation": "Shop # 114,115, Iscon mall, Ichanath Marg", 
  "city": "Surat", 
  "pincode": "395007", 
  "longitude": 72.77385, 
  "state": "Gujarat", 
  "location": "Iscon Mall", 
  "address": "Shop # 114,115, Iscon mall, Ichanath Marg, Opp. Rajhans Cinema, Surat-395007", 
  "latitude": 21.16165
 }, 
 {
  "sublocation": "Shop No 57 Ground Floor ", 
  "city": "Surat", 
  "pincode": "395007", 
  "longitude": 72.76656, 
  "state": "Gujarat", 
  "location": "Rahul Raj Mall", 
  "address": "Shop No 57 Ground Floor ,Rahul Raj Mall, Dumas road Surat 395007", 
  "latitude": 21.15544
 }, 
 {
  "sublocation": "House 1 Ground Floor,Union Point,Near Kakadia Complex", 
  "city": "Surat", 
  "pincode": "395007", 
  "longitude": 72.79804, 
  "state": "Gujarat", 
  "location": "Union Point", 
  "address": "House 1 Ground Floor,Union Point,Near Kakadia Complex,Ghod-Dod Road,Surat-395007", 
  "latitude": 21.17407
 }, 
 {
  "sublocation": "Shop 116A ,First Floor Virtuous Mall ", 
  "city": "Surat", 
  "pincode": "395007", 
  "longitude": 72.75724, 
  "state": "Gujarat", 
  "location": "Virtuous Mall", 
  "address": "Shop 116A ,First Floor Virtuous Mall , Dumas Road ,Surat - 395007", 
  "latitude": 21.14524
 }, 
 {
  "sublocation": "SSIPL Retail Ltd. Shop No. F-05, First Floor, Alpha One Mall", 
  "city": "Ahmedabad", 
  "pincode": "380054", 
  "longitude": 72.5311, 
  "state": "Gujarat", 
  "location": "Alpha Mall", 
  "address": "SSIPL Retail Ltd. Shop No. F-05, First Floor, Alpha One Mall, Duplicate Vastrapur TP 1 FP 216 P, Ahmedabad-380054", 
  "latitude": 23.03997
 }, 
 {
  "sublocation": "G-4, Maruti Skand, Opp- CCD", 
  "city": "Anand", 
  "pincode": "388001", 
  "longitude": 72.94192, 
  "state": "Gujarat", 
  "location": "Anand", 
  "address": "G-4, Maruti Skand, Opp- CCD, Anand Vidya Nagar Road , Anand 388001", 
  "latitude": 22.55207
 }, 
 {
  "sublocation": "SSIPL Retail Ltd. Shop No. GF-1, Shopper Plaza-III, C.G. Road", 
  "city": "Ahmedabad", 
  "pincode": "380009", 
  "longitude": 72.56028, 
  "state": "Gujarat", 
  "location": "CG Road", 
  "address": "SSIPL Retail Ltd. Shop No. GF-1, Shopper Plaza-III, C.G. Road, Opposite Municipal Market, Ahmedabad-380009", 
  "latitude": 23.03461
 }, 
 {
  "sublocation": "Arvindbhai Avenue, Ground Floor, Near Citi Bank, Opposite. Associated Petrol Pump", 
  "city": "Ahmedabad", 
  "pincode": "380009", 
  "longitude": 72.55872, 
  "state": "Gujarat", 
  "location": "CG Road", 
  "address": "Arvindbhai Avenue, Ground Floor, Near Citi Bank, Opposite. Associated Petrol Pump, CG Road, Ahmedabad - 380009", 
  "latitude": 23.02935
 }, 
 {
  "sublocation": "Shop No. 07, First Floor, Center Square Mall, Near Genda Circle", 
  "city": "Baroda", 
  "pincode": "390003", 
  "longitude": 73.16957, 
  "state": "Gujarat", 
  "location": "Center Square Mall", 
  "address": "Shop No. 07, First Floor, Center Square Mall, Near Genda Circle, Opposite Vadodara Central, Vadodara - 390003", 
  "latitude": 22.31809
 }, 
 {
  "sublocation": "Shop no. 120, First Floor, plot nos. 94 - 104 and plot nos. 300 & 303, scheme No. 54", 
  "city": "Indore", 
  "pincode": "452010", 
  "longitude": 75.8944, 
  "state": "Madhya Pradesh", 
  "location": "Century 21 Mall", 
  "address": "Shop no. 120, First Floor, plot nos. 94 - 104 and plot nos. 300 & 303, scheme No. 54, PU-4, Indore - 452010", 
  "latitude": 22.74409
 }, 
 {
  "sublocation": "Unit No. F 4, Gulmohar Park, SG Highway, Satellite Road", 
  "city": "Ahmedabad", 
  "pincode": "380006", 
  "longitude": 72.51, 
  "state": "Gujarat", 
  "location": "Gulmohar Park", 
  "address": "Unit No. F 4, Gulmohar Park, SG Highway, Satellite Road, Ahmedabad, Gujarat - 380006", 
  "latitude": 23.02639
 }, 
 {
  "sublocation": "Shop No G-29, Inorbit Mall, Opp Alembic School", 
  "city": "Baroda", 
  "pincode": "390007", 
  "longitude": 73.16657, 
  "state": "Gujarat", 
  "location": "Inorbit Mall", 
  "address": "Shop No G-29, Inorbit Mall, Opp Alembic School, Genda Circle, Baroda- 390007.", 
  "latitude": 22.3226
 }, 
 {
  "sublocation": "149, Iscon Mega Mall", 
  "city": "Ahmedabad", 
  "pincode": "380015", 
  "longitude": 72.52427, 
  "state": "Gujarat", 
  "location": "Iscon Mall", 
  "address": "149, Iscon Mega Mall, S.G. Highway, Ahmedabad - 380015", 
  "latitude": 23.02695
 }, 
 {
  "sublocation": "My Store Pvt Ltd ,9/1/3", 
  "city": "Indore", 
  "pincode": "452001", 
  "longitude": 75.87958, 
  "state": "Madhya Pradesh", 
  "location": "M G Road", 
  "address": "My Store Pvt Ltd ,9/1/3,M.G Road,Indore -452001", 
  "latitude": 22.7219
 }, 
 {
  "sublocation": "Saffron Lifestyle Traders Pvt Ltd - Nike-Shop No-2,Shangrilla Arcade, 100 Ft Road", 
  "city": "Ahmedabad", 
  "pincode": "380015", 
  "longitude": 72.50828, 
  "state": "Gujarat", 
  "location": "Prahalad Nagar", 
  "address": "Saffron Lifestyle Traders Pvt Ltd - Nike-Shop No-2,Shangrilla Arcade, 100 Ft Road, Nr Shyamal Cross Roads,Ahmedabad -380015", 
  "latitude": 23.0117
 }, 
 {
  "sublocation": "SSIPL Retail Ltd. G/F, Satgure Complex, Opp. Silicon Velly,\u00c3\u00a1 Nr.Shivranjni Cross Road, Satelite", 
  "city": "Ahmedabad", 
  "pincode": "380006", 
  "longitude": 72.52924, 
  "state": "Gujarat", 
  "location": "Satellite Road", 
  "address": "SSIPL Retail Ltd. G/F, Satgure Complex, Opp. Silicon Velly,\u00c3\u00a1 Nr.Shivranjni Cross Road, Satelite, Ahmedabad, Gujrat-380006", 
  "latitude": 23.0243
 }, 
 {
  "sublocation": "Saffron Lifestyle Traders Pvt Ltd - Nike - Shop No-4,Shreem Shalini Mall,Near Alkapuri Petrol Pump,R.C. Dutt Road", 
  "city": "Baroda", 
  "pincode": "390005", 
  "longitude": 73.17092, 
  "state": "Gujarat", 
  "location": "Shreem Shalini Mall - Alkapuri", 
  "address": "Saffron Lifestyle Traders Pvt Ltd - Nike - Shop No-4,Shreem Shalini Mall,Near Alkapuri Petrol Pump,R.C. Dutt Road,Alkapuri,Vadodara - 390005", 
  "latitude": 22.31049
 }, 
 {
  "sublocation": "Swapnil 5 Shop number\u00c3\u00a110", 
  "city": "Ahmedabad", 
  "pincode": "380009", 
  "longitude": 72.55428, 
  "state": "Gujarat", 
  "location": "Swapnil 5", 
  "address": "Swapnil 5 Shop number\u00c3\u00a110, Near Commerce Six Roads, Navrangpura Ahemdabad 380009", 
  "latitude": 23.04034
 }, 
 {
  "sublocation": "S&D Enterprises, G 9 Treasure Island, 11 Tukoganj Main", 
  "city": "Indore", 
  "pincode": "452001", 
  "longitude": 75.87857, 
  "state": "Madhya Pradesh", 
  "location": "Treasure Island", 
  "address": "S&D Enterprises, G 9 Treasure Island, 11 Tukoganj Main, Indore-452001, Madhya Pradesh", 
  "latitude": 22.7215
 }, 
 {
  "sublocation": "52, Ashoka Nagar", 
  "city": "Udaipur", 
  "pincode": "313001", 
  "longitude": 73.70601, 
  "state": "Rajasthan", 
  "location": "Ashoak Nagar", 
  "address": "52, Ashoka Nagar, Main Road, Udaipur 313001.", 
  "latitude": 24.58668
 }, 
 {
  "sublocation": "SSIPL Retail Ltd. Shop No. 01-26, First Floor, The Celebration Mall, N.H.8, Opp. Devendra Dham", 
  "city": "Udaipur", 
  "pincode": "313004", 
  "longitude": 73.70254, 
  "state": "Rajasthan", 
  "location": "Celebration Mall", 
  "address": "SSIPL Retail Ltd. Shop No. 01-26, First Floor, The Celebration Mall, N.H.8, Opp. Devendra Dham, Bhuwana, Udaipur\u00c3\u00bb313004", 
  "latitude": 24.61245
 }, 
 {
  "sublocation": "SSIPL Retail Ltd. Shop No. F-12 & 13, Kota City Mall, Jhalawar Road", 
  "city": "Kota", 
  "pincode": "324001", 
  "longitude": 75.85509, 
  "state": "Rajasthan", 
  "location": "City Mall", 
  "address": "SSIPL Retail Ltd. Shop No. F-12 & 13, Kota City Mall, Jhalawar Road, Kota, Rajasthan-324001", 
  "latitude": 25.13722
 }, 
 {
  "sublocation": "Sheel Bhawan, Kotri Road", 
  "city": "Kota", 
  "pincode": "324007", 
  "longitude": 75.84925, 
  "state": "Rajasthan", 
  "location": "Kota", 
  "address": "Sheel Bhawan, Kotri Road, Gumanpura, Kota - 324007", 
  "latitude": 25.17634
 }, 
 {
  "sublocation": "SSIPL Retail Ltd. Shop no. 9, Ground Floor, Lake City Mall, Plot No. 1, Porwal Ji Ki Bari", 
  "city": "Udaipur", 
  "pincode": "313001", 
  "longitude": 73.71054, 
  "state": "Rajasthan", 
  "location": "Lake City Mall", 
  "address": "SSIPL Retail Ltd. Shop no. 9, Ground Floor, Lake City Mall, Plot No. 1, Porwal Ji Ki Bari, Main Ashok Nagar Road, Udaipur - 313001", 
  "latitude": 24.58634
 }, 
 {
  "sublocation": "SSIPL Retail Ltd. On GF Bearing Khasra No. 2608 min,\"Guru Kripa\" Near Jhawala House Anasagar Circular Road, Near Link Road", 
  "city": "Ajmer", 
  "pincode": "305001", 
  "longitude": 74.63102, 
  "state": "Rajasthan", 
  "location": "Ajmer", 
  "address": "SSIPL Retail Ltd. On GF Bearing Khasra No. 2608 min,\"Guru Kripa\" Near Jhawala House Anasagar Circular Road, Near Link Road, Near Chawla House, Vaisali Nagar Ajmer -305001", 
  "latitude": 26.48588
 }, 
 {
  "sublocation": "SSIPL Retail Ltd. Shop No. 9 & 10, Ground Floor, Gaurav Tower", 
  "city": "Jaipur", 
  "pincode": "302017", 
  "longitude": 75.80641, 
  "state": "Rajasthan", 
  "location": "Gaurav Tower", 
  "address": "SSIPL Retail Ltd. Shop No. 9 & 10, Ground Floor, Gaurav Tower, Malviya Nagar, Jaipur-302017", 
  "latitude": 26.85539
 }, 
 {
  "sublocation": "1, Ground, Mezanine & Basement Floors, Jashan, Mehran Tower, 1st C Road", 
  "city": "Jodhpur", 
  "pincode": "342001", 
  "longitude": 73.01084, 
  "state": "Rajasthan", 
  "location": "Jodhpur", 
  "address": "1, Ground, Mezanine & Basement Floors, Jashan, Mehran Tower, 1st C Road, Sardarpura, Jodhpur - 342001", 
  "latitude": 26.27678
 }, 
 {
  "sublocation": "SSIPL Retail Ltd. GF & FF, Sanghi Building, Opp. Bharat Petroleum Pump, MI Road", 
  "city": "Jaipur", 
  "pincode": "302001", 
  "longitude": 75.80901, 
  "state": "Rajasthan", 
  "location": "M.I. Road", 
  "address": "SSIPL Retail Ltd. GF & FF, Sanghi Building, Opp. Bharat Petroleum Pump, MI Road, Jaipur, Rajasthan-302001", 
  "latitude": 26.91627
 }, 
 {
  "sublocation": "Shop # 14 & 15 First Floor, MGF Metropolitan Mall, Opposite Nehru Sahakar Bhawan", 
  "city": "Jaipur", 
  "pincode": "302001", 
  "longitude": 75.7937, 
  "state": "Rajasthan", 
  "location": "MGF Metropolitan", 
  "address": "Shop # 14 & 15 First Floor, MGF Metropolitan Mall, Opposite Nehru Sahakar Bhawan, Bais Godam, Jaipur-302001", 
  "latitude": 26.90248
 }, 
 {
  "sublocation": "SSIPL Retail Ltd. Plot no. A1, Jawahar Nagar Colony", 
  "city": "Jaipur", 
  "pincode": "302018", 
  "longitude": 75.80793, 
  "state": "Rajasthan", 
  "location": "Tonk Road", 
  "address": "SSIPL Retail Ltd. Plot no. A1, Jawahar Nagar Colony, Tonk road, Jaipur-302018", 
  "latitude": 26.89349
 }, 
 {
  "sublocation": "SSIPL Retail Ltd. Shop No. 4A, Ground Floor, RSEB Colony, Gautam Marg", 
  "city": "Jaipur", 
  "pincode": "302021", 
  "longitude": 75.74387, 
  "state": "Rajasthan", 
  "location": "Vaishali Nagar", 
  "address": "SSIPL Retail Ltd. Shop No. 4A, Ground Floor, RSEB Colony, Gautam Marg, Vaishali Nagar, Jaipur-302021", 
  "latitude": 26.91107
 }, 
 {
  "sublocation": "Nike,Next to Mufti Store,P.N.Bank Street", 
  "city": "Sirsa", 
  "pincode": "125055", 
  "longitude": 75.0296, 
  "state": "Haryana", 
  "location": "Bank Street - Sirsa", 
  "address": "Nike,Next to Mufti Store,P.N.Bank Street,Rori Bazar,Sirsa - 125055", 
  "latitude": 29.53352
 }, 
 {
  "sublocation": "SSIPL Retail Ltd.B-46, Ground Floor & First Floor", 
  "city": "Bikaner", 
  "pincode": "334002", 
  "longitude": 73.33395, 
  "state": "Rajasthan", 
  "location": "Bikaner", 
  "address": "SSIPL Retail Ltd.B-46, Ground Floor & First Floor, Kalptaru Sardul Ganj, Bikaner-334002", 
  "latitude": 28.01037
 }, 
 {
  "sublocation": "Unit No. 20 A, Ravinder Path", 
  "city": "Ganga Nagar", 
  "pincode": "335001", 
  "longitude": 73.87204, 
  "state": "Rajasthan", 
  "location": "Ganga Nagar", 
  "address": "Unit No. 20 A, Ravinder Path, Sri Ganganagar, Rajasthan - 335001.", 
  "latitude": 29.92697
 }, 
 {
  "sublocation": "SSIPL Retail Ltd. Unit No. 49, Ground Floor, N- Block, NH-15", 
  "city": "Ganga Nagar", 
  "pincode": "335001", 
  "longitude": 73.87474, 
  "state": "Rajasthan", 
  "location": "Gaushala Road", 
  "address": "SSIPL Retail Ltd. Unit No. 49, Ground Floor, N- Block, NH-15, Sri Ganga Nagar, Rajasthan\u00c3\u00bb335001", 
  "latitude": 29.92141
 }, 
 {
  "sublocation": "D.S.S 24-25", 
  "city": "Hissar", 
  "pincode": "125001", 
  "longitude": 75.72679, 
  "state": "Haryana", 
  "location": "Hissar", 
  "address": "D.S.S 24-25,P.L.A Shopping Compex,Hissar - 125001", 
  "latitude": 29.14135
 }, 
 {
  "sublocation": "Alfa One, Shop No. FF-38, First Floor, MBM Farms, Sultan Wind, G.T.Road", 
  "city": "Amritsar", 
  "pincode": "143006", 
  "longitude": 74.90775, 
  "state": "Punjab", 
  "location": "Alfa One", 
  "address": "Alfa One, Shop No. FF-38, First Floor, MBM Farms, Sultan Wind, G.T.Road, ,Amritsar-143006", 
  "latitude": 31.61962
 }, 
 {
  "sublocation": "Shop # 6 & 7, First Floor, Ansal Plaza, Firoz Pur Road, Opposite Circuit House", 
  "city": "Ludhiana", 
  "pincode": "141001", 
  "longitude": 75.93932, 
  "state": "Punjab", 
  "location": "Ansal Plaza", 
  "address": "Shop # 6 & 7, First Floor, Ansal Plaza, Firoz Pur Road, Opposite Circuit House, Ludhiana, Punjab-141001", 
  "latitude": 30.88637
 }, 
 {
  "sublocation": "C/o M/s Dharamsons, Unit No 2033A", 
  "city": "Bhatinda", 
  "pincode": "155001", 
  "longitude": 74.94076, 
  "state": "Punjab", 
  "location": "Bhatinda", 
  "address": "C/o M/s Dharamsons, Unit No 2033A, Mall Road, Bhatinda - 155001", 
  "latitude": 30.21253
 }, 
 {
  "sublocation": "Shop No. 204.205,206, Ground floor, Elite arcade", 
  "city": "Ludhiana", 
  "pincode": "141001", 
  "longitude": 75.84002, 
  "state": "Punjab", 
  "location": "Elite Mall", 
  "address": "Shop No. 204.205,206, Ground floor, Elite arcade, The Mall, Ludhiana - 141001.", 
  "latitude": 30.90868
 }, 
 {
  "sublocation": "SSIPL Retail Ltd. Iqbal Bhawan, Ground Floor, Mall Road", 
  "city": "Hoshiarpur", 
  "pincode": "146001", 
  "longitude": 75.91994, 
  "state": "Punjab", 
  "location": "Hoshiarpur", 
  "address": "SSIPL Retail Ltd. Iqbal Bhawan, Ground Floor, Mall Road, Hoshiarpur, Punjab-146001", 
  "latitude": 31.53099
 }, 
 {
  "sublocation": "Shop No. 27, First Floor, Nehru Shopping Center", 
  "city": "Amritsar", 
  "pincode": "143001", 
  "longitude": 74.8762, 
  "state": "Punjab", 
  "location": "Lawrence Road", 
  "address": "Shop No. 27, First Floor, Nehru Shopping Center, Lawrence Road, Amritsar - 143001", 
  "latitude": 31.64215
 }, 
 {
  "sublocation": "F-18,MBD Neopolis Mall", 
  "city": "Ludhiana", 
  "pincode": "141001", 
  "longitude": 75.78171, 
  "state": "Punjab", 
  "location": "MBD Mall", 
  "address": "F-18,MBD Neopolis Mall,Ferozepur Road, Ludhiana - 141001", 
  "latitude": 30.88357
 }, 
 {
  "sublocation": "SSIPL Retail Ltd., F-6, First Floor, MBD NEOPOLIS, Next to Radisson Hotel, BMC Chowk", 
  "city": "Jalandhar", 
  "pincode": "144001", 
  "longitude": 75.58412, 
  "state": "Punjab", 
  "location": "MBD Mall", 
  "address": "SSIPL Retail Ltd., F-6, First Floor, MBD NEOPOLIS, Next to Radisson Hotel, BMC Chowk, Main GT Road, Jalandhar - 144001", 
  "latitude": 31.31904
 }, 
 {
  "sublocation": "32 A, Mall Road, UGF 1", 
  "city": "Amritsar", 
  "pincode": "143001", 
  "longitude": 74.86956, 
  "state": "Punjab", 
  "location": "Mall Road", 
  "address": "32 A, Mall Road, UGF 1, Cee Tee Mall, Amritsar 143001", 
  "latitude": 31.64228
 }, 
 {
  "sublocation": "SSIPL Retail Ltd. \u00c3\u00b4GF\u00c3\u00b6 & \u00c3\u00b4FF\u00c3\u00b6, Khasra No. 1216 & 1217, Mallwal", 
  "city": "Firozpur", 
  "pincode": "152002", 
  "longitude": 74.67688, 
  "state": "Punjab", 
  "location": "Mallwal", 
  "address": "SSIPL Retail Ltd. \u00c3\u00b4GF\u00c3\u00b6 & \u00c3\u00b4FF\u00c3\u00b6, Khasra No. 1216 & 1217, Mallwal, Ferozepur City, Punjab \u00c3\u00bb 152002", 
  "latitude": 30.90435
 }, 
 {
  "sublocation": "SSIPL Retail Ltd. Shop No.6, Upper Ground Floor, Gol Market", 
  "city": "Ludhiana", 
  "pincode": "141002", 
  "longitude": 75.84171, 
  "state": "Punjab", 
  "location": "Model Town", 
  "address": "SSIPL Retail Ltd. Shop No.6, Upper Ground Floor, Gol Market, Model Town, Ludhiana-141002", 
  "latitude": 30.88918
 }, 
 {
  "sublocation": "SSIPL Retail Ltd. Shop No. 1, Gaba Grand Mall", 
  "city": "Jalandhar", 
  "pincode": "144001", 
  "longitude": 75.57799, 
  "state": "Punjab", 
  "location": "Model Town", 
  "address": "SSIPL Retail Ltd. Shop No. 1, Gaba Grand Mall, Model Town, Jalandhar-144001", 
  "latitude": 31.3056
 }, 
 {
  "sublocation": "503 L, Ground floor", 
  "city": "Jalandhar", 
  "pincode": "144001", 
  "longitude": 75.57753, 
  "state": "Punjab", 
  "location": "Model Town", 
  "address": "503 L, Ground floor, Model Town, Jalandhar City-144001. Punjab", 
  "latitude": 31.30605
 }, 
 {
  "sublocation": "SSIPL Retail Ltd. Bajaj Trading, 8/865 (Old M.C. No-865 & New M.C. No-377), Ground Floor & Basement, Partap Road", 
  "city": "Moga", 
  "pincode": "142001", 
  "longitude": 75.16433, 
  "state": "Punjab", 
  "location": "Moga", 
  "address": "SSIPL Retail Ltd. Bajaj Trading, 8/865 (Old M.C. No-865 & New M.C. No-377), Ground Floor & Basement, Partap Road, Moga, Punjab\u00c3\u00bb142001", 
  "latitude": 30.81525
 }, 
 {
  "sublocation": "", 
  "city": "Abohar", 
  "pincode": "152116", 
  "longitude": 74.1967, 
  "state": "Punjab", 
  "location": "Old Tehsil Road,", 
  "address": "Active Clothing Co. Pvt. Ltd. Nike - Old Tehsil Road,Abohar", 
  "latitude": 30.14271
 }, 
 {
  "sublocation": "SSIPL Retail Ltd. Shop No. FF-13, First Floor, Silver Arc Mall, Firozpur Road", 
  "city": "Ludhiana", 
  "pincode": "141001", 
  "longitude": 75.82912, 
  "state": "Punjab", 
  "location": "Silver Arc Mall", 
  "address": "SSIPL Retail Ltd. Shop No. FF-13, First Floor, Silver Arc Mall, Firozpur Road, Near Park Plaza, Ludhiana-141001", 
  "latitude": 30.90072
 }, 
 {
  "sublocation": "SSIPL Retail Ltd. Shop No. 22 & 23, First Floor, Wing-A, Trillium, C-4, Circular Road", 
  "city": "Amritsar", 
  "pincode": "143001", 
  "longitude": 74.87902, 
  "state": "Punjab", 
  "location": "Trillium Mall", 
  "address": "SSIPL Retail Ltd. Shop No. 22 & 23, First Floor, Wing-A, Trillium, C-4, Circular Road, Basant Avenue, Amritsar-143001", 
  "latitude": 31.65792
 }, 
 {
  "sublocation": "Shop No.G13,Viva College Mall,NH-1", 
  "city": "Jalandhar", 
  "pincode": "144001", 
  "longitude": 75.66432, 
  "state": "Punjab", 
  "location": "Viva College Road", 
  "address": "Shop No.G13,Viva College Mall,NH-1,Amritsar-Ludhiana Highway, Jalandhar - 144001", 
  "latitude": 31.28726
 }, 
 {
  "sublocation": "Shop # 3, First Floor, West End Mall, Plot # 2 & 3", 
  "city": "Ludhiana", 
  "pincode": "141001", 
  "longitude": 75.78801, 
  "state": "Punjab", 
  "location": "West End Mall", 
  "address": "Shop # 3, First Floor, West End Mall, Plot # 2 & 3, Firozpur Road, Ludhiana (Punjab) - 141001", 
  "latitude": 30.88589
 }, 
 {
  "sublocation": "Shop No.3, Ground Floor", 
  "city": "Jammu", 
  "pincode": "180004", 
  "longitude": 74.85802, 
  "state": "Jammu and Kashmir", 
  "location": "Apsara Road", 
  "address": "Shop No.3, Ground Floor, Apsara Road, Jammu-180004", 
  "latitude": 32.69871
 }, 
 {
  "sublocation": "Shop no. FF-2, City Square Mall", 
  "city": "Jammu", 
  "pincode": "180001", 
  "longitude": 74.85955, 
  "state": "Jammu and Kashmir", 
  "location": "City Square Mall", 
  "address": "Shop no. FF-2, City Square Mall, Jammu, J&K - 180001.", 
  "latitude": 32.72396
 }, 
 {
  "sublocation": "SSIPL Retail Ltd. Survey No. 3978/3974/2, Sri Ram Market, Shivalik Laboratory, Dalhousie Road", 
  "city": "Pathankot", 
  "pincode": "145001", 
  "longitude": 75.65988, 
  "state": "Punjab", 
  "location": "Pathankot", 
  "address": "SSIPL Retail Ltd. Survey No. 3978/3974/2, Sri Ram Market, Shivalik Laboratory, Dalhousie Road, Pathankot, Punjab-145001", 
  "latitude": 32.273
 }, 
 {
  "sublocation": "J&K Sports, Bahu Plaza, Residency Road", 
  "city": "Jammu", 
  "pincode": "180001", 
  "longitude": 74.87285, 
  "state": "Jammu and Kashmir", 
  "location": "Residency Road", 
  "address": "J&K Sports, Bahu Plaza, Residency Road, Jammu-180001, Jammu&Kashmir", 
  "latitude": 32.70485
 }, 
 {
  "sublocation": "SSIPL Retail Ltd. Shop No. 114,115,116,117,118, GF", 
  "city": "Srinagar", 
  "pincode": "190001", 
  "longitude": 74.80374, 
  "state": "Jammu and Kashmir", 
  "location": "Sara City Mall", 
  "address": "SSIPL Retail Ltd. Shop No. 114,115,116,117,118, GF, Sara City Center, Srinagar-190001 (J & K)", 
  "latitude": 34.07004
 }, 
 {
  "sublocation": "Nike Shop #4,Bay Pride Mall,Shanmugham Road, Marine Drive", 
  "city": "Cochin", 
  "pincode": "682011", 
  "longitude": 76.27681, 
  "state": "Kerala", 
  "location": "Bay Pride Mall", 
  "address": "Nike Shop #4,Bay Pride Mall,Shanmugham Road, Marine Drive, Cochin-682011, Kerala", 
  "latitude": 9.977569
 }, 
 {
  "sublocation": "Shop No:117,1st Floor,Centre Square Mall, Rajaji Jn", 
  "city": "Cochin", 
  "pincode": "682035", 
  "longitude": 76.28343, 
  "state": "Kerala", 
  "location": "Center Square Mall", 
  "address": "Shop No:117,1st Floor,Centre Square Mall, Rajaji Jn, M.G.Road, Cochin-682035", 
  "latitude": 9.978026
 }, 
 {
  "sublocation": "Nike, Smeara Enterprises, T C no . 25/ 2476(1). Near Rajadhani Tower", 
  "city": "Trivandrum", 
  "pincode": "695001", 
  "longitude": 76.94767, 
  "state": "Kerala", 
  "location": "M G Road", 
  "address": "Nike, Smeara Enterprises, T C no . 25/ 2476(1). Near Rajadhani Tower,Pulimoodu,Trivandrum-695001", 
  "latitude": 8.493923
 }, 
 {
  "sublocation": "Fridgehouse Retail Pvt Ltd - Nike- Chandrika Building", 
  "city": "Cochin", 
  "pincode": "682016", 
  "longitude": 76.28522, 
  "state": "Kerala", 
  "location": "M G Road", 
  "address": "Fridgehouse Retail Pvt Ltd - Nike- Chandrika Building,M G Road, Kochi - 682016", 
  "latitude": 9.971355
 }, 
 {
  "sublocation": "Gold Crest Trading Pvt Ltd - Nike - Shop No G-10,Brookefields ", 
  "city": "Coimbatore", 
  "pincode": "641002", 
  "longitude": 76.9591, 
  "state": "Tamil Nadu", 
  "location": "Brookefields", 
  "address": "Gold Crest Trading Pvt Ltd - Nike - Shop No G-10,Brookefields ,Brooke Bond Road ,Coimatore - 641002", 
  "latitude": 11.00932
 }, 
 {
  "sublocation": "Shop No.147 -B , T.V Swamy Road ( West), R.S Puram", 
  "city": "Coimbatore", 
  "pincode": "641002", 
  "longitude": 76.95529, 
  "state": "Tamil Nadu", 
  "location": "DB Road,T.V.Swamy Road", 
  "address": "Shop No.147 -B , T.V Swamy Road ( West), R.S Puram, Coimbatore-641002, Tamil Nadu", 
  "latitude": 11.00954
 }, 
 {
  "sublocation": "Nike UG", 
  "city": "Coimbatore", 
  "pincode": "641004", 
  "longitude": 77.01079, 
  "state": "Tamil Nadu", 
  "location": "Fun-City Mall", 
  "address": "Nike UG,Med-5 Fun Republic Mall, Avinashi Road \u00c3\u00a1Coimbatore -641004", 
  "latitude": 11.02499
 }, 
 {
  "sublocation": "Shop No: S 29/30,\u00c3\u00a1 Door No: 34/977, Lulu International Shopping Mall", 
  "city": "Cochin", 
  "pincode": "682024", 
  "longitude": 76.30858, 
  "state": "Kerala", 
  "location": "Lulu Mall", 
  "address": "Shop No: S 29/30,\u00c3\u00a1 Door No: 34/977, Lulu International Shopping Mall, Edapally, Cochin \u00c3\u00bb 682024.", 
  "latitude": 10.02651
 }, 
 {
  "sublocation": "Shop No.7, Oberon Mall, NH Byepass, Edapally", 
  "city": "Cochin", 
  "pincode": "682011", 
  "longitude": 76.31222, 
  "state": "Kerala", 
  "location": "Oderon Mall", 
  "address": "Shop No.7, Oberon Mall, NH Byepass, Edapally, Cochin-682011, Kerala", 
  "latitude": 10.01444
 }, 
 {
  "sublocation": "SMART VENTURES - Nike - 1st Floor Shop No 2 & 3", 
  "city": "Pondicherry", 
  "pincode": "605001", 
  "longitude": 79.82873, 
  "state": "Puducherry", 
  "location": "Surya Icon", 
  "address": "SMART VENTURES - Nike - 1st Floor Shop No 2 & 3,360 M G Road,Pondicherry-605001", 
  "latitude": 11.93264
 }, 
 {
  "sublocation": "SSIPL Retail Ltd. Unit\u00c3\u00a1 No. G - 19, 20\u00c3\u00a1 Ground Floor, Ascendas Park, Square Mall, ITPB", 
  "city": "Bangalore", 
  "pincode": "560066", 
  "longitude": 77.73688, 
  "state": "Karnataka", 
  "location": "Ascendas Mall", 
  "address": "SSIPL Retail Ltd. Unit\u00c3\u00a1 No. G - 19, 20\u00c3\u00a1 Ground Floor, Ascendas Park, Square Mall, ITPB, Whitefield Road, Bangalore - 560066", 
  "latitude": 12.98722
 }, 
 {
  "sublocation": "", 
  "city": "Bangalore", 
  "pincode": "560076", 
  "longitude": 77.60992, 
  "state": "Karnataka", 
  "location": "BTM Layout", 
  "address": "No 780 16th Main BTM Layout Udipi Garden Road Bangalore 560076", 
  "latitude": 12.91485
 }, 
 {
  "sublocation": "SSIPL Retail Ltd. Orion Mall @ Brigade Gateway 26/1", 
  "city": "Bangalore", 
  "pincode": "560055", 
  "longitude": 77.55478, 
  "state": "Karnataka", 
  "location": "Brigade Orion Mall", 
  "address": "SSIPL Retail Ltd. Orion Mall @ Brigade Gateway 26/1, 80 Feet Road, ( Dr.Rajkumar Road) Malleswaram West (P.O.) Bangalore - 560055", 
  "latitude": 13.01188
 }, 
 {
  "sublocation": "SSIPL Retail Ltd. Unit No. UG-10A UGF, Orion Mall @ Brigade Gateway, 26/1, 80 Feet Road (Dr. Rajkumar Road)", 
  "city": "Bangalore", 
  "pincode": "560055", 
  "longitude": 77.55474, 
  "state": "Karnataka", 
  "location": "Brigade Orion Mall", 
  "address": "SSIPL Retail Ltd. Unit No. UG-10A UGF, Orion Mall @ Brigade Gateway, 26/1, 80 Feet Road (Dr. Rajkumar Road), Malleswaram West (P.O.), Bangalore \u00c3\u00bb 560055", 
  "latitude": 13.01089
 }, 
 {
  "sublocation": "16/2", 
  "city": "Bangalore", 
  "pincode": "560025", 
  "longitude": 77.60738, 
  "state": "Karnataka", 
  "location": "Brigade Road -2", 
  "address": "16/2, Brigade Road, Bangalore-1", 
  "latitude": 12.97397
 }, 
 {
  "sublocation": "Shop No. 141", 
  "city": "Bangalore", 
  "pincode": "560001", 
  "longitude": 77.61, 
  "state": "Karnataka", 
  "location": "Commercial Street -FFD", 
  "address": "Shop No. 141, Commercial Street, Bangalore - 560001", 
  "latitude": 12.98139
 }, 
 {
  "sublocation": "Shop No. \u00c3\u00bb 41", 
  "city": "Bangalore", 
  "pincode": "560001", 
  "longitude": 77.61, 
  "state": "Karnataka", 
  "location": "Commercial Street 2", 
  "address": "Shop No. \u00c3\u00bb 41, Commercial Street, Bangalore-560001", 
  "latitude": 12.98139
 }, 
 {
  "sublocation": "No.22 , First Floor No. 127 & 128, Esteem Mall, Hebbal Village", 
  "city": "Bangalore", 
  "pincode": "560024", 
  "longitude": 77.59331, 
  "state": "Karnataka", 
  "location": "Esteem Mall", 
  "address": "No.22 , First Floor No. 127 & 128, Esteem Mall, Hebbal Village, Kempapura. North Taluk, Bangalore - 560024", 
  "latitude": 13.04917
 }, 
 {
  "sublocation": "17 Ground Floor, The Forum", 
  "city": "Bangalore", 
  "pincode": "560029", 
  "longitude": 77.61163, 
  "state": "Karnataka", 
  "location": "Forum Mall", 
  "address": "17 Ground Floor, The Forum, 21 Hosur Road, Bangalore -560029", 
  "latitude": 12.93501
 }, 
 {
  "sublocation": "\u00c3\u00a1206,Garuda Mall, Magrath road", 
  "city": "Bangalore", 
  "pincode": "560025", 
  "longitude": 77.60991, 
  "state": "Karnataka", 
  "location": "Garuda", 
  "address": "\u00c3\u00a1206,Garuda Mall, Magrath road, Ashok nagar, Bangalore-25", 
  "latitude": 12.9701
 }, 
 {
  "sublocation": "SMART VENTURES - Nike -GS-5,Gopalan Signature Mall,6, Old Madras Road,Nagavara Palya", 
  "city": "Bangalore", 
  "pincode": "560038", 
  "longitude": 77.66096, 
  "state": "Karnataka", 
  "location": "Gopalan Mall", 
  "address": "SMART VENTURES - Nike -GS-5,Gopalan Signature Mall,6, Old Madras Road,Nagavara Palya,C V Raman Nagar,Bangalore-560038", 
  "latitude": 12.99277
 }, 
 {
  "sublocation": "Shop # 2014 , 100 Ft. Road , Hall Ii Stage ", 
  "city": "Bangalore", 
  "pincode": "500008", 
  "longitude": 77.64164, 
  "state": "Karnataka", 
  "location": "Indiranagar", 
  "address": "Shop # 2014 , 100 Ft. Road , Hall Ii Stage ,Indiranagar,Banglore-500008", 
  "latitude": 12.96583
 }, 
 {
  "sublocation": "SSIPL Retail Ltd. Shop No. G2-22, Inorbit Mall, No. 75, EPIP Area, Next to Satya Sai Hospital", 
  "city": "Bangalore", 
  "pincode": "560066", 
  "longitude": 77.7288, 
  "state": "Karnataka", 
  "location": "Inorbit Mall", 
  "address": "SSIPL Retail Ltd. Shop No. G2-22, Inorbit Mall, No. 75, EPIP Area, Next to Satya Sai Hospital, White Field, Bangalore-560066", 
  "latitude": 12.97949
 }, 
 {
  "sublocation": "4-3/2,GF,Shubhasri Mahendra Towers,11th Main Road ,3rd Block", 
  "city": "Bangalore", 
  "pincode": "560029", 
  "longitude": 77.58624, 
  "state": "Karnataka", 
  "location": "Jayanagar", 
  "address": "4-3/2,GF,Shubhasri Mahendra Towers,11th Main Road ,3rd Block,Jaya Nagar,Bangalore-560029", 
  "latitude": 12.93214
 }, 
 {
  "sublocation": "SSIPL Retail Ltd. Unit No. 4M - 415 Ground Floor, HRBR LAout", 
  "city": "Bangalore", 
  "pincode": "560043", 
  "longitude": 77.63701, 
  "state": "Karnataka", 
  "location": "Kamnahalli", 
  "address": "SSIPL Retail Ltd. Unit No. 4M - 415 Ground Floor, HRBR LAout, 3rd Block Kacharakanahalli (Kammanahalli) Main Road, Banglore- 560043.", 
  "latitude": 13.02463
 }, 
 {
  "sublocation": "49/1, Khaneja Bhawan", 
  "city": "Bangalore", 
  "pincode": "560001", 
  "longitude": 77.58556, 
  "state": "Karnataka", 
  "location": "Khaneja Bhavan", 
  "address": "49/1, Khaneja Bhawan, Race Course Road, Bangalore -560001", 
  "latitude": 12.98311
 }, 
 {
  "sublocation": "SSIPL Retail Ltd. Shop No-744, SSS Complex, 80 Feet Road", 
  "city": "Bangalore", 
  "pincode": "560095", 
  "longitude": 77.63021, 
  "state": "Karnataka", 
  "location": "Kormangala", 
  "address": "SSIPL Retail Ltd. Shop No-744, SSS Complex, 80 Feet Road, 4th Block, Kormangala", 
  "latitude": 12.93368
 }, 
 {
  "sublocation": "SSIPL Retail Ltd. 1 \"MG Road\" 1/2", 
  "city": "Bangalore", 
  "pincode": "560008", 
  "longitude": 77.62036, 
  "state": "Karnataka", 
  "location": "MG -1 Mall-MG Road", 
  "address": "SSIPL Retail Ltd. 1 \"MG Road\" 1/2, Swami Vivekananda Road, Bangalore - 560008", 
  "latitude": 12.97331
 }, 
 {
  "sublocation": "SSIPL Retail Ltd. Unit No. GF 17, Mall of Mysore, C-1 Indiranagar Extension", 
  "city": "Mysore", 
  "pincode": "570020", 
  "longitude": 76.66471, 
  "state": "Karnataka", 
  "location": "Mall of Mysore", 
  "address": "SSIPL Retail Ltd. Unit No. GF 17, Mall of Mysore, C-1 Indiranagar Extension, Nazarabad Mohalla, Mysore-570020", 
  "latitude": 12.29781
 }, 
 {
  "sublocation": "Shop no F18,First Floor,Mantri Mall,Sampige Road", 
  "city": "Bangalore", 
  "pincode": "560021", 
  "longitude": 77.5708, 
  "state": "Karnataka", 
  "location": "Mantri Mall", 
  "address": "Shop no F18,First Floor,Mantri Mall,Sampige Road,Malleshwaram,Bangalore-3", 
  "latitude": 12.99171
 }, 
 {
  "sublocation": "SSIPL Retail Ltd. Unit No. SF-22, Second Floor, Mantri Mall, Ward No. 26", 
  "city": "Bangalore", 
  "pincode": "560003", 
  "longitude": 77.5708, 
  "state": "Karnataka", 
  "location": "Mantri Mall -FFD", 
  "address": "SSIPL Retail Ltd. Unit No. SF-22, Second Floor, Mantri Mall, Ward No. 26, Malleswaram, Bangalore - 560003", 
  "latitude": 12.99171
 }, 
 {
  "sublocation": "F-60,Phoenix Market City ,No.9,Devasandra Phase-2 Industrial Area", 
  "city": "Bangalore", 
  "pincode": "560048", 
  "longitude": 77.69596, 
  "state": "Karnataka", 
  "location": "Market City", 
  "address": "F-60,Phoenix Market City ,No.9,Devasandra Phase-2 Industrial Area,Mahadevapura Main Road,Bangalore-560048", 
  "latitude": 12.99791
 }, 
 {
  "sublocation": "# 132/A", 
  "city": "Mysore", 
  "pincode": "570001", 
  "longitude": 76.64506, 
  "state": "Karnataka", 
  "location": "Mysore", 
  "address": "# 132/A,D Devaraja Urs Road.deveraj mohalla,Mysore-570001", 
  "latitude": 12.3094
 }, 
 {
  "sublocation": "Hyperetail,No-192-Groung Floor,New Bel Road ", 
  "city": "Bangalore", 
  "pincode": "500094", 
  "longitude": 77.57102, 
  "state": "Karnataka", 
  "location": "New Bel Road", 
  "address": "Hyperetail,No-192-Groung Floor,New Bel Road , RMV 2nd Stage ,Bangalore-500094", 
  "latitude": 13.02912
 }, 
 {
  "sublocation": "Site no.4", 
  "city": "Bangalore", 
  "pincode": "560032", 
  "longitude": 77.59218, 
  "state": "Karnataka", 
  "location": "R T Nagar", 
  "address": "Site no.4, HMT Layout , R T Nagar\u00c3\u00a1 Main Road Bangalore 560032", 
  "latitude": 13.01908
 }, 
 {
  "sublocation": "Tallam Ventures - Nike -Shop No G-006,Royal Meenakshi Mall", 
  "city": "Bangalore", 
  "pincode": "560076", 
  "longitude": 77.59542, 
  "state": "Karnataka", 
  "location": "Royal Meenakashi Mall", 
  "address": "Tallam Ventures - Nike -Shop No G-006,Royal Meenakshi Mall,Opp Meenakshi Temple,Bennerghatta Road - Bangalore -560076", 
  "latitude": 12.87585
 }, 
 {
  "sublocation": "No.17/1741, 17th cross", 
  "city": "Bangalore", 
  "pincode": "560040", 
  "longitude": 77.53695, 
  "state": "Karnataka", 
  "location": "Vijay Nagar", 
  "address": "No.17/1741, 17th cross, MRC Layout, Vijayanagar", 
  "latitude": 12.97074
 }, 
 {
  "sublocation": "# 6-3-344/A/4-5-6, Ground Floor, Cupid Curve", 
  "city": "Hyderabad", 
  "pincode": "500034", 
  "longitude": 78.44976, 
  "state": "Andhra Pradesh", 
  "location": "Banjara Hills", 
  "address": "# 6-3-344/A/4-5-6, Ground Floor, Cupid Curve, Road 1, Banjara Hills Hyderabad - 500034", 
  "latitude": 17.4223
 }, 
 {
  "sublocation": "H No 1-10-72/A/2, Pochampally House, S D Road", 
  "city": "Hyderabad", 
  "pincode": "500016", 
  "longitude": 78.46405, 
  "state": "Andhra Pradesh", 
  "location": "Begumpeth", 
  "address": "H No 1-10-72/A/2, Pochampally House, S D Road, Begumpeth, Hyderabad - 500016", 
  "latitude": 17.44482
 }, 
 {
  "sublocation": "SSIPL Retail Ltd. 7-81/1, Zaheer Nagar Colony, Main Road, Habsiguda", 
  "city": "Hyderabad", 
  "pincode": "500007", 
  "longitude": 78.54305, 
  "state": "Andhra Pradesh", 
  "location": "Habsiguda", 
  "address": "SSIPL Retail Ltd. 7-81/1, Zaheer Nagar Colony, Main Road, Habsiguda, Hyderabad, Andhra Pradesh\u00c3\u00bb500007", 
  "latitude": 17.41784
 }, 
 {
  "sublocation": "Fairview Plaza,Shop No.3-6-386", 
  "city": "Hyderabad", 
  "pincode": "500029", 
  "longitude": 78.48083, 
  "state": "Andhra Pradesh", 
  "location": "Himayat Nagar", 
  "address": "Fairview Plaza,Shop No.3-6-386,Himayat Nagar,Hyderbad-500029", 
  "latitude": 17.40496
 }, 
 {
  "sublocation": "8-2-293/82/A/714&714/1, Ward-8, Road No. 36", 
  "city": "Hyderabad", 
  "pincode": "500033", 
  "longitude": 78.40159, 
  "state": "Andhra Pradesh", 
  "location": "Jubilee Hills", 
  "address": "8-2-293/82/A/714&714/1, Ward-8, Road No. 36, Jubilee Hills,Hyderabad -500033", 
  "latitude": 17.43584
 }, 
 {
  "sublocation": "Plot No - 798 , Hansa Plaza , Road Number 36 ", 
  "city": "Hyderabad", 
  "pincode": "560033", 
  "longitude": 78.40422, 
  "state": "Andhra Pradesh", 
  "location": "Jubilee Hills", 
  "address": "Plot No - 798 , Hansa Plaza , Road Number 36 , Jubilee Hills , Hyderabad - 560033", 
  "latitude": 17.43397
 }, 
 {
  "sublocation": "Plot No. 30 at Old Vasavi Nagar", 
  "city": "Hyderabad", 
  "pincode": "500015", 
  "longitude": 78.50093, 
  "state": "Andhra Pradesh", 
  "location": "Karkhana", 
  "address": "Plot No. 30 at Old Vasavi Nagar, Karkhana Main Road, Secunderabad -500015", 
  "latitude": 17.46204
 }, 
 {
  "sublocation": "Shop No-1,2,3,4,5,Sanali Arcade,8-2-270/1,8-2-271/2&82-2-272,Road No-2", 
  "city": "Hyderabad", 
  "pincode": "500034", 
  "longitude": 78.43661, 
  "state": "Andhra Pradesh", 
  "location": "Sanali Arcade", 
  "address": "Shop No-1,2,3,4,5,Sanali Arcade,8-2-270/1,8-2-271/2&82-2-272,Road No-2,Banjarahills,Hyd-500 034", 
  "latitude": 17.42572
 }, 
 {
  "sublocation": "SSIPL Retail Ltd,F-114,\u00c3\u00a1 Empress Mall , Ireward Real Estate", 
  "city": "Nagpur", 
  "pincode": "440018", 
  "longitude": 79.0928, 
  "state": "Maharashtra", 
  "location": "Empress Mall", 
  "address": "SSIPL Retail Ltd,F-114,\u00c3\u00a1 Empress Mall , Ireward Real Estate, Empress City Nr Gandhi Sagar Lake, Nagpur- 440018", 
  "latitude": 21.14837
 }, 
 {
  "sublocation": "SSIPL Retail Ltd. Unit No. F3-I, 1st Floor, Eternity Mall, Variety Square", 
  "city": "Nagpur", 
  "pincode": "440012", 
  "longitude": 79.08051, 
  "state": "Maharashtra", 
  "location": "Eternity Mall", 
  "address": "SSIPL Retail Ltd. Unit No. F3-I, 1st Floor, Eternity Mall, Variety Square, Wardha Road, Nagpur-440012", 
  "latitude": 21.1426
 }, 
 {
  "sublocation": "Shop No. 7 & 8, Poonam Arcade, Residency Road", 
  "city": "Nagpur", 
  "pincode": "440001", 
  "longitude": 79.08, 
  "state": "Maharashtra", 
  "location": "Nagpur", 
  "address": "Shop No. 7 & 8, Poonam Arcade, Residency Road, Sadar, Nagpur - 440001", 
  "latitude": 21.15988
 }, 
 {
  "sublocation": "SSIPL Retail Ltd. Shop No.48, GF, C-21 Mall, Misroad", 
  "city": "Bhopal", 
  "pincode": "462026", 
  "longitude": 77.46876, 
  "state": "Madhya Pradesh", 
  "location": "C-21 Mall", 
  "address": "SSIPL Retail Ltd. Shop No.48, GF, C-21 Mall, Misroad, Hoashangabad Road, Bhopal-462026 M.P", 
  "latitude": 23.1642
 }, 
 {
  "sublocation": "F-29,Opp MP Nagar On Khasra 1511 & 1509 ", 
  "city": "Bhopal", 
  "pincode": "462011", 
  "longitude": 77.43058, 
  "state": "Madhya Pradesh", 
  "location": "D B Mall", 
  "address": "F-29,Opp MP Nagar On Khasra 1511 & 1509 ,Arera Hills,Bhopal - 462011.", 
  "latitude": 23.23303
 }, 
 {
  "sublocation": "MY STORE - NIKE Jabalpur Entertainment Complexes Pvt ltd,South Avenue Mall, Adjoining Perfect Pottery", 
  "city": "Jabalpur", 
  "pincode": "482008", 
  "longitude": 79.9275, 
  "state": "Madhya Pradesh", 
  "location": "South Avenue Mall", 
  "address": "MY STORE - NIKE Jabalpur Entertainment Complexes Pvt ltd,South Avenue Mall, Adjoining Perfect Pottery, Narmada Road, Jabalpur 482008 M.P India", 
  "latitude": 23.12417
 }, 
 {
  "sublocation": "Shop No G-33/34, Ground Floor", 
  "city": "Gwalior", 
  "pincode": "474009", 
  "longitude": 78.16643, 
  "state": "Madhya Pradesh", 
  "location": "Gwalior", 
  "address": "Shop No G-33/34, Ground Floor, Dindayal Mall, Gwalior - 474009", 
  "latitude": 26.20959
 }, 
 {
  "sublocation": "SSIPL Retail Ltd. G-1, Ground Floor, Plot No.2/208/16, Jawahar Mansion, Awagarh House", 
  "city": "Agra", 
  "pincode": "282005", 
  "longitude": 78.00368, 
  "state": "Uttar Pradesh", 
  "location": "M G Road", 
  "address": "SSIPL Retail Ltd. G-1, Ground Floor, Plot No.2/208/16, Jawahar Mansion, Awagarh House, M.G. Road, Agra-282005", 
  "latitude": 27.20583
 }, 
 {
  "sublocation": "Shop no. S-211, Second floor,\u00c3\u00a1 Ambience Mall", 
  "city": "Delhi (NCR)", 
  "pincode": "110070", 
  "longitude": 77.1555, 
  "state": "Delhi", 
  "location": "Ambi Mall", 
  "address": "Shop no. S-211, Second floor,\u00c3\u00a1 Ambience Mall, Vasant Kunj, New Delhi - 110070", 
  "latitude": 28.54138
 }, 
 {
  "sublocation": "My Store Pvt Ltd , F-139-140,Ambeince Mall", 
  "city": "Delhi (NCR)", 
  "pincode": "122010", 
  "longitude": 77.09709, 
  "state": "Haryana", 
  "location": "Ambience Mall", 
  "address": "My Store Pvt Ltd , F-139-140,Ambeince Mall,NH-8,Gurgaon", 
  "latitude": 28.50399
 }, 
 {
  "sublocation": "10 A, Deep Enclave Pocket-D, Ashok Vihar", 
  "city": "Delhi (NCR)", 
  "pincode": "110052", 
  "longitude": 77.17672, 
  "state": "Delhi", 
  "location": "Ashok Vihar", 
  "address": "10 A, Deep Enclave Pocket-D, Ashok Vihar, Phase III, New Delhi - 110052", 
  "latitude": 28.69086
 }, 
 {
  "sublocation": "BMG Mall,Circular road , Shop no- GF 6", 
  "city": "Rewari", 
  "pincode": "123401", 
  "longitude": 76.62078, 
  "state": "Haryana", 
  "location": "BMG Mall", 
  "address": "BMG Mall,Circular road , Shop no- GF 6, ground floor,Haryana", 
  "latitude": 28.19469
 }, 
 {
  "sublocation": "SSIPL Retail Ltd. Shop No. 26, B Block", 
  "city": "Delhi (NCR)", 
  "pincode": "110001", 
  "longitude": 77.2189, 
  "state": "Delhi", 
  "location": "CP - B Block", 
  "address": "SSIPL Retail Ltd. Shop No. 26, B Block,\u00c3\u00a1 Connaught Place, New Delhi \u00c3\u00bb 110001", 
  "latitude": 28.63417
 }, 
 {
  "sublocation": "Shop # F-21 Inner Circle", 
  "city": "Delhi (NCR)", 
  "pincode": "110001", 
  "longitude": 77.22012, 
  "state": "Delhi", 
  "location": "CP - F Block", 
  "address": "Shop # F-21 Inner Circle,Connaught Place,New Delhi-110001", 
  "latitude": 28.63084
 }, 
 {
  "sublocation": "SSIPL Retail Ltd. Shop no. 5, Ground Floor, 15 G.T. Road", 
  "city": "Delhi (NCR)", 
  "pincode": "201001", 
  "longitude": 77.43389, 
  "state": "Uttar Pradesh", 
  "location": "Choudhary More", 
  "address": "SSIPL Retail Ltd. Shop no. 5, Ground Floor, 15 G.T. Road, Choudhary More, Ghaziabad - 201001", 
  "latitude": 28.65621
 }, 
 {
  "sublocation": "SSIPL Retail Ltd - GA -12,Ground Floor,Crown Plaza Mall", 
  "city": "Delhi (NCR)", 
  "pincode": "121001", 
  "longitude": 77.31277, 
  "state": "Haryana", 
  "location": "Crown Plaza - Faridabad", 
  "address": "SSIPL Retail Ltd - GA -12,Ground Floor,Crown Plaza Mall,Sector -15-A,Faridabad -121001", 
  "latitude": 28.39767
 }, 
 {
  "sublocation": "Shop No. UGF-27 ", 
  "city": "Delhi (NCR)", 
  "pincode": "122002", 
  "longitude": 77.08049, 
  "state": "Haryana", 
  "location": "D T Mall", 
  "address": "Shop No. UGF-27 , DT City Centre Mall MG Road Gurgaon, Haryana -122002", 
  "latitude": 28.47896
 }, 
 {
  "sublocation": "Shop No 119", 
  "city": "Delhi (NCR)", 
  "pincode": "110017", 
  "longitude": 77.21667, 
  "state": "Delhi", 
  "location": "DLF Courtyard", 
  "address": "Shop No 119, District Place Saket Place, New Delhi 110017", 
  "latitude": 28.52824
 }, 
 {
  "sublocation": "Shop No. 212, Upper Ground Floor, Plot No. 3", 
  "city": "Delhi (NCR)", 
  "pincode": "110070", 
  "longitude": 77.1564, 
  "state": "Delhi", 
  "location": "DLF Promenade", 
  "address": "Shop No. 212, Upper Ground Floor, Plot No. 3, Vasant Kunj Phase 2, New Delhi - 110070.", 
  "latitude": 28.54228
 }, 
 {
  "sublocation": "Shop no.G-2, Ground Floor, Vikas Surya Galaxy,Plot No. 9, Central Market, Sector-4", 
  "city": "Delhi (NCR)", 
  "pincode": "110075", 
  "longitude": 77.04902, 
  "state": "Delhi", 
  "location": "Dwarka", 
  "address": "Shop no.G-2, Ground Floor, Vikas Surya Galaxy,Plot No. 9, Central Market, Sector-4, Dwarka, New Delhi- 110075.", 
  "latitude": 28.59775
 }, 
 {
  "sublocation": "G-11, Crown Interiors Mall", 
  "city": "Delhi (NCR)", 
  "pincode": "121003", 
  "longitude": 77.30677, 
  "state": "Haryana", 
  "location": "Faridabad", 
  "address": "G-11, Crown Interiors Mall, NH-2 Mathura Road Faridabad, Haryana - 121003", 
  "latitude": 28.47016
 }, 
 {
  "sublocation": "SSIPL Retail Ltd.\u00c3\u00a1 Unit No. 72 Ground Floor, Great India Place, Plot No. 2, Sector-38A, Distt. Gautam Budh Nagar", 
  "city": "Delhi (NCR)", 
  "pincode": "201301", 
  "longitude": 77.32557, 
  "state": "Uttar Pradesh", 
  "location": "GIP Mall - FFD", 
  "address": "SSIPL Retail Ltd.\u00c3\u00a1 Unit No. 72 Ground Floor, Great India Place, Plot No. 2, Sector-38A, Distt. Gautam Budh Nagar, Noida, U.P - 201301", 
  "latitude": 28.56807
 }, 
 {
  "sublocation": "SSIPL Retail Ltd. M-15, GK-I, GF", 
  "city": "Delhi (NCR)", 
  "pincode": "110048", 
  "longitude": 77.2352, 
  "state": "Delhi", 
  "location": "GK-M-Block", 
  "address": "SSIPL Retail Ltd. M-15, GK-I, GF, M-Block Market, New Delhi-110048", 
  "latitude": 28.55005
 }, 
 {
  "sublocation": "G-5, II nd - C, First Floor, Janak Place, Janak Puri", 
  "city": "Delhi (NCR)", 
  "pincode": "110058", 
  "longitude": 77.08046, 
  "state": "Delhi", 
  "location": "Janak Puri", 
  "address": "G-5, II nd - C, First Floor, Janak Place, Janak Puri, District Center, New Delhi - 110058", 
  "latitude": 28.63039
 }, 
 {
  "sublocation": "41 UA", 
  "city": "Delhi (NCR)", 
  "pincode": "110007", 
  "longitude": 77.2079, 
  "state": "Delhi", 
  "location": "Kamla Nagar", 
  "address": "41 UA,Jawahar Nagar,Kamla Nagar - 110007", 
  "latitude": 28.68071
 }, 
 {
  "sublocation": "SSIPL Retail Ltd. Plot No.16, Upper Ground Floor, Civil Lines, Kanth Road", 
  "city": "Moradabad", 
  "pincode": "244001", 
  "longitude": 78.7661, 
  "state": "Uttar Pradesh", 
  "location": "Kanth Road", 
  "address": "SSIPL Retail Ltd. Plot No.16, Upper Ground Floor, Civil Lines, Kanth Road, Moradabad, UP - 244001", 
  "latitude": 28.85046
 }, 
 {
  "sublocation": "SCO 410 , Mugal Canal ", 
  "city": "Karnal", 
  "pincode": "132001", 
  "longitude": 76.99508, 
  "state": "Haryana", 
  "location": "Karnal", 
  "address": "SCO 410 , Mugal Canal , Karnal , Haryana - 132001", 
  "latitude": 29.68878
 }, 
 {
  "sublocation": "SSIPL Retail Ltd. Shop No. G-38, 39 & 40, Kessel\u00c3\u00a1 Mall, Sector-17, City Centre", 
  "city": "Kurukshetra", 
  "pincode": "136118", 
  "longitude": 76.83645, 
  "state": "Haryana", 
  "location": "Kessel Mall", 
  "address": "SSIPL Retail Ltd. Shop No. G-38, 39 & 40, Kessel\u00c3\u00a1 Mall, Sector-17, City Centre, Kurukshetra, Haryana-136118", 
  "latitude": 29.97058
 }, 
 {
  "sublocation": "Shop No. 19B, Ground Floor", 
  "city": "Delhi (NCR)", 
  "pincode": "110003", 
  "longitude": 77.22699, 
  "state": "Delhi", 
  "location": "Khan Market", 
  "address": "Shop No. 19B, Ground Floor, Khan Market, New Delhi - 110003", 
  "latitude": 28.59986
 }, 
 {
  "sublocation": "SSIPL Retail Ltd. Shop No. 41-B, Ground Floor", 
  "city": "Delhi (NCR)", 
  "pincode": "110003", 
  "longitude": 77.22735, 
  "state": "Delhi", 
  "location": "Khan Market FFD", 
  "address": "SSIPL Retail Ltd. Shop No. 41-B, Ground Floor, Khan Market, New Delhi-110003", 
  "latitude": 28.6009
 }, 
 {
  "sublocation": "SCO 55-56, Sector - 17", 
  "city": "Kurukshetra", 
  "pincode": "136118", 
  "longitude": 76.8369, 
  "state": "Haryana", 
  "location": "Kurukshetra", 
  "address": "SCO 55-56, Sector - 17,Kurukshetra,Haryana-136118", 
  "latitude": 29.97032
 }, 
 {
  "sublocation": "My Store Pvt Ltd , C-10", 
  "city": "Delhi (NCR)", 
  "pincode": "110024", 
  "longitude": 77.2396, 
  "state": "Delhi", 
  "location": "Lajpat Nagar", 
  "address": "My Store Pvt Ltd , C-10, Lajpat nagar-||,NewDelhi-110024", 
  "latitude": 28.57092
 }, 
 {
  "sublocation": "City Square Mall, Grond Floor, Shop # 12a, District Centre, Shivaji Place", 
  "city": "Delhi (NCR)", 
  "pincode": "110015", 
  "longitude": 77.12328, 
  "state": "Delhi", 
  "location": "MGF CitySquare", 
  "address": "City Square Mall, Grond Floor, Shop # 12a, District Centre, Shivaji Place, Rajouri Garden, New Delhi-110015", 
  "latitude": 28.65014
 }, 
 {
  "sublocation": "69-70, MGF Metropolitan Shopping Mall, DLF Phase 2", 
  "city": "Delhi (NCR)", 
  "pincode": "122001", 
  "longitude": 77.08025, 
  "state": "Haryana", 
  "location": "MGF Metropolitan", 
  "address": "69-70, MGF Metropolitan Shopping Mall, DLF Phase 2, Mehrauli Gurgaon Road, Gurgaon - 122001", 
  "latitude": 28.48087
 }, 
 {
  "sublocation": "SSIPL Retail Ltd. Unit No.118, Plot No. VC-3, Sector-3", 
  "city": "Delhi (NCR)", 
  "pincode": "201010", 
  "longitude": 77.33499, 
  "state": "Uttar Pradesh", 
  "location": "Mahagun Mall", 
  "address": "SSIPL Retail Ltd. Unit No.118, Plot No. VC-3, Sector-3, Vaishali, Ghaziabad - 201010", 
  "latitude": 28.64494
 }, 
 {
  "sublocation": "Shop No. 178 A, Bombay Bazaar", 
  "city": "Meerut", 
  "pincode": "250001", 
  "longitude": 77.69848, 
  "state": "Uttar Pradesh", 
  "location": "Meerut", 
  "address": "Shop No. 178 A, Bombay Bazaar, Meerut Cant, Meerut 250001", 
  "latitude": 28.99771
 }, 
 {
  "sublocation": "SSIPL Retail Ltd. Shop No. MS032/UGF032", 
  "city": "Delhi (NCR)", 
  "pincode": "122002", 
  "longitude": 77.09325, 
  "state": "Haryana", 
  "location": "Mega Mall - Gurgaon", 
  "address": "SSIPL Retail Ltd. Shop No. MS032/UGF032, DLF Mega Mall, Gurgaon - 122002", 
  "latitude": 28.47585
 }, 
 {
  "sublocation": "SSIPL Retail Ltd. Shop No. GA - 27, Ground Floor", 
  "city": "Delhi (NCR)", 
  "pincode": "110085", 
  "longitude": 77.1125, 
  "state": "Delhi", 
  "location": "Metro Walk Mall", 
  "address": "SSIPL Retail Ltd. Shop No. GA - 27, Ground Floor, Metro Walk, Rohini - 110085", 
  "latitude": 28.72417
 }, 
 {
  "sublocation": "Shop No- G-29, GF, Mittel Mega Mall ,Plot No- SM- 3 & 4, Sector 25 (II)", 
  "city": "Panipat", 
  "pincode": "132104", 
  "longitude": 76.98385, 
  "state": "Haryana", 
  "location": "Mittal Mall", 
  "address": "Shop No- G-29, GF, Mittel Mega Mall ,Plot No- SM- 3 & 4, Sector 25 (II), Panipat , Haryana", 
  "latitude": 29.3764
 }, 
 {
  "sublocation": "SSIPL Retail Ltd. Shop No-105, First Floor, \u00c3\u00b4MOMENTS MALL\u00c3\u00b6, 67 Patel Road", 
  "city": "Delhi (NCR)", 
  "pincode": "110015", 
  "longitude": 77.14667, 
  "state": "Delhi", 
  "location": "Moments Mall", 
  "address": "SSIPL Retail Ltd. Shop No-105, First Floor, \u00c3\u00b4MOMENTS MALL\u00c3\u00b6, 67 Patel Road, Kirti Nagar, New Delhi-110015", 
  "latitude": 28.65722
 }, 
 {
  "sublocation": "SSIPL Retail Ltd. Sno. 2000 @ Qutram Lines", 
  "city": "Delhi (NCR)", 
  "pincode": "110009", 
  "longitude": 77.20839, 
  "state": "Delhi", 
  "location": "Mukherjee Nagar", 
  "address": "SSIPL Retail Ltd. Sno. 2000 @ Qutram Lines, Kingsway Camp, New Delhi\u00c3\u00bb110009", 
  "latitude": 28.70032
 }, 
 {
  "sublocation": "SSIPL Retail Ltd. GF & FF, @ Nagarpalika No. 2-409, Nainital Road, Haldwani", 
  "city": "Haldwani", 
  "pincode": "263139", 
  "longitude": 79.52969, 
  "state": "Uttarakhand", 
  "location": "Nainital Road", 
  "address": "SSIPL Retail Ltd. GF & FF, @ Nagarpalika No. 2-409, Nainital Road, Haldwani, Distt-Nainital, Uttrakhand-263139", 
  "latitude": 29.21936
 }, 
 {
  "sublocation": "", 
  "city": "Rothak", 
  "pincode": "124001", 
  "longitude": 76.60849, 
  "state": "Haryana", 
  "location": "Nike Store - Rothak", 
  "address": "SSIPL Retail Ltd. Sain House Delhi Road Model Town Opposite Jeevan Eye Hospital, Rohtak-124001", 
  "latitude": 28.88805
 }, 
 {
  "sublocation": "C-17", 
  "city": "Delhi (NCR)", 
  "pincode": "201301", 
  "longitude": 77.32461, 
  "state": "Uttar Pradesh", 
  "location": "Noida Sector-18", 
  "address": "C-17, Sector 18, NOIDA - 201301", 
  "latitude": 28.57062
 }, 
 {
  "sublocation": "Shop No.FF-034,Pacific Khalaya,Community Centre", 
  "city": "Delhi (NCR)", 
  "pincode": "110018", 
  "longitude": 77.1068, 
  "state": "Delhi", 
  "location": "Pacific Mall", 
  "address": "Shop No.FF-034,Pacific Khalaya,Community Centre,Najafgarh Road,Khalaya- Delhi -110018", 
  "latitude": 28.6423
 }, 
 {
  "sublocation": "Shop No. F 63, First Floor, Pacific Mall", 
  "city": "Delhi (NCR)", 
  "pincode": "201301", 
  "longitude": 77.31995, 
  "state": "Uttar Pradesh", 
  "location": "Pacific Mall", 
  "address": "Shop No. F 63, First Floor, Pacific Mall, Kaushambi, Ghaziabad - 201301", 
  "latitude": 28.64604
 }, 
 {
  "sublocation": "SSIPL Retail Ltd., G-14, Ground Floor, Phoenix United, Mahanagar Colony", 
  "city": "Bareilly", 
  "pincode": "243002", 
  "longitude": 79.45679, 
  "state": "Uttar Pradesh", 
  "location": "Phoenix Mall", 
  "address": "SSIPL Retail Ltd., G-14, Ground Floor, Phoenix United, Mahanagar Colony, Pilibhit Bypass Road, Bareilly - 243002", 
  "latitude": 28.39454
 }, 
 {
  "sublocation": "25 Defence Enclave", 
  "city": "Delhi (NCR)", 
  "pincode": "110092", 
  "longitude": 77.29406, 
  "state": "Delhi", 
  "location": "Preet Vihar", 
  "address": "25 Defence Enclave, Opposite Preet Vihar Petrol Pump, New Delhi - 110092", 
  "latitude": 28.64088
 }, 
 {
  "sublocation": "Shop No. 9", 
  "city": "Delhi (NCR)", 
  "pincode": "110026", 
  "longitude": 77.12889, 
  "state": "Delhi", 
  "location": "Punjabi Baug - Delhi", 
  "address": "Shop No. 9, NWA Club Road Punjabi Bagh Extension, New Delhi-110026", 
  "latitude": 28.66548
 }, 
 {
  "sublocation": "F-124", 
  "city": "Delhi (NCR)", 
  "pincode": "110017", 
  "longitude": 77.12199, 
  "state": "Delhi", 
  "location": "Rajouri Garden", 
  "address": "F-124, Main Market Rajouri Garden, New Delhi-110017\u00c3\u00a1", 
  "latitude": 28.64414
 }, 
 {
  "sublocation": "SSIPL Retail Ltd. Khasra No.765, Ground Floor, New Haridwar Colony, Village-Ahamdpur Karchh", 
  "city": "Haridwar", 
  "pincode": "249407", 
  "longitude": 78.13598, 
  "state": "Uttarakhand", 
  "location": "Ranipur Road", 
  "address": "SSIPL Retail Ltd. Khasra No.765, Ground Floor, New Haridwar Colony, Village-Ahamdpur Karchh, Haridwar, Uttaranchal-249407", 
  "latitude": 29.93185
 }, 
 {
  "sublocation": "D-12, 195, Ground Floor, Sector 8", 
  "city": "Delhi (NCR)", 
  "pincode": "110085", 
  "longitude": 77.12465, 
  "state": "Delhi", 
  "location": "Rohini", 
  "address": "D-12, 195, Ground Floor, Sector 8, Rohini, New Delhi - 110085", 
  "latitude": 28.70818
 }, 
 {
  "sublocation": "SSIPL Retail Ltd. Shop No 86", 
  "city": "Delhi (NCR)", 
  "pincode": "110023", 
  "longitude": 77.19607, 
  "state": "Delhi", 
  "location": "Sarojini Nagar", 
  "address": "SSIPL Retail Ltd. Shop No 86, Sarojini Nagar Market, New Delhi-110023", 
  "latitude": 28.57623
 }, 
 {
  "sublocation": "Shop NoG-60", 
  "city": "Delhi (NCR)", 
  "pincode": "201301", 
  "longitude": 77.32424, 
  "state": "Uttar Pradesh", 
  "location": "Sector -18", 
  "address": "Shop NoG-60,Sector-18,Noida", 
  "latitude": 28.56907
 }, 
 {
  "sublocation": "Shop No. F-30, Select Citywalk, Plot No. A-3 & P-18 at District. Centre", 
  "city": "Delhi (NCR)", 
  "pincode": "110017", 
  "longitude": 77.21949, 
  "state": "Delhi", 
  "location": "Select CityWalk Mall", 
  "address": "Shop No. F-30, Select Citywalk, Plot No. A-3 & P-18 at District. Centre, Saket, New Delhi - 110017", 
  "latitude": 28.52925
 }, 
 {
  "sublocation": "Shop No. 4/64, Old Rajinder Nagar", 
  "city": "Delhi (NCR)", 
  "pincode": "110060", 
  "longitude": 77.18137, 
  "state": "Delhi", 
  "location": "Shankar Road", 
  "address": "Shop No. 4/64, Old Rajinder Nagar, Shankar Road, New Delhi - 110060.", 
  "latitude": 28.63793
 }, 
 {
  "sublocation": "Shop No 60 - 64, Upper Ground Floor, Indrapuram", 
  "city": "Delhi (NCR)", 
  "pincode": "201301", 
  "longitude": 77.3694, 
  "state": "Uttar Pradesh", 
  "location": "Shipra Mall", 
  "address": "Shop No 60 - 64, Upper Ground Floor, Indrapuram, Shipra Mall, Ghaziabad - 201301", 
  "latitude": 28.63415
 }, 
 {
  "sublocation": "", 
  "city": "Delhi (NCR)", 
  "pincode": "110019", 
  "longitude": 77.2202, 
  "state": "Delhi", 
  "location": "South Extension", 
  "address": "G-11 South Extension Part 1,New Delhi - 110019", 
  "latitude": 28.56954
 }, 
 {
  "sublocation": "SSIPL Retail Ltd.Ground Floor, E-21", 
  "city": "Delhi (NCR)", 
  "pincode": "110049", 
  "longitude": 77.21981, 
  "state": "Delhi", 
  "location": "South Extension 2", 
  "address": "SSIPL Retail Ltd.Ground Floor, E-21, South Extension Part- II,New Delhi - 110049", 
  "latitude": 28.56788
 }, 
 {
  "sublocation": "Shop 205, Spice World Mall, 1st floor, Plot #1/2Sector 25 A", 
  "city": "Delhi (NCR)", 
  "pincode": "201301", 
  "longitude": 77.34102, 
  "state": "Uttar Pradesh", 
  "location": "Spice World Mall", 
  "address": "Shop 205, Spice World Mall, 1st floor, Plot #1/2Sector 25 A, Noida- 201301, Uttar Pradesh", 
  "latitude": 28.58666
 }, 
 {
  "sublocation": "Unit No 130, First Floor, A 2, Sector 38A", 
  "city": "Delhi (NCR)", 
  "pincode": "201301", 
  "longitude": 77.32557, 
  "state": "Uttar Pradesh", 
  "location": "Unitech Mall", 
  "address": "Unit No 130, First Floor, A 2, Sector 38A, Unitech Mall, NOIDA - 201301", 
  "latitude": 28.56807
 }, 
 {
  "sublocation": "M/s Rudra Apparels ,Matke Wali Gali", 
  "city": "Rudhrapur", 
  "pincode": "263153", 
  "longitude": 79.40475, 
  "state": "Uttarakhand", 
  "location": "Uttarakhand", 
  "address": "M/s Rudra Apparels ,Matke Wali Gali,Opp. Addias Showroom,Rudrapur- 263153", 
  "latitude": 28.98831
 }, 
 {
  "sublocation": "SSIPL Retail Ltd., Shop No. G-48,G-50, Ground Floor, City Centre Mall", 
  "city": "Delhi (NCR)", 
  "pincode": "110085", 
  "longitude": 77.11432, 
  "state": "Delhi", 
  "location": "V3S Citi Center - Rohini", 
  "address": "SSIPL Retail Ltd., Shop No. G-48,G-50, Ground Floor, City Centre Mall, Rohini, Delhi - 110085", 
  "latitude": 28.71703
 }, 
 {
  "sublocation": "SSIPL Retail Ltd. Shop No. G 70 & 71, (SM3) Ground Floor, V3S, East Centre Mall", 
  "city": "Delhi (NCR)", 
  "pincode": "110092", 
  "longitude": 77.28671, 
  "state": "Delhi", 
  "location": "V3S Mall - Lakshmi Nagar", 
  "address": "SSIPL Retail Ltd. Shop No. G 70 & 71, (SM3) Ground Floor, V3S, East Centre Mall, Laxmi Nagar, New Delhi-110092", 
  "latitude": 28.63725
 }, 
 {
  "sublocation": "SSIPL Retail Ltd. Shop No. GF-20, Westgate Mall", 
  "city": "Delhi (NCR)", 
  "pincode": "110027", 
  "longitude": 77.12308, 
  "state": "Delhi", 
  "location": "West Gate Mall", 
  "address": "SSIPL Retail Ltd. Shop No. GF-20, Westgate Mall, Raja Garden, New Delhi-110027", 
  "latitude": 28.65322
 }, 
 {
  "sublocation": "SSIPL Retail Ltd. Shop no. 6351/16, on the Ground Floor", 
  "city": "Ambala", 
  "pincode": "133001", 
  "longitude": 76.84265, 
  "state": "Haryana", 
  "location": "Ambala Cantt", 
  "address": "SSIPL Retail Ltd. Shop no. 6351/16, on the Ground Floor, Nicholson Road, Ambala Cantt\u00c3\u00bb133001", 
  "latitude": 30.34155
 }, 
 {
  "sublocation": "SCO No 1, Opposite PWD Rest house", 
  "city": "Patiala", 
  "pincode": "147001", 
  "longitude": 76.37566, 
  "state": "Punjab", 
  "location": "Bhupinder Road", 
  "address": "SCO No 1, Opposite PWD Rest house, Bhupinder Road, Patiala: 147001.", 
  "latitude": 30.34898
 }, 
 {
  "sublocation": "Unit No 92, 93 & 94, Old Connaught Place", 
  "city": "Dehradun", 
  "pincode": "248001", 
  "longitude": 78.03762, 
  "state": "Uttarakhand", 
  "location": "Chakrata", 
  "address": "Unit No 92, 93 & 94, Old Connaught Place, Chakrata Road, Dehradun - 248001", 
  "latitude": 30.32613
 }, 
 {
  "sublocation": "Shop No. 23 Ground Floor, DLF Center, IT Park", 
  "city": "Chandigarh", 
  "pincode": "160101", 
  "longitude": 76.84538, 
  "state": "Chandigarh", 
  "location": "DLF IT Park", 
  "address": "Shop No. 23 Ground Floor, DLF Center, IT Park, Manimajra, Chandigarh -160101", 
  "latitude": 30.72878
 }, 
 {
  "sublocation": "SSIPL Retail Ltd. Shop No.115, 1st Floor, Elante Mall, Plot No 178-178A, Industrial & Business Park", 
  "city": "Chandigarh", 
  "pincode": "160002", 
  "longitude": 76.80082, 
  "state": "Chandigarh", 
  "location": "Elante Mall", 
  "address": "SSIPL Retail Ltd. Shop No.115, 1st Floor, Elante Mall, Plot No 178-178A, Industrial & Business Park, Phase-1, Chandigarh-160002", 
  "latitude": 30.70539
 }, 
 {
  "sublocation": "Shop No:-85", 
  "city": "Shimla", 
  "pincode": "171001", 
  "longitude": 77.17437, 
  "state": "Himachal Pradesh", 
  "location": "Mall Road", 
  "address": "Shop No:-85, The Mall ,Shimla-171001", 
  "latitude": 31.10437
 }, 
 {
  "sublocation": "SSS1C", 
  "city": "Chandigarh", 
  "pincode": "160059", 
  "longitude": 76.72358, 
  "state": "Punjab", 
  "location": "Mohali", 
  "address": "SSS1C, Phase \u00c3\u00bb 7, Mohali 160059", 
  "latitude": 30.70807
 }, 
 {
  "sublocation": "Shop No. 5, South End House,Near Chik chocolate", 
  "city": "Mussorie", 
  "pincode": "248179", 
  "longitude": 78.07874, 
  "state": "Uttarakhand", 
  "location": "Mussorie", 
  "address": "Shop No. 5, South End House,Near Chik chocolate,Kulri,Mussorie \u00c3\u00bb 248179.", 
  "latitude": 30.45542
 }, 
 {
  "sublocation": "Active Clothing - Nike GF-12A", 
  "city": "Patiala", 
  "pincode": "147001", 
  "longitude": 76.39475, 
  "state": "Punjab", 
  "location": "Omaxe Mall", 
  "address": "Active Clothing - Nike GF-12A,Omaxe Mall , Patiala -147001", 
  "latitude": 30.33764
 }, 
 {
  "sublocation": "SSIPL Retail Ltd. Shop No. F-13, First Floor, Pacific Mall, Mauja- Jakhan Rajpur Road", 
  "city": "Dehradun", 
  "pincode": "248001", 
  "longitude": 78.07048, 
  "state": "Uttarakhand", 
  "location": "Pacific Mall", 
  "address": "SSIPL Retail Ltd. Shop No. F-13, First Floor, Pacific Mall, Mauja- Jakhan Rajpur Road, Dehradun, Uttarakhand-248001", 
  "latitude": 30.36625
 }, 
 {
  "sublocation": "SSIPL Retail Ltd. Shop No. DFF-377, Sector \u00c3\u00bb 8", 
  "city": "Panchkula", 
  "pincode": "134109", 
  "longitude": 76.84925, 
  "state": "Haryana", 
  "location": "Panchkula", 
  "address": "SSIPL Retail Ltd. Shop No. DFF-377, Sector \u00c3\u00bb 8, Panchkula, Haryana \u00c3\u00bb 134109", 
  "latitude": 30.69914
 }, 
 {
  "sublocation": "Shop No.GF-11,Ground Floor", 
  "city": "Chandigarh", 
  "pincode": "140603", 
  "longitude": 76.82194, 
  "state": "Punjab", 
  "location": "Paras Down Town - Zerakhpur", 
  "address": "Shop No.GF-11,Ground Floor,Para Down Town Centre,Zirakpur -140603", 
  "latitude": 30.66075
 }, 
 {
  "sublocation": "SSIPL Retail Ltd. Khasra No. 3091/2740 (3-16), Adjoining Adidas Store, Railway Road", 
  "city": "Nawasaher", 
  "pincode": "144514", 
  "longitude": 76.11558, 
  "state": "Punjab", 
  "location": "Railway Road", 
  "address": "SSIPL Retail Ltd. Khasra No. 3091/2740 (3-16), Adjoining Adidas Store, Railway Road, Nawashehar, Punjab\u00c3\u00bb 144514", 
  "latitude": 31.1217
 }, 
 {
  "sublocation": "SSIPL Retail Ltd. Shop No. 21, Ground Floor, Rajpur Road", 
  "city": "Dehradun", 
  "pincode": "248001", 
  "longitude": 78.04541, 
  "state": "Uttarakhand", 
  "location": "Rajpur Road", 
  "address": "SSIPL Retail Ltd. Shop No. 21, Ground Floor, Rajpur Road, (New No. 83/159), Dehradun \u00c3\u00bb 248001", 
  "latitude": 30.32779
 }, 
 {
  "sublocation": "SSIPL Retail Ltd. Shop No. 93", 
  "city": "Dehradun", 
  "pincode": "248001", 
  "longitude": 78.0578, 
  "state": "Uttarakhand", 
  "location": "Rajpur Road (2)", 
  "address": "SSIPL Retail Ltd. Shop No. 93, Rajpur Road, Dehradun-248001", 
  "latitude": 30.33816
 }, 
 {
  "sublocation": "S.C.O. 42", 
  "city": "Chandigarh", 
  "pincode": "160017", 
  "longitude": 76.78282, 
  "state": "Chandigarh", 
  "location": "Sec 17", 
  "address": "S.C.O. 42, Sector-17 E, Chandigarh - 160017", 
  "latitude": 30.74034
 }, 
 {
  "sublocation": "Shop No. SCO. 3", 
  "city": "Chandigarh", 
  "pincode": "160017", 
  "longitude": 76.77986, 
  "state": "Chandigarh", 
  "location": "Sector -17 E", 
  "address": "Shop No. SCO. 3, Sector - 17 E, Chandigarh - 160017", 
  "latitude": 30.74136
 }, 
 {
  "sublocation": "Shop No. 98 -100", 
  "city": "Chandigarh", 
  "pincode": "160017", 
  "longitude": 76.78094, 
  "state": "Chandigarh", 
  "location": "Sector 17 (FFD)", 
  "address": "Shop No. 98 -100, Sector 17 D, Chandigarh - 160017", 
  "latitude": 30.74117
 }, 
 {
  "sublocation": "SSIPL Retail Ltd.Unit No. 540, Ground Floor & Basement", 
  "city": "Yamunanagar", 
  "pincode": "135001", 
  "longitude": 77.29085, 
  "state": "Haryana", 
  "location": "Yamunanagar", 
  "address": "SSIPL Retail Ltd.Unit No. 540, Ground Floor & Basement, Model Town, Yamuna Nagar Haryana-135001", 
  "latitude": 30.13676
 }, 
 {
  "sublocation": "4-C Model Town , Mela Singh Chowk", 
  "city": "Yamunanagar", 
  "pincode": "135001", 
  "longitude": 77.29369, 
  "state": "Haryana", 
  "location": "Yamunanagar", 
  "address": "4-C Model Town , Mela Singh Chowk, Yamunanagar,Haryana-135001", 
  "latitude": 30.135
 }, 
 {
  "sublocation": "", 
  "city": "RALEIGH", 
  "pincode": "27607-4048", 
  "longitude": 78.686421, 
  "state": "North Carolina", 
  "location": "FLEET FEET SPORTS - RALEIGH", 
  "address": "3546 Wade Ave", 
  "latitude": 35.80243
 }, 
 {
  "sublocation": "320, TTK Road , Alwarpet ", 
  "city": "Chennai", 
  "pincode": "600018", 
  "longitude": 80.25853, 
  "state": "Tamil Nadu", 
  "location": "Alwerpet, TTK Road", 
  "address": "320, TTK Road , Alwarpet , Chennai- 600018, Tamil Nadu", 
  "latitude": 13.04147
 }, 
 {
  "sublocation": "Shop #107, first floor, Ampa Skywalk", 
  "city": "Chennai", 
  "pincode": "600029", 
  "longitude": 80.22139, 
  "state": "Tamil Nadu", 
  "location": "Ampa Skywalk", 
  "address": "Shop #107, first floor, Ampa Skywalk, No 1. Nelson Manikam Road, Chennai -600029.", 
  "latitude": 13.07361
 }, 
 {
  "sublocation": "D-109, 1st Main Road ", 
  "city": "Chennai", 
  "pincode": "600102", 
  "longitude": 80.22499, 
  "state": "Tamil Nadu", 
  "location": "Anna Nagar", 
  "address": "D-109, 1st Main Road , Anna Nagar , Chennai - 600102", 
  "latitude": 13.08436
 }, 
 {
  "sublocation": "Shop No S-261,No.2,Express Avenue Mall,Club House Road,Opp Maloody Theater", 
  "city": "Chennai", 
  "pincode": "600002", 
  "longitude": 80.26448, 
  "state": "Tamil Nadu", 
  "location": "Express Mall", 
  "address": "Shop No S-261,No.2,Express Avenue Mall,Club House Road,Opp Maloody Theater,Mount Road , Chennai-600002", 
  "latitude": 13.05864
 }, 
 {
  "sublocation": "Shop No. 220, Second Floor, Forum Vijaya Mall", 
  "city": "Chennai", 
  "pincode": "600026", 
  "longitude": 80.2091, 
  "state": "Tamil Nadu", 
  "location": "Forum Mall", 
  "address": "Shop No. 220, Second Floor, Forum Vijaya Mall, Vadapalani, Chennai-600026", 
  "latitude": 13.05098
 }, 
 {
  "sublocation": "40-A, Uthamar Gandhi Salai", 
  "city": "Chennai", 
  "pincode": "600034", 
  "longitude": 80.24484, 
  "state": "Tamil Nadu", 
  "location": "Nungambakkam", 
  "address": "40-A, Uthamar Gandhi Salai, Nungambakkam, Chennai - 600034.", 
  "latitude": 13.06218
 }, 
 {
  "sublocation": "Unit No.G1A, Ground Floor, Phoenix Market City, 142", 
  "city": "Chennai", 
  "pincode": "600042", 
  "longitude": 80.217, 
  "state": "Tamil Nadu", 
  "location": "Phoenix", 
  "address": "Unit No.G1A, Ground Floor, Phoenix Market City, 142, Velachery Road, Chennai - 600042", 
  "latitude": 12.99162
 }, 
 {
  "sublocation": "G-174, Ground Floor, Spencer Plaza, Ph-III, 768-769", 
  "city": "Chennai", 
  "pincode": "600002", 
  "longitude": 80.26113, 
  "state": "Tamil Nadu", 
  "location": "Spencer", 
  "address": "G-174, Ground Floor, Spencer Plaza, Ph-III, 768-769, Anna Salai, Chennai - 600002", 
  "latitude": 13.06121
 }, 
 {
  "sublocation": "Shop No. 1, Ground Floor, Apex Chamber, Old No. 20, New No. 35, Pondy Bazar", 
  "city": "Chennai", 
  "pincode": "600017", 
  "longitude": 80.24121, 
  "state": "Tamil Nadu", 
  "location": "T Nagar", 
  "address": "Shop No. 1, Ground Floor, Apex Chamber, Old No. 20, New No. 35, Pondy Bazar, T Nagar, Chennai - 600017", 
  "latitude": 13.03979
 }, 
 {
  "sublocation": "No-32,D-Monte Colony,TTK Road", 
  "city": "Chennai", 
  "pincode": "600018", 
  "longitude": 80.25191, 
  "state": "Tamil Nadu", 
  "location": "TTK -2", 
  "address": "No-32,D-Monte Colony,TTK Road,Alwarpet,Chennai-600018", 
  "latitude": 13.03111
 }, 
 {
  "sublocation": "G-2, CMR Central", 
  "city": "Vizag", 
  "pincode": "530013", 
  "longitude": 83.31858, 
  "state": "Andhra Pradesh", 
  "location": "CMR Mall", 
  "address": "G-2, CMR Central, Maddilapalem, Visakhapatnam - 530013", 
  "latitude": 17.73396
 }, 
 {
  "sublocation": "A-2,Ground Floor,Pavan Paradise,47-10-12", 
  "city": "Vizag", 
  "pincode": "530016", 
  "longitude": 83.30464, 
  "state": "Andhra Pradesh", 
  "location": "Dwarkanagar", 
  "address": "A-2,Ground Floor,Pavan Paradise,47-10-12,Dwarakanagar,Vizag-530016", 
  "latitude": 17.72691
 }, 
 {
  "sublocation": "0 Point,Tinali,Itanagar", 
  "city": "Itanagar", 
  "pincode": "791111", 
  "longitude": 80.6466, 
  "state": "Arunachal Pradesh", 
  "location": "Tinali", 
  "address": "0 Point,Tinali,Itanagar,Dist Papum Pare , A P - 791111", 
  "latitude": 16.23861
 }, 
 {
  "sublocation": "Shop No. 11 & 12, Citi Center Mall", 
  "city": "Raipur", 
  "pincode": "492001", 
  "longitude": 81.64642, 
  "state": "Chhattisgarh", 
  "location": "Citi Center Mall - Pandri", 
  "address": "Shop No. 11 & 12, Citi Center Mall,Devendra Nagar, Raipur 492001", 
  "latitude": 21.25487
 }, 
 {
  "sublocation": "Shop No. G-07,Magneto Mall", 
  "city": "Raipur", 
  "pincode": "492001", 
  "longitude": 81.68417, 
  "state": "Chhattisgarh", 
  "location": "Magneto Mall - Raipur", 
  "address": "Shop No. G-07,Magneto Mall, Labhandi, NH06 G.E Road Raipur 492001", 
  "latitude": 21.24056
 }, 
 {
  "sublocation": "Ground Floor, shop no 15 , Mangla Chowk", 
  "city": "Bilaspur", 
  "pincode": "495001", 
  "longitude": 82.12596, 
  "state": "Chhattisgarh", 
  "location": "City Mall", 
  "address": "Ground Floor, shop no 15 , Mangla Chowk,Citymall36,Bilaspur", 
  "latitude": 22.09348
 }, 
 {
  "sublocation": "SSIPL Retail Ltd. Shop No. 11, 13 & 15 on the Ground Floor situated at Sardar Patel Marg", 
  "city": "Allahabad", 
  "pincode": "211003", 
  "longitude": 81.83498, 
  "state": "Uttar Pradesh", 
  "location": "Civil Lines", 
  "address": "SSIPL Retail Ltd. Shop No. 11, 13 & 15 on the Ground Floor situated at Sardar Patel Marg, Civil Lines, Allahabad-211003", 
  "latitude": 25.45244
 }, 
 {
  "sublocation": "SSIPL Retail Ltd. Shop No. B-27/69, , GF, @ Durgakund, Bhelpur", 
  "city": "Varanasi", 
  "pincode": "221005", 
  "longitude": 82.99942, 
  "state": "Uttar Pradesh", 
  "location": "Durgakund", 
  "address": "SSIPL Retail Ltd. Shop No. B-27/69, , GF, @ Durgakund, Bhelpur, Varanasi, U.P-221005", 
  "latitude": 25.29036
 }, 
 {
  "sublocation": "SSIPL Retail Ltd., G-13, Ground Floor, JHV Mall, Plot No. S-20/55-1, The Mall Road", 
  "city": "Varanasi", 
  "pincode": "221002", 
  "longitude": 82.97745, 
  "state": "Uttar Pradesh", 
  "location": "JHV Mall", 
  "address": "SSIPL Retail Ltd., G-13, Ground Floor, JHV Mall, Plot No. S-20/55-1, The Mall Road, Cantonment, Varanasi \u00c3\u00bb 221002", 
  "latitude": 25.33582
 }, 
 {
  "sublocation": "SSIPL Retail Ltd. Plot No. 36, Ground Floor & First Floor, Kamla Nagar", 
  "city": "Varanasi", 
  "pincode": "221002", 
  "longitude": 82.98977, 
  "state": "Uttar Pradesh", 
  "location": "Sigra", 
  "address": "SSIPL Retail Ltd. Plot No. 36, Ground Floor & First Floor, Kamla Nagar, Sigra, Varanasi-221002", 
  "latitude": 25.31853
 }, 
 {
  "sublocation": "SSIPL Retail Ltd. Fun Republic Mall Shop No. 112 Upper Ground Floor, Lohiya path, Gomti Nagar", 
  "city": "Lucknow", 
  "pincode": "226010", 
  "longitude": 80.97639, 
  "state": "Uttar Pradesh", 
  "location": "Fun Republic", 
  "address": "SSIPL Retail Ltd. Fun Republic Mall Shop No. 112 Upper Ground Floor, Lohiya path, Gomti Nagar, Lucknow - 226010,", 
  "latitude": 26.85748
 }, 
 {
  "sublocation": "SSIPL Retail Ltd. Shop No. 3/13 & 4/13 UGF, Manglam Tower, Golghar", 
  "city": "Gorakhpur", 
  "pincode": "273001", 
  "longitude": 83.37147, 
  "state": "Uttar Pradesh", 
  "location": "Gorakhpur", 
  "address": "SSIPL Retail Ltd. Shop No. 3/13 & 4/13 UGF, Manglam Tower, Golghar, Gorakhpur, U.P-273001", 
  "latitude": 26.75232
 }, 
 {
  "sublocation": "SSIPL Retail Ltd., Shop No. 2 Halwasiya Market, Mahatma Gandhi Marg", 
  "city": "Lucknow", 
  "pincode": "226001", 
  "longitude": 80.9413, 
  "state": "Uttar Pradesh", 
  "location": "Haszratganj", 
  "address": "SSIPL Retail Ltd., Shop No. 2 Halwasiya Market, Mahatma Gandhi Marg, Hazartganj, Lucknow (UP)- 226001", 
  "latitude": 26.8506
 }, 
 {
  "sublocation": "Shop No. 16, Rave Mall, Plot No. 11, Bock No. 6", 
  "city": "Kanpur", 
  "pincode": "208002", 
  "longitude": 80.29972, 
  "state": "Uttar Pradesh", 
  "location": "Kanpur", 
  "address": "Shop No. 16, Rave Mall, Plot No. 11, Bock No. 6, Parvati Bangla Road, Kanpur - 208002", 
  "latitude": 26.48139
 }, 
 {
  "sublocation": "Shop No. 15, Ground Floor, Sahara Mall, Mohalla Hazrat Ganj", 
  "city": "Lucknow", 
  "pincode": "226001", 
  "longitude": 80.9457, 
  "state": "Uttar Pradesh", 
  "location": "Sahara Mall Lucknow", 
  "address": "Shop No. 15, Ground Floor, Sahara Mall, Mohalla Hazrat Ganj, Shahnajaf Road, Lucknow - 226001", 
  "latitude": 26.85524
 }, 
 {
  "sublocation": "SSIPL Retail Ltd. 16/113", 
  "city": "Kanpur", 
  "pincode": "208001", 
  "longitude": 80.35293, 
  "state": "Uttar Pradesh", 
  "location": "Z Square Mall", 
  "address": "SSIPL Retail Ltd. 16/113, The Mall, M.G. Rd. Kanpur. 208001 (U.P.)", 
  "latitude": 26.473
 }, 
 {
  "sublocation": "624, Shaheed Nagar", 
  "city": "Bhubaneshwar", 
  "pincode": "750007", 
  "longitude": 85.84372, 
  "state": "Odisha", 
  "location": "Janpath", 
  "address": "624, Shaheed Nagar, Janpath, Bhubaneshwar - 750007", 
  "latitude": 20.28223
 }, 
 {
  "sublocation": "National Tailoring House, 4 Bharucha Mansion, Bistupur", 
  "city": "Jamshedpur", 
  "pincode": "831001", 
  "longitude": 86.18398, 
  "state": "Jharkhand", 
  "location": "Bistupur", 
  "address": "National Tailoring House, 4 Bharucha Mansion, Bistupur, Jamshedpur 831001, Jharkhand", 
  "latitude": 22.79801
 }, 
 {
  "sublocation": "M S Plot No.1783, Sub Plot no. 1783/A, New Ward No 18, Circular Road Ranchi", 
  "city": "Ranchi", 
  "pincode": "834001", 
  "longitude": 85.33398, 
  "state": "Jharkhand", 
  "location": "Circular Road", 
  "address": "M S Plot No.1783, Sub Plot no. 1783/A, New Ward No 18, Circular Road Ranchi, P.S. Lalpur, Dist-Ranchi (Jharkhan)", 
  "latitude": 23.37583
 }, 
 {
  "sublocation": "SSIPL Retail Ltd. Shop No. 15, Upper Ground Floor at Juction Mall - Durgapur, Situated at City Centre, Durgapur", 
  "city": "Durgapur", 
  "pincode": "713216", 
  "longitude": 87.29083, 
  "state": "West Bengal", 
  "location": "Junction Mall", 
  "address": "SSIPL Retail Ltd. Shop No. 15, Upper Ground Floor at Juction Mall - Durgapur, Situated at City Centre, Durgapur, West Bengal, Kolkata-713216", 
  "latitude": 23.53917
 }, 
 {
  "sublocation": "Shop No. 1204B", 
  "city": "Ranchi", 
  "pincode": "834001", 
  "longitude": 85.325, 
  "state": "Jharkhand", 
  "location": "M G Road", 
  "address": "Shop No. 1204B, Main Road ( MG Road ), Ranchi \u00c3\u00bb 834001.", 
  "latitude": 23.35246
 }, 
 {
  "sublocation": "SSIPL Retail Ltd. Shop No. 15, Ground & Mezzanine Floor, Ranchi Club Complex", 
  "city": "Ranchi", 
  "pincode": "834001", 
  "longitude": 85.32583, 
  "state": "Jharkhand", 
  "location": "Main Road", 
  "address": "SSIPL Retail Ltd. Shop No. 15, Ground & Mezzanine Floor, Ranchi Club Complex, Main Road, Ranchi \u00c3\u00bb 834001", 
  "latitude": 23.3525
 }, 
 {
  "sublocation": "7/8 Jayanti Bld,Purulia Highway,Sakchi", 
  "city": "Jamshedpur", 
  "pincode": "831001", 
  "longitude": 86.20392, 
  "state": "Jharkhand", 
  "location": "Sakchi", 
  "address": "7/8 Jayanti Bld,Purulia Highway,Sakchi, Jamshedpur 831001, Jharkhand", 
  "latitude": 22.80474
 }, 
 {
  "sublocation": "SSIPL Retail Ltd. Holding No. 600 & 601, GF, Frazer Road, Opp. Bank of India", 
  "city": "Patna", 
  "pincode": "800001", 
  "longitude": 85.13817, 
  "state": "Bihar", 
  "location": "Frazer Road", 
  "address": "SSIPL Retail Ltd. Holding No. 600 & 601, GF, Frazer Road, Opp. Bank of India, Dakbanglow, Patna - 800001", 
  "latitude": 25.60818
 }, 
 {
  "sublocation": "SSIPL Retail Ltd. Shop No. S-11, 2nd Floor, Patliputra Kurji Road", 
  "city": "Patna", 
  "pincode": "800013", 
  "longitude": 85.10619, 
  "state": "Bihar", 
  "location": "PNM Mall", 
  "address": "SSIPL Retail Ltd. Shop No. S-11, 2nd Floor, Patliputra Kurji Road, \u00c3\u00b4P&M Mall\u00c3\u00b6, Patna \u00c3\u00bb 800013", 
  "latitude": 25.63412
 }, 
 {
  "sublocation": "Mineral House, 27 A, Ground Floor", 
  "city": "Kolkata", 
  "pincode": "700020", 
  "longitude": 88.35414, 
  "state": "West Bengal", 
  "location": "Camac Street", 
  "address": "Mineral House, 27 A, Ground Floor, Camac Street, Kolkata - 700020", 
  "latitude": 22.54946
 }, 
 {
  "sublocation": "SSIPL Retail Ltd., Shop No. -238, City Centre", 
  "city": "Kolkata", 
  "pincode": "700020", 
  "longitude": 88.34759, 
  "state": "West Bengal", 
  "location": "Citi Center -2", 
  "address": "SSIPL Retail Ltd., Shop No. -238, City Centre, B.A.J.C Bose Road, Kolkata - 700020", 
  "latitude": 22.54137
 }, 
 {
  "sublocation": "SSIPL Retail Ltd.,Shop No - A-211, 2nd Floor, City Center , DC - Block,Sector - I ", 
  "city": "Kolkata", 
  "pincode": "700064", 
  "longitude": 88.4079, 
  "state": "West Bengal", 
  "location": "City Centre 1", 
  "address": "SSIPL Retail Ltd.,Shop No - A-211, 2nd Floor, City Center , DC - Block,Sector - I , Saltlake ,Kolkata - 700064.", 
  "latitude": 22.58826
 }, 
 {
  "sublocation": "Shop No. 6, Ground Floor, Forum Commercial Complex, Pre. No. 10/3", 
  "city": "Kolkata", 
  "pincode": "700017", 
  "longitude": 88.35143, 
  "state": "West Bengal", 
  "location": "Forum", 
  "address": "Shop No. 6, Ground Floor, Forum Commercial Complex, Pre. No. 10/3, Elgin Road, Kolkata - 700017", 
  "latitude": 22.53852
 }, 
 {
  "sublocation": "139A", 
  "city": "Kolkata", 
  "pincode": "700029", 
  "longitude": 88.36043, 
  "state": "West Bengal", 
  "location": "Gariahat", 
  "address": "139A, Rash Behari Avenue, Kolkata - 700029", 
  "latitude": 22.51895
 }, 
 {
  "sublocation": "15/4, JL Nehru Road, Grand Hotel", 
  "city": "Kolkata", 
  "pincode": "700013", 
  "longitude": 88.35149, 
  "state": "West Bengal", 
  "location": "Grand Hotel", 
  "address": "15/4, JL Nehru Road, Grand Hotel, Shopping Arcade, Kolkata - 700013.", 
  "latitude": 22.56154
 }, 
 {
  "sublocation": "Unit No. 102, First Floor, Mani Square Mall, 164/1 Maniktala Main Road, EM Bypass", 
  "city": "Kolkata", 
  "pincode": "700054", 
  "longitude": 88.40095, 
  "state": "West Bengal", 
  "location": "Mani Square", 
  "address": "Unit No. 102, First Floor, Mani Square Mall, 164/1 Maniktala Main Road, EM Bypass, Near Apollo Gleneagles Hospital, Kolkata - 700054.", 
  "latitude": 22.57768
 }, 
 {
  "sublocation": "SSIPL Retail Ltd. Shop No. F-9, Avani Riverside Mall", 
  "city": "Kolkata", 
  "pincode": "711102", 
  "longitude": 88.32386, 
  "state": "West Bengal", 
  "location": "River Side Avni Mall", 
  "address": "SSIPL Retail Ltd. Shop No. F-9, Avani Riverside Mall, Premises no. 32 Jagat Bannerjee Ghat Road Howrah, Kolkata-711102", 
  "latitude": 22.56339
 }, 
 {
  "sublocation": "Unit No. S 116, First Floor", 
  "city": "Kolkata", 
  "pincode": "700068", 
  "longitude": 88.36191, 
  "state": "West Bengal", 
  "location": "South City Mall", 
  "address": "Unit No. S 116, First Floor, South City Mall, Kolkata - 700068", 
  "latitude": 22.50181
 }, 
 {
  "sublocation": "SSIPL Retail Ltd. Police Bazar, Near Hanuman Mahesh Kumar", 
  "city": "Shillong", 
  "pincode": "793001", 
  "longitude": 91.88136, 
  "state": "Meghalaya", 
  "location": "Police Bazar", 
  "address": "SSIPL Retail Ltd. Police Bazar, Near Hanuman Mahesh Kumar, Shilong, P.O - Meghalaya - 793001", 
  "latitude": 25.5769
 }, 
 {
  "sublocation": "SSIPL Retail Ltd. G.S Road, Borah Service", 
  "city": "Guwahati", 
  "pincode": "781007", 
  "longitude": 91.76344, 
  "state": "Assam", 
  "location": "Bora Services, GS Road", 
  "address": "SSIPL Retail Ltd. G.S Road, Borah Service, Opp.Ullubari H.S. School, Guwahati-781007", 
  "latitude": 26.16947
 }, 
 {
  "sublocation": "SSIPL Retail Ltd. Christian Basti, GS Road, Distt. Kamrup", 
  "city": "Guwahati", 
  "pincode": "781005", 
  "longitude": 91.78005, 
  "state": "Assam", 
  "location": "Christian Basti - GS Road", 
  "address": "SSIPL Retail Ltd. Christian Basti, GS Road, Distt. Kamrup, Guwahati, Assam -781005", 
  "latitude": 26.15476
 }, 
 {
  "sublocation": "Unit No.A0008B,City Center Mall,Ambuja Realty Dev Ltd,Uttorayon Township,NH-31", 
  "city": "Siliguri", 
  "pincode": "734010", 
  "longitude": 88.3942, 
  "state": "West Bengal", 
  "location": "Citi Center Mall", 
  "address": "Unit No.A0008B,City Center Mall,Ambuja Realty Dev Ltd,Uttorayon Township,NH-31,Matigara,Silliguri-734010", 
  "latitude": 26.72385
 }, 
 {
  "sublocation": "SSIPL Retail Ltd., Shop No. 24 Cosmos Mall,\u00c3\u00a1 Situated at 2nd mile", 
  "city": "Siliguri", 
  "pincode": "734001", 
  "longitude": 88.43395, 
  "state": "West Bengal", 
  "location": "Cosmos Mall", 
  "address": "SSIPL Retail Ltd., Shop No. 24 Cosmos Mall,\u00c3\u00a1 Situated at 2nd mile, Sevoke Road, Siliguri - 734001", 
  "latitude": 26.7387
 }, 
 {
  "sublocation": "G-9", 
  "city": "Aizwal", 
  "pincode": "796007", 
  "longitude": 92.71748, 
  "state": "Mizoram", 
  "location": "Chanmari", 
  "address": "G-9, Chanmari , Aizwal -796007", 
  "latitude": 23.73988
 }, 
 {
  "sublocation": "", 
  "city": "Aizwal", 
  "pincode": "796001", 
  "longitude": 92.7167, 
  "state": "Mizoram", 
  "location": "Zarkawt Traffic Point", 
  "address": "A-22,Zarkawt Traffic Point Aizwal - 796001 Mizoram", 
  "latitude": 23.73934
 }, 
 {
  "sublocation": "", 
  "city": "Dhimapur", 
  "pincode": "797112", 
  "longitude": 93.72111, 
  "state": "Nagaland", 
  "location": "Circular Road", 
  "address": "Nike - Opp Holy Cross, Circular Road - Dhimapur - 797112", 
  "latitude": 25.90887
 }, 
 {
  "sublocation": "Taxi Stand,Main Road", 
  "city": "Kohima", 
  "pincode": "797001", 
  "longitude": 94.10676, 
  "state": "Nagaland", 
  "location": "Kohima", 
  "address": "Taxi Stand,Main Road,Kohima , Nagaland - 797001", 
  "latitude": 25.67056
 }, 
 {
  "sublocation": "Pragya Shoppe, Khoyathong Rd, Thangal Bazar, Near Anand Continental", 
  "city": "Imphal", 
  "pincode": "795001", 
  "longitude": 93.93643, 
  "state": "Manipur", 
  "location": "Pragya", 
  "address": "Pragya Shoppe, Khoyathong Rd, Thangal Bazar, Near Anand Continental, Imphal-795001, Manipur", 
  "latitude": 24.81307
 }
]