[
 {
  "city": "Bhilai", 
  "name": "Reebok Exclusive Store - Shakti Fashion", 
  "locality": "Akash Ganga Supela", 
  "pincode": "490023", 
  "state": "Chhattisgarh", 
  "address": "Akash Ganga Supela", 
  "landmark": "", 
  "sublocality": "Raipur Bhilai Durg Expressway"
 }, 
 {
  "city": "Bhilai", 
  "name": "Reebok Exclusive Store - Bhilai Highstreet", 
  "locality": "Shivnath Complex ", 
  "pincode": "490023", 
  "state": "Chhattisgarh", 
  "address": "Plot Number - 02 , Shivnath Complex ", 
  "landmark": "Next to Yes Bank", 
  "sublocality": "G E Road"
 }, 
 {
  "city": "Bhilai", 
  "name": "Reebok Fit Hub - TI - Bhillai", 
  "locality": "Nehru Nagar", 
  "pincode": "490023", 
  "state": "Chhattisgarh", 
  "address": "Shop No. 10 , Upper Ground Floor, Treasure Island , Nehru Nagar", 
  "landmark": "", 
  "sublocality": "Junwani Road"
 }, 
 {
  "city": "Raipur", 
  "name": "Reebok Exclusive Store - Pandri", 
  "locality": "New Bus Stand", 
  "pincode": "492004", 
  "state": "Chhattisgarh", 
  "address": "New Bus Stand", 
  "landmark": "Beside Axis Bank ", 
  "sublocality": "Bus Stand Road"
 }, 
 {
  "city": "Raipur", 
  "name": "Reebok Exclusive Store - Ambuja Mall Raipur", 
  "locality": "Saddu", 
  "pincode": "492001", 
  "state": "Chhattisgarh", 
  "address": "Shop No 0134 , Ambuja Mall , Vidhan Sabha Road , Saddu", 
  "landmark": "", 
  "sublocality": "Vidhan Sabha Road"
 }, 
 {
  "city": "Bilaspur", 
  "name": "Reebok Exclusive Store - Shrikant Varma Marg", 
  "locality": "Bilaspur", 
  "pincode": "495001", 
  "state": "Chhattisgarh", 
  "address": "Shrikant Varma Marg, Bilaspur", 
  "landmark": "", 
  "sublocality": "Shri Kant Verma Marg"
 }, 
 {
  "city": "Korba", 
  "name": "Reebok Exclusive Store - Korba", 
  "locality": "TP Nagar Korba", 
  "pincode": "495678", 
  "state": "Chhattisgarh", 
  "address": "Plot No.35B , Ground Floor , Indira Commercial Complex , TP Nagar Korba", 
  "landmark": "Near Dena Bank ", 
  "sublocality": "TP Nagar Road"
 }, 
 {
  "city": "Chandrapur", 
  "name": "Reebok Exclusive Store - Chandrapur", 
  "locality": "City Centre ", 
  "pincode": "442401", 
  "state": "Maharashtra", 
  "address": "G1 Kamla Nehru , City Centre ", 
  "landmark": "Near Azad Garden", 
  "sublocality": "Kasturba Road"
 }, 
 {
  "city": "Nagpur", 
  "name": "Reebok Exclusive Store - Sadar - Nagpur", 
  "locality": "Residency Road", 
  "pincode": "440001", 
  "state": "Maharashtra", 
  "address": "Suleman Manzil , Middle Block , Residency Road", 
  "landmark": "", 
  "sublocality": "Residency Road"
 }, 
 {
  "city": "Nagpur", 
  "name": "Reebok Factory Outlet - Kadbi Chowk", 
  "locality": "Kadbi Chowk", 
  "pincode": "440004", 
  "state": "Maharashtra", 
  "address": "8 ,9 Mangalam Shrikrupa Complex , Kamtee Road , Kadbi Chowk", 
  "landmark": "", 
  "sublocality": "Kamtee Road"
 }, 
 {
  "city": "Nagpur", 
  "name": "Reebok Exclusive Store - Himalaya Crown", 
  "locality": "Tilak Nagar", 
  "pincode": "440010", 
  "state": "Maharashtra", 
  "address": "UG - 2 Himalaya Crown , Amravati Road , Tilak Nagar", 
  "landmark": "", 
  "sublocality": "Amravati Road"
 }, 
 {
  "city": "Jabalpur", 
  "name": "Reebok Exclusive Store - Jabalpur", 
  "locality": "Gorakhpur Road", 
  "pincode": "482001", 
  "state": "Madhya Pradesh", 
  "address": "Shop No 9-10 , Chopra Complex Katanga Crossing , Gorakhpur Road", 
  "landmark": "", 
  "sublocality": "Gorakhpur Road"
 }, 
 {
  "city": "Karim Nagar", 
  "name": "Reebok Exclusive Store - Karimnagar", 
  "locality": "3-3-203/1 Reddys Residency Court Circle", 
  "pincode": "505001", 
  "state": "Telangana", 
  "address": "24 , 44 , 3-3-203/1 Reddys Residency Court Circle", 
  "landmark": "", 
  "sublocality": "Jagtial Karimnagar Road"
 }, 
 {
  "city": "Srikakulam", 
  "name": "Reebok Exclusive Store - Srikakulam", 
  "locality": "Palakonda Krishna Park Centre", 
  "pincode": "532001", 
  "state": "Andhra Pradesh", 
  "address": "5 - 1 - 74 , Palakonda Krishna Park Centre", 
  "landmark": "", 
  "sublocality": "Palakonda Road"
 }, 
 {
  "city": "Vizag", 
  "name": "Reebok Fit Hub - CMR Mall , Vizag", 
  "locality": "Maddilapalem", 
  "pincode": "530013", 
  "state": "Andhra Pradesh", 
  "address": "52 - 1 - 35 , 36 , 38 , Shop Number 8 ,CMR Mall , Second Floor , New Resapuvanipalem ,, Maddilapalem Bustop , Maddilapalem", 
  "landmark": " Opposite APSRTC ", 
  "sublocality": "Rama Talkies Road"
 }, 
 {
  "city": "Berhampur", 
  "name": "Reebok Exclusive Store - Ass Enterprises", 
  "locality": "Berhampore", 
  "pincode": "760001", 
  "state": "Orissa", 
  "address": "Station Road , Berhampore", 
  "landmark": "", 
  "sublocality": "Station Road"
 }, 
 {
  "city": "Vizag", 
  "name": "Reebok Exclusive Store - Vizag-3", 
  "locality": "Care Hospital Lane Walltair Main Road", 
  "pincode": "530003", 
  "state": "Andhra Pradesh", 
  "address": "Plot Number 10 - 50 - 11/8 , Care Hospital Lane Walltair Main Road", 
  "landmark": "", 
  "sublocality": "Walltair Main Road"
 }, 
 {
  "city": "Vizag", 
  "name": "Reebok Factory Outlet - Jagadamba", 
  "locality": "Surya Bagh", 
  "pincode": "530020", 
  "state": "Andhra Pradesh", 
  "address": "28 - 2 - 49/5 , Shop Number 8 , Daspalla Centre , Surya Bagh", 
  "landmark": "", 
  "sublocality": "Chitralaya Road"
 }, 
 {
  "city": "Amravati", 
  "name": "Reebok Exclusive Store - Tristar - Amravati", 
  "locality": "Khatri Compound", 
  "pincode": "444601", 
  "state": "Maharashtra", 
  "address": "Namorshi Road , Khatri Compound", 
  "landmark": "", 
  "sublocality": "Namorshi Road"
 }, 
 {
  "city": "Khammam", 
  "name": "Reebok Exclusive Store - Khammam", 
  "locality": "Wyra Road", 
  "pincode": "507001", 
  "state": "Telangana", 
  "address": "11 - 5 - 7/3B, Wyra Road", 
  "landmark": " Opposite Vodafone Store ", 
  "sublocality": "Wyra Road"
 }, 
 {
  "city": "Rajamundry", 
  "name": "Reebok Exclusive Store - Rajamundry-2", 
  "locality": "Danavaipeta", 
  "pincode": "533103", 
  "state": "Andhra Pradesh", 
  "address": "76 - 1 - 17/2 , Danavaipeta", 
  "landmark": "", 
  "sublocality": "E Park Road"
 }, 
 {
  "city": "Nizamabad", 
  "name": "Reebok Exclusive Store - Nizamabad", 
  "locality": "Hyderabad Road", 
  "pincode": "503001", 
  "state": "Telangana", 
  "address": "5 - 6 - 573/A , Pragathi Nagar , Hyderabad Road", 
  "landmark": "", 
  "sublocality": "Hyderabad Road"
 }, 
 {
  "city": "Bhubaneswar", 
  "name": "Reebok Exclusive Store - Dhupar", 
  "locality": "Jaydev Vihar", 
  "pincode": "751015", 
  "state": "Orissa", 
  "address": "Hotel Mayfair Lagoon Premises , 8B , Jaydev Vihar", 
  "landmark": "", 
  "sublocality": "Nandan Kanan Road"
 }, 
 {
  "city": "Bhubaneswar", 
  "name": "Reebok Exclusive Store - Forum-Orissa", 
  "locality": "89 Kharvel Nagar Unit 3", 
  "pincode": "751007", 
  "state": "Orissa", 
  "address": "Shop Number 9 , Forum Mart , 89 Kharvel Nagar Unit 3", 
  "landmark": "", 
  "sublocality": "Jail Road"
 }, 
 {
  "city": "Satna", 
  "name": "Reebok Exclusive Store - Satna", 
  "locality": "Rewa Road", 
  "pincode": "485001", 
  "state": "Madhya Pradesh", 
  "address": "1 , Bharhut Turning , Rewa Road", 
  "landmark": "", 
  "sublocality": "Rewa Road"
 }, 
 {
  "city": "Hyderabad", 
  "name": "Reebok Exclusive Store - AS Rao Nagar", 
  "locality": "AS Rao Nagar", 
  "pincode": "500062", 
  "state": "Telangana", 
  "address": "50 , SY Number 459 & 461 , Block 12 , Royal Embassy , AS Rao Nagar", 
  "landmark": "", 
  "sublocality": "A S Rao Nagar Road"
 }, 
 {
  "city": "Vijayawada", 
  "name": "Reebok Factory Outlet - Eluru Road", 
  "locality": "Ring Road", 
  "pincode": "520008", 
  "state": "Andhra Pradesh", 
  "address": "54 - 15 - 1 , Yalamanchali Complex , Ring Road", 
  "landmark": "", 
  "sublocality": "Ring Road"
 }, 
 {
  "city": "Vijayawada", 
  "name": "Reebok Exclusive Store - Vijayawada-1", 
  "locality": "Labbipet", 
  "pincode": "520010", 
  "state": "Andhra Pradesh", 
  "address": "Number 40 - 2 - 6B , M G Road , Labbipet", 
  "landmark": "", 
  "sublocality": "M G Road"
 }, 
 {
  "city": "Secunderabad", 
  "name": "Reebok Factory Outlet - Tirumulgherry", 
  "locality": "Trimulgherry", 
  "pincode": "500015", 
  "state": "Andhra Pradesh", 
  "address": "Plot Number 3 , Chandragiri Colony , Trimulgherry", 
  "landmark": "Beside RTO ", 
  "sublocality": "Bolaram Road"
 }, 
 {
  "city": "Hyderabad", 
  "name": "Reebok Factory Outlet - Bowenpally", 
  "locality": "Bowenpally", 
  "pincode": "500011", 
  "state": "Telangana", 
  "address": "Plot Number 1 , Dhanlaxmi Co-operative Housing Society , Bowenpally", 
  "landmark": "", 
  "sublocality": "Medchal Road"
 }, 
 {
  "city": "Hyderabad", 
  "name": "Reebok Exclusive Store - Habsiguda", 
  "locality": "Uppal Main Road", 
  "pincode": "500079", 
  "state": "Telangana", 
  "address": "7 - 91 , Shop Number 1 & 2 , Uppal Main Road", 
  "landmark": "Near SBH Road ", 
  "sublocality": "Uppal Main Road"
 }, 
 {
  "city": "Hyderabad", 
  "name": "Reebok Exclusive Store - Karkhana", 
  "locality": "59/2 Rainbow Mall Karkhana", 
  "pincode": "500009", 
  "state": "Telangana", 
  "address": "59/2 Rainbow Mall Karkhana", 
  "landmark": "", 
  "sublocality": "Hyderabad Karimnagar Highway"
 }, 
 {
  "city": "Hyderabad", 
  "name": "Reebok Fit Hub - Begumpet", 
  "locality": "Begumpet", 
  "pincode": "500016", 
  "state": "Telangana", 
  "address": "1 - 11 - 249 / 11 , Pooja Talluri , Begumpet", 
  "landmark": "", 
  "sublocality": "Begumpet Road"
 }, 
 {
  "city": "Hyderabad", 
  "name": "Reebok Fit Hub - Mayur - Kukatpally", 
  "locality": "Kukatpally", 
  "pincode": "500072", 
  "state": "Telangana", 
  "address": "67 - A , 1058 , 1059 , Sri Sai Arcade , Dharma Reddy Colony , Kukatpally", 
  "landmark": "", 
  "sublocality": "Mumbai Highway"
 }, 
 {
  "city": "Hyderabad", 
  "name": "Reebok Exclusive Store - Vidya Nagar", 
  "locality": "2 - 1 - 565/1", 
  "pincode": "500044", 
  "state": "Telangana", 
  "address": "2 - 1 - 565/1", 
  "landmark": " Opposite Annapurna Restaurant Nallakunta", 
  "sublocality": "New Nallakunta Main Road"
 }, 
 {
  "city": "Hyderabad", 
  "name": "Reebok Factory Outlet - Ameerpet", 
  "locality": "Ameerpet", 
  "pincode": "500038", 
  "state": "Telangana", 
  "address": "7-1-80 , Capital Complex , Ameerpet", 
  "landmark": "", 
  "sublocality": "Ameerpet Road"
 }, 
 {
  "city": "Hyderabad", 
  "name": "Reebok Fit Hub - Dilshuk Nagar", 
  "locality": "Survey Number 71 Hanuman Nagar Chaitanyapuri", 
  "pincode": "500060", 
  "state": "Telangana", 
  "address": "Number 3 , 119 , Plot Number 40 , Survey Number 71 Hanuman Nagar Chaitanyapuri", 
  "landmark": "", 
  "sublocality": "Dilsukh Nagar Main Road"
 }, 
 {
  "city": "Hyderabad", 
  "name": "Reebok Fit Hub - Banjara", 
  "locality": "Punjagutta", 
  "pincode": "500082", 
  "state": "Telangana", 
  "address": "Plot Number 75 , GS Chambers , Nagarjuna Circle , Punjagutta", 
  "landmark": "", 
  "sublocality": "Nagarjuna Circle Road"
 }, 
 {
  "city": "Hyderabad", 
  "name": "Reebok Fit Hub - Himayat Nagar-2", 
  "locality": "Himayat Nagar", 
  "pincode": "500029", 
  "state": "Telangana", 
  "address": "Number 3 - 6 - 423 , The Platinum House , Main Road , Himayat Nagar", 
  "landmark": "", 
  "sublocality": "Main Road"
 }, 
 {
  "city": "Hyderabad", 
  "name": "Reebok Fit Hub - Jubilee Hills", 
  "locality": "Jubilee Hills", 
  "pincode": "500033", 
  "state": "Telangana", 
  "address": "Plot Number 645 , Road Number 36 , Main Road , Jubilee Hills", 
  "landmark": "", 
  "sublocality": "Main Road"
 }, 
 {
  "city": "Hyderabad", 
  "name": "Reebok Exclusive Store - Banjara Kids", 
  "locality": "Banjara Hills", 
  "pincode": "500082", 
  "state": "Telangana", 
  "address": "Number 6 - 3 - 200/B/6/A Road Number 1 , Banjara Hills", 
  "landmark": "", 
  "sublocality": "Road Number 1"
 }, 
 {
  "city": "Hyderabad", 
  "name": "Reebok Exclusive Store - Yousufguda", 
  "locality": "8-3-224/B/4 Yellareddy Guda Yousuf Guda", 
  "pincode": "500045", 
  "state": "Telangana", 
  "address": "8-3-224/B/4 Yellareddy Guda Yousuf Guda", 
  "landmark": "", 
  "sublocality": "Yousufguda Main Road"
 }, 
 {
  "city": "Hyderabad", 
  "name": "Reebok Factory Outlet - Malakpet", 
  "locality": "16   -11  - 1/6 & 7 Megacity Number 40 Saleem Nagar", 
  "pincode": "500036", 
  "state": "Telangana", 
  "address": "16   -11  - 1/6 & 7 Megacity Number 40 Saleem Nagar", 
  "landmark": "", 
  "sublocality": "Mumbai Highway"
 }, 
 {
  "city": "Hyderabad", 
  "name": "Reebok Exclusive Store - Hitech City", 
  "locality": "Hitech City", 
  "pincode": "500033", 
  "state": "Telangana", 
  "address": "Number 1 - 90/2/G/121 Aru Number Daya Society , Madhapur , Hitech City", 
  "landmark": "", 
  "sublocality": "Hi Tec City Road"
 }, 
 {
  "city": "Hyderabad", 
  "name": "Reebok Exclusive Store - Inorbit Mall", 
  "locality": "Hitec City", 
  "pincode": "500081", 
  "state": "Telangana", 
  "address": "F 34 , 36 , 37 , APIIC , Mind Space , Inorbit Mall , Hitec City", 
  "landmark": "", 
  "sublocality": "Hi Tech City Main Road"
 }, 
 {
  "city": "Hyderabad", 
  "name": "Reebok Fit Hub - GVK Mall", 
  "locality": "Banjara Hills", 
  "pincode": "500033", 
  "state": "Telangana", 
  "address": "Shop Number 23 , GVK One Mall , First Floor , Banjara Hills", 
  "landmark": "", 
  "sublocality": "Road Number 1"
 }, 
 {
  "city": "Hyderabad", 
  "name": "Reebok Exclusive Store - Bhel - Hyderabad", 
  "locality": "Bhel", 
  "pincode": "500050", 
  "state": "Telangana", 
  "address": "Plot Number 90 , Municipal Number , 2 - 105/5/C/F2/F3 , Bhel", 
  "landmark": "", 
  "sublocality": "Bhel Road"
 }, 
 {
  "city": "Hyderabad", 
  "name": "Reebok Factory Outlet - Towlichowki", 
  "locality": "Toli Chowki", 
  "pincode": "500008", 
  "state": "Telangana", 
  "address": "8 - 1 - 523/302/1/91 To 93 , Younus Plaza , Toli Chowki", 
  "landmark": "", 
  "sublocality": "Shaikpet Road"
 }, 
 {
  "city": "Guntur", 
  "name": "Reebok Exclusive Store - Guntur", 
  "locality": "West Krishna Plaza Laxmipuram Main Road", 
  "pincode": "522006", 
  "state": "Andhra Pradesh", 
  "address": "West Krishna Plaza Laxmipuram Main Road", 
  "landmark": "", 
  "sublocality": "Laxmipuram Main Road"
 }, 
 {
  "city": "Ranchi", 
  "name": "Reebok Fit Hub - Gel Church Complex", 
  "locality": "Main Road", 
  "pincode": "834001", 
  "state": "Jharkhand", 
  "address": "Shop Number 5 ,Gel Church Complex , Main Road", 
  "landmark": "", 
  "sublocality": "Main Road"
 }, 
 {
  "city": "Bhopal", 
  "name": "Reebok Exclusive Store - Db Mall Bhopal", 
  "locality": "F-33 First Floor Db City Mall Arera Hills Mall", 
  "pincode": "462011", 
  "state": "Madhya Pradesh", 
  "address": "F-33 First Floor Db City Mall Arera Hills Mall", 
  "landmark": "", 
  "sublocality": "Hoshangabad Road"
 }, 
 {
  "city": "Ranchi", 
  "name": "Reebok Exclusive Store - Piska More", 
  "locality": "Ratu Road", 
  "pincode": "834005", 
  "state": "Jharkhand", 
  "address": "Laxmi Narayan Complex , Lah Kothi , Ratu Road", 
  "landmark": "", 
  "sublocality": "Ratu Road"
 }, 
 {
  "city": "Bhopal", 
  "name": "Reebok Exclusive Store - Bittan Market", 
  "locality": "Bittan Market", 
  "pincode": "462016", 
  "state": "Madhya Pradesh", 
  "address": "E5/20 , Vivek Tower , Bittan Market", 
  "landmark": "Near BSNL Exchange ", 
  "sublocality": "Main Road 2"
 }, 
 {
  "city": "Hyderabad", 
  "name": "Reebok Factory Outlet - SR Nagar", 
  "locality": "Sanjeeva Reddy Nagar", 
  "pincode": "500038", 
  "state": "Telangana", 
  "address": "251/3/RT Main Road , Sanjeeva Reddy Nagar", 
  "landmark": "", 
  "sublocality": "RT Main Road"
 }, 
 {
  "city": "Allahabad", 
  "name": "Reebok Exclusive Store - Civil Lines, Allahabad", 
  "locality": "Civil Lines", 
  "pincode": "211001", 
  "state": "Uttar Pradesh", 
  "address": "5A , Sardar Patel Marg, Civil Lines", 
  "landmark": "", 
  "sublocality": "Sardar Patel Marg"
 }, 
 {
  "city": "Allahabad", 
  "name": "Reebok Exclusive Store - Civil Lines, Roorkee", 
  "locality": "Civil Lines", 
  "pincode": "211001", 
  "state": "Uttar Pradesh", 
  "address": "5A , Sardar Patel Marg , Civil Lines", 
  "landmark": "", 
  "sublocality": "Sardar Patel Marg"
 }, 
 {
  "city": "Varanasi", 
  "name": "Reebok Fit Hub - Zorba Sports & Lifestyle Private Limited , Varanasi", 
  "locality": "Bhelupur", 
  "pincode": "221010", 
  "state": "Uttar Pradesh", 
  "address": "B27/86 C Ground Floor , Durga Kund Road , Bhelupur", 
  "landmark": "", 
  "sublocality": "Durga Kund Road"
 }, 
 {
  "city": "Jamshedpur", 
  "name": "Reebok Exclusive Store - Jamshedpur Kids", 
  "locality": "Main Road Bistupur ,", 
  "pincode": "831001", 
  "state": "Jharkhand", 
  "address": "16, Main Road Bistupur ,", 
  "landmark": " Opposite Bank Of Baroda", 
  "sublocality": "Tata - Hata Main Road"
 }, 
 {
  "city": "Varanasi", 
  "name": "Reebok Exclusive Store - IP Mall", 
  "locality": "Ground Floor IP Mall", 
  "pincode": "221010", 
  "state": "Uttar Pradesh", 
  "address": "10 , Ground Floor IP Mall", 
  "landmark": "", 
  "sublocality": "Fatman Road"
 }, 
 {
  "city": "Varanasi", 
  "name": "Reebok Exclusive Store - JHV Mall", 
  "locality": "Ground Floor JHV Mall ", 
  "pincode": "221002", 
  "state": "Uttar Pradesh", 
  "address": "G-16 , Ground Floor JHV Mall ", 
  "landmark": "Near Ramada", 
  "sublocality": "The Mall Road"
 }, 
 {
  "city": "Buldana", 
  "name": "Reebok Factory Outlet - Buldana", 
  "locality": "Buldana", 
  "pincode": "443001", 
  "state": "Maharashtra", 
  "address": "Karnja Chowk , Buldana", 
  "landmark": "Beside Axis Bank ", 
  "sublocality": "Court Road"
 }, 
 {
  "city": "Gaya", 
  "name": "Reebok Exclusive Store - Inokss - Gaya", 
  "locality": "Shahid Road,", 
  "pincode": "823001", 
  "state": "Bihar", 
  "address": "Shahid Road,", 
  "landmark": " Oppsite Krishna Mistann Bandar", 
  "sublocality": "Shahid Road"
 }, 
 {
  "city": "Ongole", 
  "name": "Reebok Exclusive Store - Ongole", 
  "locality": "Trunk Road", 
  "pincode": "523001", 
  "state": "Andhra Pradesh", 
  "address": "37 - 1 - 259 , Trunk Road", 
  "landmark": "", 
  "sublocality": "Trunk Road"
 }, 
 {
  "city": "Jhansi", 
  "name": "Reebok Exclusive Store - Sadar Bazaar - Jhansi", 
  "locality": "Cantt", 
  "pincode": "284003", 
  "state": "Uttar Pradesh", 
  "address": "610 , Sadar Bazar ,Opposite State Bank Of Bikaner , Cantt", 
  "landmark": "", 
  "sublocality": "Allahabad Bank Road"
 }, 
 {
  "city": "Indore", 
  "name": "Reebok Exclusive Store - MG Road F&F", 
  "locality": "5 MG Road", 
  "pincode": "452001", 
  "state": "Madhya Pradesh", 
  "address": "579 , 5 MG Road", 
  "landmark": "", 
  "sublocality": "M G Road"
 }, 
 {
  "city": "Indore", 
  "name": "Reebok Exclusive Store - C21 Mall", 
  "locality": "AB Road Indore Mall", 
  "pincode": "452010", 
  "state": "Madhya Pradesh", 
  "address": "Shop Number 115 , C21 Mall , AB Road Indore Mall", 
  "landmark": "", 
  "sublocality": "AB Road"
 }, 
 {
  "city": "Indore", 
  "name": "Reebok Exclusive Store - Treasure Island Indore", 
  "locality": "First Floor", 
  "pincode": "452001", 
  "state": "Madhya Pradesh", 
  "address": "10 , First Floor", 
  "landmark": "", 
  "sublocality": "Mahatma Gandhi Road"
 }, 
 {
  "city": "Midnapur", 
  "name": "Reebok Exclusive Store - CS Midnapore", 
  "locality": "Rabindra Nagar", 
  "pincode": "721101", 
  "state": "West Bengal", 
  "address": "Rishi Aurobindo Stadium Road , Rabindra Nagar", 
  "landmark": "", 
  "sublocality": "Rishi Aurobindo Stadium Road"
 }, 
 {
  "city": "Aurangabad", 
  "name": "Reebok Exclusive Store - Prozone Mall", 
  "locality": "Chikalthana", 
  "pincode": "431210", 
  "state": "Maharashtra", 
  "address": "Prozone Mall , Shop No. F 19 , Plot No 80 , NIDC , Chikalthana", 
  "landmark": "", 
  "sublocality": "N1 Road"
 }, 
 {
  "city": "Aurangabad", 
  "name": "Reebok Exclusive Store - Nirala Bazar", 
  "locality": "Nirala Bazaar", 
  "pincode": "431001", 
  "state": "Maharashtra", 
  "address": "107/108 , Nirala Bazaar", 
  "landmark": "", 
  "sublocality": "Nirala Bazar Road"
 }, 
 {
  "city": "Kurnool", 
  "name": "Reebok Fit Hub - Jyothi Mall Kurnool", 
  "locality": "Bellary Road", 
  "pincode": "518004", 
  "state": "Andhra Pradesh", 
  "address": "Number 40/301/A1, Bellary Road", 
  "landmark": " Opposite Sri Ram Theatre ", 
  "sublocality": "Bellary Road"
 }, 
 {
  "city": "Kanpur", 
  "name": "Reebok Fit Hub - Govind Nagar Kanpur", 
  "locality": "Govind Nagar", 
  "pincode": "208005", 
  "state": "Uttar Pradesh", 
  "address": "126/104 , Govind Nagar", 
  "landmark": "", 
  "sublocality": "Barra Bypass Road"
 }, 
 {
  "city": "Kanpur", 
  "name": "Reebok Fit Hub - Z Square Mall", 
  "locality": "The Mall", 
  "pincode": "208001", 
  "state": "Uttar Pradesh", 
  "address": "C - 311 , The Mall", 
  "landmark": "", 
  "sublocality": "Mall Road"
 }, 
 {
  "city": "Kanpur", 
  "name": "Reebok Exclusive Store - Lajpat Nagar", 
  "locality": "Lajpat Nagar", 
  "pincode": "208005", 
  "state": "Uttar Pradesh", 
  "address": "Naraini Building , Lajpat Nagar", 
  "landmark": "", 
  "sublocality": "Govind Nagar Road"
 }, 
 {
  "city": "Kanpur", 
  "name": "Reebok Exclusive Store - Rave Moti", 
  "locality": "Rawatpur", 
  "pincode": "208003", 
  "state": "Uttar Pradesh", 
  "address": "Shop Number 12 , 15 , Rawatpur", 
  "landmark": "", 
  "sublocality": "Rawatpur Main Road"
 }, 
 {
  "city": "Chapra", 
  "name": "Reebok Exclusive Store - Chapra", 
  "locality": "Chapra", 
  "pincode": "841301", 
  "state": "Bihar", 
  "address": "Bellow Allahabad Bank, Kachahri Road, Chapra", 
  "landmark": "", 
  "sublocality": "Kachahri Road"
 }, 
 {
  "city": "Patna", 
  "name": "Reebok Exclusive Store - Extremoz", 
  "locality": "Dak Bunglow Road", 
  "pincode": "800001", 
  "state": "Bihar", 
  "address": "A - 10 , Maurya Lok Complex , Dak Bunglow Road", 
  "landmark": "", 
  "sublocality": "Dak Bunglow Road"
 }, 
 {
  "city": "Patna", 
  "name": "Reebok Exclusive Store - Sarita Fashion", 
  "locality": "Frazer Road", 
  "pincode": "800017", 
  "state": "Bihar", 
  "address": "Shop No 1 , Maharaja Kameshwer Complex , Frazer Road", 
  "landmark": "", 
  "sublocality": "Fraser Road"
 }, 
 {
  "city": "Patna", 
  "name": "Reebok Exclusive Store - P & M Mall , Kurji", 
  "locality": "Kurji Industrial Area", 
  "pincode": "800010", 
  "state": "Bihar", 
  "address": "Shop Number F - 03, First Floor, P & M Mall, Pataliputra, Kurji Industrial Area", 
  "landmark": "", 
  "sublocality": "Boring Pataliputra Road"
 }, 
 {
  "city": "Patna", 
  "name": "Reebok Exclusive Store - Savitri Stores", 
  "locality": "Kankarbagh", 
  "pincode": "800020", 
  "state": "Bihar", 
  "address": "MIG - 59 , Lohianagar , Kankarbagh", 
  "landmark": "", 
  "sublocality": "Kumhrar Road"
 }, 
 {
  "city": "Patna", 
  "name": "Reebok Exclusive Store - Thakurbari Road", 
  "locality": "Thakurbari Road", 
  "pincode": "800003", 
  "state": "Bihar", 
  "address": "Opposite Amawan Complex , Thakurbari Road", 
  "landmark": "", 
  "sublocality": "Thakurbari Road"
 }, 
 {
  "city": "Solapur", 
  "name": "Reebok Exclusive Store - Sholapur", 
  "locality": "Sadhna Complex ", 
  "pincode": "413001", 
  "state": "Maharashtra", 
  "address": "Reebok Shoppe ,120/A , Morarji Peth , Sadhna Complex ", 
  "landmark": "Near Aishwarya Hotel", 
  "sublocality": "Rupa Bhawani Road"
 }, 
 {
  "city": "Patna", 
  "name": "Reebok Factory Outlet - Kankarbagh", 
  "locality": "Kankarbagh", 
  "pincode": "800020", 
  "state": "Bihar", 
  "address": "Old Bypass Road,Opposite Rupam Timber , Kankarbagh", 
  "landmark": "Near Tiwari Becher Petrol Pump ", 
  "sublocality": "Old Bypass Road"
 }, 
 {
  "city": "Hajipur", 
  "name": "Reebok Exclusive Store - Stop & Shop", 
  "locality": "Hajipur", 
  "pincode": "844101", 
  "state": "Bihar", 
  "address": "Station Road,, Hajipur", 
  "landmark": " Opposite HDFC Bank ", 
  "sublocality": "Station Road"
 }, 
 {
  "city": "Deoghar", 
  "name": "Reebok Exclusive Store - Om Sai Garments", 
  "locality": "Netaji Subhash Road", 
  "pincode": "814112", 
  "state": "Jharkhand", 
  "address": "Shop No.4, Central Plaza, Netaji Subhash Road", 
  "landmark": "", 
  "sublocality": "Netaji Subhash Road"
 }, 
 {
  "city": "Siwan", 
  "name": "Reebok Exclusive Store - Siwan", 
  "locality": "JP Chowk", 
  "pincode": "841226", 
  "state": "Bihar", 
  "address": "Amar Market , JP Chowk", 
  "landmark": "", 
  "sublocality": "State Highway 47"
 }, 
 {
  "city": "Lucknow", 
  "name": "Reebok Fit Hub - Phoenix Mall Lucknow", 
  "locality": "Alambagh", 
  "pincode": "226005", 
  "state": "Uttar Pradesh", 
  "address": "F - 01 D , First Floor , Alambagh", 
  "landmark": "", 
  "sublocality": "Kanpur Road"
 }, 
 {
  "city": "Lucknow", 
  "name": "Reebok Fit Hub - City Mall- Lucknow", 
  "locality": "Gomti Nagar", 
  "pincode": "226010", 
  "state": "Uttar Pradesh", 
  "address": "Shop Number 135 , 136 & 137 , First Floor City Mall , Vipul Khand , Gomti Nagar", 
  "landmark": "", 
  "sublocality": "City Mall"
 }, 
 {
  "city": "Lucknow", 
  "name": "Reebok Exclusive Store - Saharagunj Mall", 
  "locality": "Sahara Mall", 
  "pincode": "226001", 
  "state": "Uttar Pradesh", 
  "address": "1041 , Sahara Mall", 
  "landmark": "", 
  "sublocality": "Sapru Marg"
 }, 
 {
  "city": "Lucknow", 
  "name": "Reebok Exclusive Store - Hazratgunj", 
  "locality": "Sahu Building Hazratgunj", 
  "pincode": "226001", 
  "state": "Uttar Pradesh", 
  "address": "Sahu Building Hazratgunj", 
  "landmark": "", 
  "sublocality": "V S Marg"
 }, 
 {
  "city": "Lucknow", 
  "name": "Reebok Factory Outlet - Faizabad Highway", 
  "locality": "Faizabad Road", 
  "pincode": "226016", 
  "state": "Uttar Pradesh", 
  "address": "631/04 , Ismile Ganj , Faizabad Road", 
  "landmark": "", 
  "sublocality": "Faizabad Road"
 }, 
 {
  "city": "Lucknow", 
  "name": "Reebok Exclusive Store - Mahanagar", 
  "locality": "Mahanagar", 
  "pincode": "226006", 
  "state": "Uttar Pradesh", 
  "address": "S - 68 , Mahanagar", 
  "landmark": "", 
  "sublocality": "Mandir Marg"
 }, 
 {
  "city": "Lucknow", 
  "name": "Reebok Exclusive Store - Aliganj", 
  "locality": "Aliganj", 
  "pincode": "226021", 
  "state": "Uttar Pradesh", 
  "address": "Nishit Plaza , Aliganj", 
  "landmark": "", 
  "sublocality": "Engineering College Road"
 }, 
 {
  "city": "Gwalior", 
  "name": "Reebok Exclusive Store - DD Mall", 
  "locality": "Ground Floor DD Mall", 
  "pincode": "474001", 
  "state": "Madhya Pradesh", 
  "address": "G-3 , Ground Floor DD Mall", 
  "landmark": "", 
  "sublocality": "MLB Road"
 }, 
 {
  "city": "Nellore", 
  "name": "Reebok Exclusive Store - Nellore", 
  "locality": "Mini Bypass Road", 
  "pincode": "524002", 
  "state": "Andhra Pradesh", 
  "address": "CAS 277/1 , Ramamurthy Nagar , Mini Bypass Road", 
  "landmark": "", 
  "sublocality": "Mini Bypass Road"
 }, 
 {
  "city": "Burdwan", 
  "name": "Reebok Exclusive Store - Burdwan", 
  "locality": "Natraj Hotel", 
  "pincode": "713101", 
  "state": "West Bengal", 
  "address": "52 & 53 , G T Road  Burdwan , Natraj Hotel", 
  "landmark": "", 
  "sublocality": "G T Road"
 }, 
 {
  "city": "Ratlam", 
  "name": "Reebok Exclusive Store - Ratlam", 
  "locality": "Sita Vatika Station Road", 
  "pincode": "457001", 
  "state": "Madhya Pradesh", 
  "address": "1 , 2 , Sita Vatika Station Road", 
  "landmark": "", 
  "sublocality": "Station Road"
 }, 
 {
  "city": "Muzaffarpur", 
  "name": "Reebok Exclusive Store - Muzaffarpur", 
  "locality": "NH 28", 
  "pincode": "842001", 
  "state": "Bihar", 
  "address": "NH 28", 
  "landmark": "Near Tilak Maidan ", 
  "sublocality": "National Highway 28"
 }, 
 {
  "city": "Kolkata", 
  "name": "Reebok Exclusive Store - Diamond Road Kolkata", 
  "locality": "Diamond Harbour Road", 
  "pincode": "700034", 
  "state": "West Bengal", 
  "address": "505 , Diamond Harbour Road", 
  "landmark": "", 
  "sublocality": "Diamond Harbour Road"
 }, 
 {
  "city": "Kolkata", 
  "name": "Reebok Exclusive Store - Rashbehari", 
  "locality": "Ashutosh Mukherjee Road", 
  "pincode": "700025", 
  "state": "West Bengal", 
  "address": "110 , Ashutosh Mukherjee Road", 
  "landmark": "", 
  "sublocality": "Ashutosh Mukherjee Road"
 }, 
 {
  "city": "Kolkata", 
  "name": "Reebok Exclusive Store - Rainbow Garia", 
  "locality": "Gitanjali Metro Station", 
  "pincode": "700047", 
  "state": "West Bengal", 
  "address": "271 , N S C Bose Road , Gitanjali Metro Station", 
  "landmark": "", 
  "sublocality": "Netaji Subhash Chandra Bose Road"
 }, 
 {
  "city": "Kolkata", 
  "name": "Reebok Fit Hub - South City Performance", 
  "locality": "Shop No S115", 
  "pincode": "700068", 
  "state": "West Bengal", 
  "address": "375 Prince Anwar Saha Road , South City Mall , Shop No S115", 
  "landmark": "", 
  "sublocality": "Prince Anwar Shah Road"
 }, 
 {
  "city": "Kolkata", 
  "name": "Reebok Exclusive Store - Camac", 
  "locality": "7 B Middleton Street (Opp Vardhan Market)", 
  "pincode": "700071", 
  "state": "West Bengal", 
  "address": "7 B Middleton Street (Opp Vardhan Market)", 
  "landmark": "", 
  "sublocality": "Middleton Street"
 }, 
 {
  "city": "Kolkata", 
  "name": "Reebok Exclusive Store - Benfoco", 
  "locality": "15/3 Chowringhee Road (Below Grand Hotel)", 
  "pincode": "700013", 
  "state": "West Bengal", 
  "address": "15/3 Chowringhee Road (Below Grand Hotel)", 
  "landmark": "", 
  "sublocality": "Chowringhee Road 15/3"
 }, 
 {
  "city": "Kolkata", 
  "name": "Reebok Exclusive Store - Mayur Brabourne Road", 
  "locality": "2/1  Old Court House Corner", 
  "pincode": "700001", 
  "state": "West Bengal", 
  "address": "2/1  Old Court House Corner", 
  "landmark": "", 
  "sublocality": "Brabourne Road"
 }, 
 {
  "city": "Kolkata", 
  "name": "Reebok Exclusive Store - Vivekananda Road", 
  "locality": "Shibani Market ,Vivekananda Road", 
  "pincode": "700006", 
  "state": "West Bengal", 
  "address": "Shibani Market ,Vivekananda Road", 
  "landmark": "", 
  "sublocality": "Vivekananda Road"
 }, 
 {
  "city": "Kolkata", 
  "name": "Reebok Factory Outlet - BT Road", 
  "locality": "36 C BT Road ", 
  "pincode": "700002", 
  "state": "West Bengal", 
  "address": "36 C BT Road ", 
  "landmark": " Opposite Rabindra Bharti", 
  "sublocality": "BT Road"
 }, 
 {
  "city": "Kolkata", 
  "name": "Reebok Exclusive Store  - Attitude", 
  "locality": "Scheme 7M", 
  "pincode": "700054", 
  "state": "West Bengal", 
  "address": "P157/1 VIP Road , Scheme 7M", 
  "landmark": "", 
  "sublocality": "VIP Road"
 }, 
 {
  "city": "Kolkata", 
  "name": "Reebok Fit Hub - City Centre 1 , CS Retail", 
  "locality": "City Centre Mall Salt Lake", 
  "pincode": "700064", 
  "state": "West Bengal", 
  "address": "Shop Number 51 & 52 , Block F , City Centre Mall Salt Lake", 
  "landmark": "", 
  "sublocality": "3rd Avenue"
 }, 
 {
  "city": "Chandannagar", 
  "name": "Reebok Exclusive Store - Pixel Chandannagar", 
  "locality": "Bag Bazar Station Road (Hoogly)", 
  "pincode": "712136", 
  "state": "West Bengal", 
  "address": "38 , Bag Bazar Station Road (Hoogly)", 
  "landmark": "", 
  "sublocality": "Station Road"
 }, 
 {
  "city": "Kolkata", 
  "name": "Reebok Fit Hub - Fundamental City - Kolkata", 
  "locality": "Rajarhat", 
  "pincode": "700156", 
  "state": "West Bengal", 
  "address": "City Centre , New Town , Rajarhat", 
  "landmark": "", 
  "sublocality": "Major Arterial Road"
 }, 
 {
  "city": "Bhagalpur", 
  "name": "Reebok Exclusive Store - Bhagalpur", 
  "locality": "Khalifa Bag", 
  "pincode": "812001", 
  "state": "Bihar", 
  "address": "Dr. Rajendra Prasad Road , Khalifa Bag", 
  "landmark": "", 
  "sublocality": "Dr Rajendra Prasad Road"
 }, 
 {
  "city": "Kota", 
  "name": "Reebok Fit Hub - City Mall, Kota", 
  "locality": "Jhalawar Road", 
  "pincode": "324007", 
  "state": "Rajasthan", 
  "address": "10, City Mall  , Jhalawar Road", 
  "landmark": "", 
  "sublocality": "Jhalawar Road"
 }, 
 {
  "city": "Kalyani", 
  "name": "Reebok Exclusive Store - Kalyani", 
  "locality": "B12/17 (S) Central Park ,Kalyani", 
  "pincode": "741235", 
  "state": "West Bengal", 
  "address": "B12/17 (S) Central Park ,Kalyani", 
  "landmark": "", 
  "sublocality": "B-12 Diagonal Road"
 }, 
 {
  "city": "Kota", 
  "name": "Reebok Exclusive Store - Kota 2", 
  "locality": "Aerodram Circle", 
  "pincode": "324007", 
  "state": "Rajasthan", 
  "address": "393 , Aerodram Circle", 
  "landmark": "", 
  "sublocality": "Rawatbhata Road"
 }, 
 {
  "city": "Cuddapa", 
  "name": "Reebok Exclusive Store - Cuddapa", 
  "locality": "1/221 - 1 ITI College Railway Station Road", 
  "pincode": "516004", 
  "state": "Andhra Pradesh", 
  "address": "1/221 - 1 ITI College Railway Station Road", 
  "landmark": "", 
  "sublocality": "Railway Station Road"
 }, 
 {
  "city": "Anantpur", 
  "name": "Reebok Factory Outlet - Anantpur", 
  "locality": "Subhash Road", 
  "pincode": "515001", 
  "state": "Andhra Pradesh", 
  "address": "8/47 & 48 , New Town , Subhash Road", 
  "landmark": "", 
  "sublocality": "Subhash Road"
 }, 
 {
  "city": "Fatehabad", 
  "name": "Reebok Fit Hub - GT Road Fatehabad", 
  "locality": "Fatehabad", 
  "pincode": "125050", 
  "state": "Haryana", 
  "address": "G T Road , Fatehabad", 
  "landmark": "Near Union Bank of India ", 
  "sublocality": "G T Road"
 }, 
 {
  "city": "Agra", 
  "name": "Reebok Exclusive Store - MG Road Agra", 
  "locality": "M G Road", 
  "pincode": "282002", 
  "state": "Uttar Pradesh", 
  "address": "G 4&5 , Rajendra Point , M G Road", 
  "landmark": "", 
  "sublocality": "M G Road"
 }, 
 {
  "city": "Varanasi", 
  "name": "Reebok Exclusive Store - Lahurabir", 
  "locality": "10 ,Lahurabir", 
  "pincode": "221001", 
  "state": "Uttar Pradesh", 
  "address": "10 ,Lahurabir", 
  "landmark": "", 
  "sublocality": "St Kabir Road"
 }, 
 {
  "city": "Nashik", 
  "name": "Reebok Exclusive Store - College Road", 
  "locality": "G - 3 ", 
  "pincode": "422005", 
  "state": "Maharashtra", 
  "address": "SK Open Mall , G - 3 ", 
  "landmark": "Next To Big Bazar", 
  "sublocality": "College Road"
 }, 
 {
  "city": "Pune", 
  "name": "Reebok Fit Hub - JM Road Flag", 
  "locality": "JM Road", 
  "pincode": "411004", 
  "state": "Maharashtra", 
  "address": "1205/Mangalya Building , JM Road", 
  "landmark": "", 
  "sublocality": "JM Road"
 }, 
 {
  "city": "Pune", 
  "name": "Reebok Factory Outlet - Pimpri", 
  "locality": "Kamal Cross Road", 
  "pincode": "400018", 
  "state": "Maharashtra", 
  "address": "11 , Kamal Cross Road", 
  "landmark": "", 
  "sublocality": "Kamal Cross Road"
 }, 
 {
  "city": "Pune", 
  "name": "Reebok Exclusive Store - Inorbit Pune", 
  "locality": "Nagar Road", 
  "pincode": "410014", 
  "state": "Maharashtra", 
  "address": "Shop Number 7 , Nagar Road", 
  "landmark": "", 
  "sublocality": "Nagar Road"
 }, 
 {
  "city": "Pune", 
  "name": "Reebok Exclusive Store - Phoenix Pune", 
  "locality": "Nagar Road", 
  "pincode": "410014", 
  "state": "Maharashtra", 
  "address": "Shop Number G - 24 , Nagar Road", 
  "landmark": "", 
  "sublocality": "Nagar Road"
 }, 
 {
  "city": "Pune", 
  "name": "Reebok Exclusive Store - Elite Pimpri", 
  "locality": "Chinchwad", 
  "pincode": "411019", 
  "state": "Maharashtra", 
  "address": "3 , Plot Number 4510 , Premier Plaza , Chinchwad", 
  "landmark": "", 
  "sublocality": "Old Mumbai Pune Highway"
 }, 
 {
  "city": "Pune", 
  "name": "Reebok Exclusive Store - Aundh", 
  "locality": "Aundh", 
  "pincode": "411007", 
  "state": "Maharashtra", 
  "address": "3 & 4 , Parihar Chowk , Aundh", 
  "landmark": "", 
  "sublocality": "DP Road"
 }, 
 {
  "city": "Pune", 
  "name": "Reebok Exclusive Store - Kothrud", 
  "locality": "Karishma Society ", 
  "pincode": "411029", 
  "state": "Maharashtra", 
  "address": "37 , 38 , Karishma Society ", 
  "landmark": "Near Sangam Press", 
  "sublocality": "Sangam Press Road"
 }, 
 {
  "city": "Malda", 
  "name": "Reebok Exclusive Store - Rainbow Malda", 
  "locality": "National Highway 34", 
  "pincode": "732101", 
  "state": "West Bengal", 
  "address": "Ward Number 19 , Vivekananda Pally Sukanto More , National Highway 34", 
  "landmark": "", 
  "sublocality": "National Highway 34"
 }, 
 {
  "city": "Chennai", 
  "name": "Reebok Factory Outlet - Egmore", 
  "locality": "Egmore", 
  "pincode": "600008", 
  "state": "Tamil Nadu", 
  "address": "26 , Casa Major Road , Egmore", 
  "landmark": "", 
  "sublocality": "Casa Major Road"
 }, 
 {
  "city": "Chennai", 
  "name": "Reebok Fit Hub - Nelson Manickam Road", 
  "locality": "Nelson Manickam Road", 
  "pincode": "600029", 
  "state": "Tamil Nadu", 
  "address": "122 ,, Nelson Manickam Road", 
  "landmark": " Opportunity Towers ", 
  "sublocality": "Nelson Manickam Road"
 }, 
 {
  "city": "Chennai", 
  "name": "Reebok Fit Hub - Nungambakkam", 
  "locality": "Nungambakkam", 
  "pincode": "600034", 
  "state": "Tamil Nadu", 
  "address": "91 , Uttamar Gandhi Salai, Nungambakkam", 
  "landmark": "", 
  "sublocality": "Nungambakkam High Road"
 }, 
 {
  "city": "Chennai", 
  "name": "Reebok Fit Hub - Express Avenue Mall", 
  "locality": "Royapettah", 
  "pincode": "600014", 
  "state": "Tamil Nadu", 
  "address": "Shop Number S 265 , Express Avenue , L 49 - 50 , Whites Road , Royapettah", 
  "landmark": "", 
  "sublocality": "Whites Road"
 }, 
 {
  "city": "Chennai", 
  "name": "Reebok Exclusive Store - KK Nagar", 
  "locality": "West KK Nagar", 
  "pincode": "600078", 
  "state": "Tamil Nadu", 
  "address": "1065, Munuswamy Salai, West KK Nagar", 
  "landmark": "", 
  "sublocality": "Munuswamy Salai"
 }, 
 {
  "city": "Chennai", 
  "name": "Reebok Fit Hub - Forum Chennai", 
  "locality": "Vadapalani", 
  "pincode": "600026", 
  "state": "Tamil Nadu", 
  "address": "201 A , Second Floor , Forum Vijaya Mall , 183 , NSK Salai, Vadapalani", 
  "landmark": "", 
  "sublocality": "Arcot Road"
 }, 
 {
  "city": "Chennai", 
  "name": "Reebok Fit Hub - TTK Road-2", 
  "locality": "TTK Road ", 
  "pincode": "600018", 
  "state": "Tamil Nadu", 
  "address": "New Number 554 , TTK Road ", 
  "landmark": "Near Park Sheraton", 
  "sublocality": "TTK Road"
 }, 
 {
  "city": "Chennai", 
  "name": "Reebok Fit Hub - T Nagar", 
  "locality": "T Nagar", 
  "pincode": "600017", 
  "state": "Tamil Nadu", 
  "address": "Number 117 , Citi Towers , Thiyagaraya Road , T Nagar", 
  "landmark": "", 
  "sublocality": "Thiyagaraya Road"
 }, 
 {
  "city": "Kolhapur", 
  "name": "Reebok Exclusive Store - Kolhapur", 
  "locality": "Tarabai Park", 
  "pincode": "410006", 
  "state": "Maharashtra", 
  "address": "Shop Number 37 , Tarabai Park", 
  "landmark": "", 
  "sublocality": "Station Road"
 }, 
 {
  "city": "Chennai", 
  "name": "Reebok Fit Hub - Besant Nagar", 
  "locality": "Besant Nagar", 
  "pincode": "600090", 
  "state": "Tamil Nadu", 
  "address": "T-15/1 , 6Th Avenue , Besant Nagar", 
  "landmark": "", 
  "sublocality": "6th Avenue"
 }, 
 {
  "city": "Tirupati", 
  "name": "Reebok Exclusive Store - Tirupati", 
  "locality": "Chittor", 
  "pincode": "517501", 
  "state": "Andhra Pradesh", 
  "address": "Shop Number 4 & 5 , Panchamukhi Complex , Krishnapuram Thana , Tirupathi , Chittor", 
  "landmark": "", 
  "sublocality": "Chittoor Ponnai Road"
 }, 
 {
  "city": "Chennai", 
  "name": "Reebok Fit Hub - Phoenix Chennai", 
  "locality": "Velachery", 
  "pincode": "600042", 
  "state": "Tamil Nadu", 
  "address": "G-61, Lower Ground Floor, Phoenix Market City Mall,Number 142, Velachery Main Road, Velachery", 
  "landmark": "", 
  "sublocality": "Velachery Main Road"
 }, 
 {
  "city": "Chennai", 
  "name": "Reebok Factory Outlet - ECR - 2", 
  "locality": "Injambakkam", 
  "pincode": "600041", 
  "state": "Tamil Nadu", 
  "address": "1 , VOC Street , East Coast Road , Injambakkam", 
  "landmark": "", 
  "sublocality": "East Coast Road"
 }, 
 {
  "city": "Baroda", 
  "name": "Reebok Factory Outlet - More Mall", 
  "locality": "Manjalpura", 
  "pincode": "390011", 
  "state": "Gujarat", 
  "address": "T - 8 , Plot No.151 ,T P Scheme No.19, Padmatex Compound, Manjalpura", 
  "landmark": "Near Lalbaugh Crossing", 
  "sublocality": "Lalbaug Bridge"
 }, 
 {
  "city": "Aligarh", 
  "name": "Reebok Exclusive Store - Ramghat Road", 
  "locality": "Shop Number 3/255 - Ramghat Road", 
  "pincode": "202001", 
  "state": "Uttar Pradesh", 
  "address": "Shop Number 3/255 - Ramghat Road", 
  "landmark": "", 
  "sublocality": "Ramghat Road"
 }, 
 {
  "city": "Baroda", 
  "name": "Reebok Exclusive Store - Kshitij Mall Baroda", 
  "locality": "Kshitij Mall ", 
  "pincode": "390007", 
  "state": "Gujarat", 
  "address": "9 , Kshitij Mall ", 
  "landmark": "Near Genda Circle", 
  "sublocality": "Gorwa Road"
 }, 
 {
  "city": "Hubli", 
  "name": "Reebok Exclusive Store - Hubli", 
  "locality": "Koppikar Road", 
  "pincode": "580020", 
  "state": "Karnataka", 
  "address": "2538 , Koppikar Road", 
  "landmark": "", 
  "sublocality": "Koppikar Road"
 }, 
 {
  "city": "Vellore", 
  "name": "Reebok Fit Hub - Vellore", 
  "locality": "Thiyagarajapuram", 
  "pincode": "632001", 
  "state": "Tamil Nadu", 
  "address": "Number 73 , Anna Salai (Officers Line) , Thiyagarajapuram", 
  "landmark": "", 
  "sublocality": "Sankaranpalayam Road"
 }, 
 {
  "city": "Jaipur", 
  "name": "Reebok Fit Hub - Tonk Road-Jaipur", 
  "locality": "Tonk Road", 
  "pincode": "302018", 
  "state": "Rajasthan", 
  "address": "Shop Number 13 & 14 ,, Ram Nagar Yojana , Tonk Road", 
  "landmark": " Opposite Glass Factory ", 
  "sublocality": "Tonk Road"
 }, 
 {
  "city": "Surat", 
  "name": "Reebok Exclusive Store - Parle Point", 
  "locality": "Parle Point Circle", 
  "pincode": "395007", 
  "state": "Gujarat", 
  "address": "3 , Manav Mandir , Parle Point Circle", 
  "landmark": "", 
  "sublocality": "Ved Road"
 }, 
 {
  "city": "Mumbai", 
  "name": "Reebok Fit Hub - Korum Mall", 
  "locality": "Korum Mall ,,Thane (W)", 
  "pincode": "400606", 
  "state": "Maharashtra", 
  "address": "26 , Korum Mall ,,Thane (W)", 
  "landmark": " Opposite Eastern Express Highway ", 
  "sublocality": "Eastern Express Highway"
 }, 
 {
  "city": "Mumbai", 
  "name": "Reebok Fit Hub - Vivacity Mumbai", 
  "locality": "Eastern Express Highway ,Thane (W)", 
  "pincode": "400606", 
  "state": "Maharashtra", 
  "address": "16 , Viviana Mall , Eastern Express Highway ,Thane (W)", 
  "landmark": "Near Jupiter Hospital ", 
  "sublocality": "Eastern Express Highway"
 }, 
 {
  "city": "Surat", 
  "name": "Reebok Exclusive Store - Iscon Mall Surat", 
  "locality": "Dumas Road,", 
  "pincode": "395007", 
  "state": "Gujarat", 
  "address": "102-103, Iscon Mall, Dumas Road,", 
  "landmark": " Opposite Raj Hans Theater", 
  "sublocality": "Dumas Road"
 }, 
 {
  "city": "Surat", 
  "name": "Reebok Fit Hub - Virtuous Mall,Surat", 
  "locality": "Dumas Road", 
  "pincode": "395007", 
  "state": "Gujarat", 
  "address": "Shop No-105, First Floor, Virtuous Mall, Dumas Road", 
  "landmark": "", 
  "sublocality": "Dumas Road"
 }, 
 {
  "city": "Mumbai", 
  "name": "Reebok Fit Hub - Inorbit Vashi", 
  "locality": "Navi Mumbai", 
  "pincode": "400705", 
  "state": "Maharashtra", 
  "address": "Unit S - 4 , Second Floor , Inorbit Mall , Plot Number 39/1 , Sector 30 ,Vashi , Navi Mumbai", 
  "landmark": "", 
  "sublocality": "Pal Beach Road"
 }, 
 {
  "city": "Jaipur", 
  "name": "Reebok Fit Hub - MI Road", 
  "locality": "MI Road", 
  "pincode": "302001", 
  "state": "Rajasthan", 
  "address": "1-4 , Ganesham First,, MI Road", 
  "landmark": " Opposite Standard Chartered Bank ", 
  "sublocality": "MI Road"
 }, 
 {
  "city": "Jaipur", 
  "name": "Reebok Fit Hub - MGF Perfomance", 
  "locality": "22 Godam Circle", 
  "pincode": "302001", 
  "state": "Rajasthan", 
  "address": "22 Godam Circle", 
  "landmark": "", 
  "sublocality": "Sardar Patel Road"
 }, 
 {
  "city": "Udaipur", 
  "name": "Reebok Fit Hub - Celebration Mall - Udaipur", 
  "locality": "Bhuwana", 
  "pincode": "313004", 
  "state": "Rajasthan", 
  "address": "Shop Number 4 , First Floor , The Celebration Mall , Bhuwana", 
  "landmark": "", 
  "sublocality": "National Highway 8"
 }, 
 {
  "city": "Anand", 
  "name": "Reebok Factory Outlet - Vidhyanagar", 
  "locality": "Grid Crossing Circle ", 
  "pincode": "388001", 
  "state": "Gujarat", 
  "address": "G - 2 , Shree Ram Shikhar Complex , Grid Crossing Circle ", 
  "landmark": "Near Bus Stand", 
  "sublocality": "State Highway 75"
 }, 
 {
  "city": "Jaipur", 
  "name": "Reebok Factory Outlet - Ajmer Road", 
  "locality": "Tagore Nagar ", 
  "pincode": "302021", 
  "state": "Rajasthan", 
  "address": "130 - 132 , Tagore Nagar ", 
  "landmark": "Near DCM Ajmer Road", 
  "sublocality": "Ajmer Road"
 }, 
 {
  "city": "Mumbai", 
  "name": "Reebok Fit Hub - Infiniti Andheri", 
  "locality": "Andheri (W)", 
  "pincode": "400056", 
  "state": "Maharashtra", 
  "address": "Unit Number - 115 , First Floor , Infiniti Mall , Link Road , Andheri (W)", 
  "landmark": "", 
  "sublocality": "Link Road"
 }, 
 {
  "city": "Jaipur", 
  "name": "Reebok Exclusive Store - Chitrakut", 
  "locality": "Vaishali Nagar", 
  "pincode": "302021", 
  "state": "Rajasthan", 
  "address": "17 , Nursery Circle , Vaishali Nagar", 
  "landmark": "", 
  "sublocality": "Amrapali Marg"
 }, 
 {
  "city": "Jaipur", 
  "name": "Reebok Exclusive Store - Suncity Jaipur", 
  "locality": "Sun City Jaipur", 
  "pincode": "302012", 
  "state": "Rajasthan", 
  "address": "Triton Mall , Sun City Jaipur", 
  "landmark": "", 
  "sublocality": "Jhotwara Road"
 }, 
 {
  "city": "Mumbai", 
  "name": "Reebok Exclusive Store - R City Ghatkopar", 
  "locality": "West Ghatkopar", 
  "pincode": "400083", 
  "state": "Maharashtra", 
  "address": "Unit Number Gl , R - City Mall , lBS Road , West Ghatkopar", 
  "landmark": "", 
  "sublocality": "IBS Road"
 }, 
 {
  "city": "Alwar", 
  "name": "Reebok Fit Hub - Lajpat Nagar - Alwar", 
  "locality": "Scheme 2", 
  "pincode": "301001", 
  "state": "Rajasthan", 
  "address": "31 Lajpat Nagar Saroj Tower , Scheme 2", 
  "landmark": "", 
  "sublocality": "Bhagat Singh Circle"
 }, 
 {
  "city": "Mumbai", 
  "name": "Reebok Exclusive Store - Borivali", 
  "locality": "Borivali(W)", 
  "pincode": "400092", 
  "state": "Maharashtra", 
  "address": "Shop Number 1-24 , 25 , Anjana Co-operative Society , Plot Number 796 SV Road , Shimpoli Corner , Borivali(W)", 
  "landmark": "", 
  "sublocality": "Shimpoli Road"
 }, 
 {
  "city": "Mumbai", 
  "name": "Reebok Fit Hub - New Colaba", 
  "locality": "Shahid Bhagat Singh ,Colaba", 
  "pincode": "400039", 
  "state": "Maharashtra", 
  "address": "25 Nawaz Mansion , Shahid Bhagat Singh ,Colaba", 
  "landmark": "", 
  "sublocality": "Shahid Bhagat Singh Marg"
 }, 
 {
  "city": "Mumbai", 
  "name": "Reebok Factory Outlet - Kala Kendra", 
  "locality": "Malad West", 
  "pincode": "400064", 
  "state": "Maharashtra", 
  "address": "Shop Number 40-44 , Babuline Complex , SV Road , Malad West", 
  "landmark": "", 
  "sublocality": "S V Road"
 }, 
 {
  "city": "Mumbai", 
  "name": "Reebok Factory Outlet - Laxmi Industrial", 
  "locality": "Andheri West", 
  "pincode": "400053", 
  "state": "Maharashtra", 
  "address": "29/B , Laxmi Industrial Estate , New Link Road , Andheri West", 
  "landmark": "", 
  "sublocality": "New Link Road"
 }, 
 {
  "city": "Mumbai", 
  "name": "Reebok Fit Hub - Infiniti( Malad)", 
  "locality": "Malad(W)", 
  "pincode": "400064", 
  "state": "Maharashtra", 
  "address": "226 , Second Floor , Infiniti Mall , Link Road , Malad(W)", 
  "landmark": "Near Goregaon Sports Club ", 
  "sublocality": "Link Road"
 }, 
 {
  "city": "Mumbai", 
  "name": "Reebok Fit Hub - New Linking Road", 
  "locality": "Khar(W)", 
  "pincode": "400052", 
  "state": "Maharashtra", 
  "address": "Shop Number 1,2,3,4 , Ram Krishna Chambers ,Linking Road , Khar(W)", 
  "landmark": "", 
  "sublocality": "Linking Road"
 }, 
 {
  "city": "Mumbai", 
  "name": "Reebok Exclusive Store - Parel", 
  "locality": "Parel", 
  "pincode": "400012", 
  "state": "Maharashtra", 
  "address": "Shop Number 4 - 8 , Habib Mansion , Dr. Ambedkar Road, Parel", 
  "landmark": "near ITC Grand Central  Hotel ", 
  "sublocality": "Dr Ambedkar Road"
 }, 
 {
  "city": "Mumbai", 
  "name": "Reebok Fit Hub - Mazgaon", 
  "locality": "Byculla", 
  "pincode": "400010", 
  "state": "Maharashtra", 
  "address": "228 , Mount Road , Mazgaon , Byculla", 
  "landmark": "", 
  "sublocality": "Mount Road"
 }, 
 {
  "city": "Mumbai", 
  "name": "Reebok Fit Hub - Phoenix", 
  "locality": "Skyzone Phase - 2 Lower Parel", 
  "pincode": "400013", 
  "state": "Maharashtra", 
  "address": "S2 , Unit Number 17 , High Street Phoenix , Skyzone Phase - 2 Lower Parel", 
  "landmark": "", 
  "sublocality": "Senapati Bapat Marg"
 }, 
 {
  "city": "Jaipur", 
  "name": "Reebok Factory Outlet - Highway King", 
  "locality": "Hotel Highway King", 
  "pincode": "303106", 
  "state": "Rajasthan", 
  "address": "Hotel Highway King", 
  "landmark": "Near Bhabhru Gaon ", 
  "sublocality": "Ajmer Highway"
 }, 
 {
  "city": "Bangalore", 
  "name": "Reebok Exclusive Store - Esteem Mall", 
  "locality": "Kempapura Main Road", 
  "pincode": "560024", 
  "state": "Karnataka", 
  "address": "G5 , Esteem Mall , Kempapura Main Road", 
  "landmark": "", 
  "sublocality": "Kempapura Main Road"
 }, 
 {
  "city": "Bangalore", 
  "name": "Reebok Fit Hub - Phoenix Mall", 
  "locality": "F - 362nd Floor Phoenix Mall", 
  "pincode": "560048", 
  "state": "Karnataka", 
  "address": "F - 362nd Floor Phoenix Mall", 
  "landmark": "", 
  "sublocality": "ITPL Main Road"
 }, 
 {
  "city": "Bangalore", 
  "name": "Reebok Factory Outlet - Forum Value Mall", 
  "locality": "Nr Varthur Hoodi Circle", 
  "pincode": "560066", 
  "state": "Karnataka", 
  "address": "Shop No 5 & 6 , Forum Value Mall , No 62 , Whitefield Main Road , Nr Varthur Hoodi Circle", 
  "landmark": "", 
  "sublocality": "Whitefield Main Road"
 }, 
 {
  "city": "Bangalore", 
  "name": "Reebok Exclusive Store - Kammanahalli", 
  "locality": "Kalyan Nagar", 
  "pincode": "560043", 
  "state": "Karnataka", 
  "address": "4AC - 401 , Kamanahalli Main Road , I Block , Hrbr Layout , Kalyan Nagar", 
  "landmark": "", 
  "sublocality": "Kammanahalli Main Road"
 }, 
 {
  "city": "Bangalore", 
  "name": "Reebok Fit Hub - RT Nagar", 
  "locality": "Gangenahalli Layout", 
  "pincode": "560032", 
  "state": "Karnataka", 
  "address": "8, 80 Feet Road , HMT Layout V V Nagar , R T Nagar , Gangenahalli Layout", 
  "landmark": "", 
  "sublocality": "80 Feet Road"
 }, 
 {
  "city": "Bangalore", 
  "name": "Reebok Fit Hub - Bel Road", 
  "locality": "Bel Road", 
  "pincode": "560094", 
  "state": "Karnataka", 
  "address": "9 , Bel Road", 
  "landmark": "", 
  "sublocality": "Bel Road"
 }, 
 {
  "city": "Bangalore", 
  "name": "Reebok Factory Outlet - Marathahalli", 
  "locality": "Varthur Road", 
  "pincode": "560037", 
  "state": "Karnataka", 
  "address": "Marathahalli Main Road, Varthur Road", 
  "landmark": "", 
  "sublocality": "Varthur Road"
 }, 
 {
  "city": "Bangalore", 
  "name": "Reebok Factory Outlet - Marathahalli 2", 
  "locality": "Marathalli Extension", 
  "pincode": "560037", 
  "state": "Karnataka", 
  "address": "Maruthi Complex , Marathalli Extension", 
  "landmark": "", 
  "sublocality": "Old Airport Road"
 }, 
 {
  "city": "Bangalore", 
  "name": "Reebok Fit Hub - Indira Nagar", 
  "locality": "Indiranagar", 
  "pincode": "560038", 
  "state": "Karnataka", 
  "address": "2016, 100 Feet Road, HAL , 2nd Stage, Indiranagar", 
  "landmark": "", 
  "sublocality": "100 Feet Road"
 }, 
 {
  "city": "Kishangarh", 
  "name": "Reebok Exclusive Store - Kishangarh Highway", 
  "locality": "Hotel Royal Amar ", 
  "pincode": "305801", 
  "state": "Rajasthan", 
  "address": "Hotel Royal Amar ", 
  "landmark": "Near GVK Toll Plaza", 
  "sublocality": "Kishangarh Highway"
 }, 
 {
  "city": "Bangalore", 
  "name": "Reebok Fit Hub - Commercial Street", 
  "locality": "144 Commercial Street", 
  "pincode": "560001", 
  "state": "Karnataka", 
  "address": "144 Commercial Street", 
  "landmark": "", 
  "sublocality": "Commercial Street"
 }, 
 {
  "city": "Bangalore", 
  "name": "Reebok Exclusive Store - Mantri Mall-Kids", 
  "locality": "Second Floor Mantri Mall - Kids", 
  "pincode": "560003", 
  "state": "Karnataka", 
  "address": "S - 21 , Second Floor Mantri Mall - Kids", 
  "landmark": "", 
  "sublocality": "Sampige Road"
 }, 
 {
  "city": "Bangalore", 
  "name": "Reebok Factory Outlet - Malleswaram", 
  "locality": "Malleshwaram", 
  "pincode": "560003", 
  "state": "Karnataka", 
  "address": "34 , First Cross , Sampige Road , Malleshwaram", 
  "landmark": "", 
  "sublocality": "Sampige Road"
 }, 
 {
  "city": "Bangalore", 
  "name": "Reebok Fit Hub - Orion Mall Bangalore", 
  "locality": "UG 142nd Floor Brigade Orion Mall", 
  "pincode": "560055", 
  "state": "Karnataka", 
  "address": "UG 142nd Floor Brigade Orion Mall", 
  "landmark": "", 
  "sublocality": "Infantry Road"
 }, 
 {
  "city": "Bangalore", 
  "name": "Reebok Fit Hub - Brigade Road", 
  "locality": "198 Brigade Road", 
  "pincode": "560001", 
  "state": "Karnataka", 
  "address": "198 Brigade Road", 
  "landmark": "", 
  "sublocality": "Brigade Road"
 }, 
 {
  "city": "Bangalore", 
  "name": "Reebok Fit Hub - Garuda", 
  "locality": "Garuda Mall", 
  "pincode": "560025", 
  "state": "Karnataka", 
  "address": "205 , Second Floor , Garuda Mall", 
  "landmark": "", 
  "sublocality": "Magrath Road"
 }, 
 {
  "city": "Bangalore", 
  "name": "Reebok Fit Hub - Residency Road", 
  "locality": "50 Cariappa Road", 
  "pincode": "560025", 
  "state": "Karnataka", 
  "address": "50 Cariappa Road", 
  "landmark": "", 
  "sublocality": "Residency Road"
 }, 
 {
  "city": "Bangalore", 
  "name": "Reebok Exclusive Store - Baswesvar Nagar", 
  "locality": "WOC Road Baswesvar Nagar", 
  "pincode": "560079", 
  "state": "Karnataka", 
  "address": "323, First Cross, 4Th Block , Third Stage , WOC Road Baswesvar Nagar", 
  "landmark": "", 
  "sublocality": "West of Cord Road"
 }, 
 {
  "city": "Rudrapur", 
  "name": "Reebok Exclusive Store - Matke Wali Gali", 
  "locality": "Matkewali Gali", 
  "pincode": "263153", 
  "state": "Uttar Pradesh", 
  "address": "Netaji Subhash Marg , Matkewali Gali", 
  "landmark": "", 
  "sublocality": "Netaji Subhash Marg"
 }, 
 {
  "city": "Bangalore", 
  "name": "Reebok Fit Hub - Koramangla", 
  "locality": "Koramangala 4Th Block", 
  "pincode": "560034", 
  "state": "Karnataka", 
  "address": "642, 80 Feet Road, Koramangala 4Th Block", 
  "landmark": "", 
  "sublocality": "80 Feet Road"
 }, 
 {
  "city": "Bangalore", 
  "name": "Reebok Fit Hub - Emdee-Forum Mall", 
  "locality": "Hosur Road", 
  "pincode": "560095", 
  "state": "Karnataka", 
  "address": "Shop Number 5 , The Forum , 21 , Hosur Road", 
  "landmark": "", 
  "sublocality": "Hosur Road"
 }, 
 {
  "city": "Ahmedabad", 
  "name": "Reebok Exclusive Store - Maninagar", 
  "locality": "Maninagar", 
  "pincode": "380008", 
  "state": "Gujarat", 
  "address": "3 - 4 , JK Plaza , Maninagar", 
  "landmark": "Near Bank of Baroda ", 
  "sublocality": "Maninagar Road"
 }, 
 {
  "city": "Bangalore", 
  "name": "Reebok Exclusive Store - HSR Layout", 
  "locality": "HSR Layout", 
  "pincode": "560102", 
  "state": "Karnataka", 
  "address": "423 , 27th Main , 1st Sector , HSR Layout", 
  "landmark": "", 
  "sublocality": "27th Main Road"
 }, 
 {
  "city": "Ajmer", 
  "name": "Reebok Fit Hub - Gurdev Ajmer", 
  "locality": "Anand Nagar", 
  "pincode": "305001", 
  "state": "Rajasthan", 
  "address": "5 , Soni Colony , Anand Nagar", 
  "landmark": "", 
  "sublocality": "Ana Sagar Link Road"
 }, 
 {
  "city": "Faridabad", 
  "name": "Reebok Exclusive Store - Ansal Crown Plaza", 
  "locality": "Sector 15A", 
  "pincode": "121007", 
  "state": "Haryana", 
  "address": "G -17 , Sector 15A", 
  "landmark": "", 
  "sublocality": "Shaheed Bhagat Singh Marg"
 }, 
 {
  "city": "Bangalore", 
  "name": "Reebok Fit Hub - Jayanagar-2", 
  "locality": "Jayanagar East", 
  "pincode": "560011", 
  "state": "Karnataka", 
  "address": "No.8 , 11Th Main , 3rd Block , Jayanagar East", 
  "landmark": "", 
  "sublocality": "11th Main Road"
 }, 
 {
  "city": "Bangalore", 
  "name": "Reebok Fit Hub - JP Nagar-2", 
  "locality": "6Th Phase", 
  "pincode": "560078", 
  "state": "Karnataka", 
  "address": "6, 100 Feet Road , J.P.Nagar , 6Th Phase", 
  "landmark": "", 
  "sublocality": "100 Feet Road"
 }, 
 {
  "city": "Bangalore", 
  "name": "Reebok Factory Outlet - Hosur Road", 
  "locality": "Hosur Road", 
  "pincode": "560068", 
  "state": "Karnataka", 
  "address": "505 , Hosur Road", 
  "landmark": "", 
  "sublocality": "Hosur Road"
 }, 
 {
  "city": "Bangalore", 
  "name": "Reebok Exclusive Store - BTM - 2", 
  "locality": "Jayanagar", 
  "pincode": "560069", 
  "state": "Karnataka", 
  "address": "1231/23 , ARS Platina , 25Th A Main , 9Th Block , Jayanagar", 
  "landmark": "", 
  "sublocality": "Marenahalli Road"
 }, 
 {
  "city": "Bangalore", 
  "name": "Reebok Exclusive Store - Raja Rajeshwari", 
  "locality": "Mysore Road", 
  "pincode": "560098", 
  "state": "Karnataka", 
  "address": "G - 3 , Raja Rajeswari Nagar,, Mysore Road", 
  "landmark": " Opposite The Club", 
  "sublocality": "Mysore Road"
 }, 
 {
  "city": "Bangalore", 
  "name": "Reebok Exclusive Store - Banshankari-2", 
  "locality": "Banshankari", 
  "pincode": "560085", 
  "state": "Karnataka", 
  "address": "271 , 100 Feet Ring Road , 5Th  Block , 3rd Stage , Banshankari", 
  "landmark": "", 
  "sublocality": "Outer Ring Road"
 }, 
 {
  "city": "Bangalore", 
  "name": "Reebok Factory Outlet - Gandhi Bazaar", 
  "locality": "Gandhi Bazar", 
  "pincode": "560026", 
  "state": "Karnataka", 
  "address": "DVG Road, 9 Prasad Arcade ,, Gandhi Bazar", 
  "landmark": " Opposite Gokul Restaurant", 
  "sublocality": "DVG Road"
 }, 
 {
  "city": "Ahmedabad", 
  "name": "Reebok Exclusive Store - Paldi", 
  "locality": "Paldi", 
  "pincode": "380007", 
  "state": "Gujarat", 
  "address": "4 , Bhikhubhai Chamber, Paldi", 
  "landmark": "Near Kochrab Aashram ", 
  "sublocality": "Paldi Road"
 }, 
 {
  "city": "Ahmedabad", 
  "name": "Reebok Fit Hub - New CG Road Ahmedabad", 
  "locality": "4D Square Mall ,", 
  "pincode": "380005", 
  "state": "Gujarat", 
  "address": "Shop Number  56 , 57 Ground Floor , 4D Square Mall ,", 
  "landmark": " Opposite Vishvakarma Engineering College", 
  "sublocality": "New CG Road"
 }, 
 {
  "city": "Faridabad", 
  "name": "Reebok Exclusive Store - SRS Faridabad", 
  "locality": "Sector 12", 
  "pincode": "121007", 
  "state": "Haryana", 
  "address": "Shop Number - 4 , Ground Floor , Sector 12", 
  "landmark": "", 
  "sublocality": "Sector 12"
 }, 
 {
  "city": "Ahmedabad", 
  "name": "Reebok Exclusive Store - C G Road", 
  "locality": "Ahmedabad", 
  "pincode": "380009", 
  "state": "Gujarat", 
  "address": "Shopper\u00b4s Plaza, CG Road , Ahmedabad", 
  "landmark": " Opposite Municipal Market ", 
  "sublocality": "C G Road"
 }, 
 {
  "city": "Faridabad", 
  "name": "Reebok Exclusive Store - Sector 15 Faridabad", 
  "locality": "Sector 15", 
  "pincode": "121007", 
  "state": "Haryana", 
  "address": "SCF 58 , Sector 15", 
  "landmark": "", 
  "sublocality": "Sector 15"
 }, 
 {
  "city": "Ahmedabad", 
  "name": "Reebok Exclusive Store - Iscon Mall Ahmedabad", 
  "locality": "S G Highway", 
  "pincode": "380015", 
  "state": "Gujarat", 
  "address": "Unit 5, Lower Ground Floor, Iscon Mega Mall, S G Highway", 
  "landmark": "Near Iskon Temple", 
  "sublocality": "S G Highway"
 }, 
 {
  "city": "Ahmedabad", 
  "name": "Reebok Exclusive Store - Alpha Mall Ahmedabad", 
  "locality": "Alphaone Mall ", 
  "pincode": "380015", 
  "state": "Gujarat", 
  "address": "44 , Alphaone Mall ", 
  "landmark": "Near Vastrapur Lake", 
  "sublocality": "Sarkari Vasahat Road"
 }, 
 {
  "city": "Ahmedabad", 
  "name": "Reebok Exclusive Store - Satellite", 
  "locality": "Shivranjani Crossroad", 
  "pincode": "380015", 
  "state": "Gujarat", 
  "address": "Ground Floor - 12 , Iscon Centre , Shivranjani Crossroad", 
  "landmark": "", 
  "sublocality": "Satyagraha Society Road"
 }, 
 {
  "city": "Faridabad", 
  "name": "Reebok Fit Hub - Crown Interiorz", 
  "locality": "Crown Interiorz Mall", 
  "pincode": "121003", 
  "state": "Haryana", 
  "address": "G-44 , Ground Floor , Crown Interiorz Mall", 
  "landmark": "", 
  "sublocality": "Mathura Road"
 }, 
 {
  "city": "Ahmedabad", 
  "name": "Reebok Factory Outlet - S G Road", 
  "locality": "SG Highway", 
  "pincode": "382210", 
  "state": "Gujarat", 
  "address": "Reebok Shoppe,GF 6 Dev Arc Mall, Nr.Iscon Circle, SG Highway", 
  "landmark": "", 
  "sublocality": "S G Road"
 }, 
 {
  "city": "Moradabad", 
  "name": "Reebok Exclusive Store - Civil Lines, Kanth Road", 
  "locality": "Civil Lines", 
  "pincode": "244001", 
  "state": "Uttar Pradesh", 
  "address": "N Astreetavas Vikas , Civil Lines", 
  "landmark": "", 
  "sublocality": "Kanth Road"
 }, 
 {
  "city": "Gurgaon", 
  "name": "Reebok Exclusive Store - Omaxe Mall", 
  "locality": "Sohna Road", 
  "pincode": "122001", 
  "state": "Haryana", 
  "address": "Ground Floor - 12A , Sohna Road", 
  "landmark": "", 
  "sublocality": "Sohna Road"
 }, 
 {
  "city": "New Delhi", 
  "name": "Reebok Factory Outlet - Lado Sarai", 
  "locality": "Lado\u00a0Sarai", 
  "pincode": "110030", 
  "state": "New Delhi", 
  "address": "F - 328 , MB Road , Lado\u00a0Sarai", 
  "landmark": "", 
  "sublocality": "MB Road"
 }, 
 {
  "city": "Rewari", 
  "name": "Reebok Exclusive Store - Rewari", 
  "locality": "Brass Market", 
  "pincode": "123401", 
  "state": "Haryana", 
  "address": "Shop Number - 25 , Ground Floor , Brass Market", 
  "landmark": "", 
  "sublocality": "Rewari Shahjahanpur Road"
 }, 
 {
  "city": "New Delhi", 
  "name": "Reebok Factory Outlet - Sarita Vihar", 
  "locality": "Main Noida Road", 
  "pincode": "110025", 
  "state": "New Delhi", 
  "address": "G 45, Shaheen Bagh, Abul Fazal Part II, Main Noida Road", 
  "landmark": "", 
  "sublocality": "Road Number 13A"
 }, 
 {
  "city": "Haldwani", 
  "name": "Reebok Exclusive Store - Nainital Road", 
  "locality": "Nainital Road", 
  "pincode": "263139", 
  "state": "Uttar Pradesh", 
  "address": "Opposite Sitapur Eye Hospital , Nainital Road", 
  "landmark": "", 
  "sublocality": "Nainital Road"
 }, 
 {
  "city": "Kashipur", 
  "name": "Reebok Exclusive Store - Kashipur", 
  "locality": "Ramnagar Road", 
  "pincode": "244713", 
  "state": "Uttar Pradesh", 
  "address": "Ramnagar Road", 
  "landmark": "", 
  "sublocality": "Ramnagar Road"
 }, 
 {
  "city": "Kashipur", 
  "name": "Reebok Exclusive Store - Khullar Enterprises", 
  "locality": "N A Street Ramnagar Road", 
  "pincode": "244713", 
  "state": "Uttar Pradesh", 
  "address": "N A Street Ramnagar Road", 
  "landmark": "", 
  "sublocality": "Ramnagar Road"
 }, 
 {
  "city": "Jalpaiguri", 
  "name": "Reebok Exclusive Store - Jaigaon", 
  "locality": "Jaigaon", 
  "pincode": "736182", 
  "state": "West Bengal", 
  "address": "Shah Building , Super Market , N S Road , Jaigaon", 
  "landmark": "", 
  "sublocality": "N S Road"
 }, 
 {
  "city": "Noida", 
  "name": "Reebok Exclusive Store - Unitech LS", 
  "locality": "Sector 38", 
  "pincode": "201301", 
  "state": "Uttar Pradesh", 
  "address": "129 , Unitech Mall , Sector 38", 
  "landmark": "", 
  "sublocality": "Ashok Marg"
 }, 
 {
  "city": "Noida", 
  "name": "Reebok Fit Hub - Unitech", 
  "locality": "Sector 38", 
  "pincode": "201301", 
  "state": "Uttar Pradesh", 
  "address": "59 , Unitech Mall , Sector 38", 
  "landmark": "", 
  "sublocality": "Ashok Marg"
 }, 
 {
  "city": "New Delhi", 
  "name": "Reebok Fit Hub - Select City Walk", 
  "locality": "Saket", 
  "pincode": "110017", 
  "state": "New Delhi", 
  "address": "56 Select City Walk , Saket", 
  "landmark": "", 
  "sublocality": "MGF Saket Driveway"
 }, 
 {
  "city": "Gurgaon", 
  "name": "Reebok Fit Hub - DLF Galleria", 
  "locality": "Phase - 4", 
  "pincode": "122009", 
  "state": "Haryana", 
  "address": "SG - 88 , DLF Galleria , Phase - 4", 
  "landmark": "", 
  "sublocality": "DLF Galleria Road"
 }, 
 {
  "city": "Gurgaon", 
  "name": "Reebok Factory Outlet - Sadar Bazaar - Gurgaon", 
  "locality": "Sector 15", 
  "pincode": "122001", 
  "state": "Haryana", 
  "address": "SCO - 56 , Old Judiciary Complex , Sector 15", 
  "landmark": "", 
  "sublocality": "Jharsa Road"
 }, 
 {
  "city": "Gurgaon", 
  "name": "Reebok Factory Outlet - Sahara Mall", 
  "locality": "104/B1 Sahara Mall", 
  "pincode": "122002", 
  "state": "Haryana", 
  "address": "104/B1 Sahara Mall", 
  "landmark": "", 
  "sublocality": "Mehrauli Gurgaon Road"
 }, 
 {
  "city": "Noida", 
  "name": "Reebok Exclusive Store - Spice Mall", 
  "locality": "Noida", 
  "pincode": "201301", 
  "state": "Uttar Pradesh", 
  "address": "Sector 25 ,, Spice Mall , First Floor , Noida", 
  "landmark": " Opposite Noida Stadium ", 
  "sublocality": "Noida Road"
 }, 
 {
  "city": "Noida", 
  "name": "Reebok Factory Outlet - Noida-Dolly", 
  "locality": "Naya Bans ,,Sector 15", 
  "pincode": "201301", 
  "state": "Uttar Pradesh", 
  "address": "Plot No 504 , Naya Bans ,,Sector 15", 
  "landmark": " Opposite Nirulas Hotel", 
  "sublocality": "DSC Marg"
 }, 
 {
  "city": "Gurgaon", 
  "name": "Reebok Fit Hub - MGF Gurgaon", 
  "locality": "MG Road", 
  "pincode": "122002", 
  "state": "Haryana", 
  "address": "Shop Number 5 & 6 , Ground Floor , MGF Mall , MG Road", 
  "landmark": "", 
  "sublocality": "MG Road"
 }, 
 {
  "city": "Gurgaon", 
  "name": "Reebok Fit Hub - Ambience Mall", 
  "locality": "F - 138", 
  "pincode": "122001", 
  "state": "Haryana", 
  "address": "F - 138", 
  "landmark": "", 
  "sublocality": "Delhi Gurgaon Expressway"
 }, 
 {
  "city": "Gurgaon", 
  "name": "Reebok Exclusive Store - United Sports - Ansal Plaza", 
  "locality": "Ansal Palam Vihar", 
  "pincode": "120017", 
  "state": "Haryana", 
  "address": "Ground Floor 02 , Ground Floor , Ansal Palam Vihar", 
  "landmark": "", 
  "sublocality": "Circular Road"
 }, 
 {
  "city": "Siliguri", 
  "name": "Reebok Fit Hub - Lifestyle Cosmos", 
  "locality": "Sevoke Road", 
  "pincode": "734005", 
  "state": "West Bengal", 
  "address": "Upper Ground Floor Cosmos Mall , Sevoke Road", 
  "landmark": "", 
  "sublocality": "Sevoke Road"
 }, 
 {
  "city": "Ghaziabad", 
  "name": "Reebok Fit Hub - Basic Gaursons", 
  "locality": "RDC Raj Nagar", 
  "pincode": "201002", 
  "state": "Uttar Pradesh", 
  "address": "First Floor - 05 , Gaur Central Mall , RDC Raj Nagar", 
  "landmark": "", 
  "sublocality": "Maharana Pratap Marg"
 }, 
 {
  "city": "New Delhi", 
  "name": "Reebok Fit Hub - Dlf Vasant Kunj", 
  "locality": "Vasant Kunj", 
  "pincode": "110070", 
  "state": "New Delhi", 
  "address": "135/136 ,DLF Promenade Mall , Vasant Kunj", 
  "landmark": "", 
  "sublocality": "Vasant Kunj Mall Road"
 }, 
 {
  "city": "Ghaziabad", 
  "name": "Reebok Exclusive Store - Shipra Mall", 
  "locality": "Shipra Sun City", 
  "pincode": "201014", 
  "state": "Uttar Pradesh", 
  "address": "81/9 , Shipra Sun City", 
  "landmark": "", 
  "sublocality": "Outer Circle"
 }, 
 {
  "city": "Siliguri", 
  "name": "Reebok Fit Hub - CS Retail , Siliguri", 
  "locality": "Matikara", 
  "pincode": "700010", 
  "state": "West Bengal", 
  "address": "Shop Number A0015 , City Centre , Matikara", 
  "landmark": "", 
  "sublocality": "National Highway 31C"
 }, 
 {
  "city": "New Delhi", 
  "name": "Reebok Factory Outlet - Mahipalpur", 
  "locality": "Shop 331 /1 Village Rangpuri Mahipalpur", 
  "pincode": "110037", 
  "state": "New Delhi", 
  "address": "Shop 331 /1 Village Rangpuri Mahipalpur", 
  "landmark": "", 
  "sublocality": "Delhi Gurgaon Expressway"
 }, 
 {
  "city": "New Delhi", 
  "name": "Reebok Factory Outlet - Mahipalpur - Fitness", 
  "locality": "National Highway 8", 
  "pincode": "110037", 
  "state": "New Delhi", 
  "address": "A-1/70,Mahipalpur Extension , National Highway 8", 
  "landmark": "", 
  "sublocality": "National Highway 8"
 }, 
 {
  "city": "New Delhi", 
  "name": "Reebok Exclusive Store - Sarojini Nagar", 
  "locality": "Sarojini Nagar", 
  "pincode": "110023", 
  "state": "New Delhi", 
  "address": "155 , Sarojini Nagar", 
  "landmark": "", 
  "sublocality": "Lane D"
 }, 
 {
  "city": "Ghaziabad", 
  "name": "Reebok Fit Hub - Opulent Mall Ghaziabad", 
  "locality": "Delhi Meerut Road", 
  "pincode": "201002", 
  "state": "Uttar Pradesh", 
  "address": "G -22, Opulent Mall, Delhi Meerut Road", 
  "landmark": "", 
  "sublocality": "Delhi Meerut Road"
 }, 
 {
  "city": "Ghaziabad", 
  "name": "Reebok Exclusive Store - Pacific Mall - Ghaziabad", 
  "locality": "Kaushambi ", 
  "pincode": "201010", 
  "state": "Uttar Pradesh", 
  "address": "F - 37/38 , First Floor , Pacific Mall , Kaushambi ", 
  "landmark": "Near Anand Vihar ISBT", 
  "sublocality": "Dr Burman Marg"
 }, 
 {
  "city": "New Delhi", 
  "name": "Reebok Fit Hub - V3S Mall", 
  "locality": "G - 26 - 27 V3S Mall Luxmi Nagar", 
  "pincode": "110092", 
  "state": "New Delhi", 
  "address": "G - 26 - 27 V3S Mall Luxmi Nagar", 
  "landmark": "", 
  "sublocality": "Vikas Marg"
 }, 
 {
  "city": "New Delhi", 
  "name": "Reebok Fit Hub - CP - D Block", 
  "locality": "Connaught Place", 
  "pincode": "110001", 
  "state": "New Delhi", 
  "address": "D - 7 Inner Circle , Connaught Place", 
  "landmark": "", 
  "sublocality": "Inner Circle"
 }, 
 {
  "city": "New Delhi", 
  "name": "Reebok Factory Outlet - Azad Market", 
  "locality": "Azad Market", 
  "pincode": "110006", 
  "state": "New Delhi", 
  "address": "1830, Noorganj, Rani Jhansi Road, Azad Market", 
  "landmark": "", 
  "sublocality": "Rani Jhansi Road"
 }, 
 {
  "city": "New Delhi", 
  "name": "Reebok Exclusive Store - Dwarka", 
  "locality": "Dwarka", 
  "pincode": "110045", 
  "state": "New Delhi", 
  "address": "G3 & G2 , Manish Corner , Plaza on Ground Floor , Mlu Pocket, Sector - 11 , Dwarka", 
  "landmark": "", 
  "sublocality": "Desh Bandhu Gupta Marg"
 }, 
 {
  "city": "New Delhi", 
  "name": "Reebok Fit Hub - Janak Place", 
  "locality": "Janak Puri", 
  "pincode": "110058", 
  "state": "New Delhi", 
  "address": "G - 10 District Centre , Janak Place , Janak Puri", 
  "landmark": "", 
  "sublocality": "Lal Sai Mandir Marg"
 }, 
 {
  "city": "New Delhi", 
  "name": "Reebok Exclusive Store - West Gate Mall", 
  "locality": "Rajouri Garden", 
  "pincode": "110027", 
  "state": "New Delhi", 
  "address": "17 , Ground Floor , West Gate Mall , Rajouri Garden", 
  "landmark": "", 
  "sublocality": "Ring Road"
 }, 
 {
  "city": "New Delhi", 
  "name": "Reebok Fit Hub - Kamla Nagar", 
  "locality": "Kamla Nagar", 
  "pincode": "110007", 
  "state": "New Delhi", 
  "address": "14 , Bunglow Road , Kamla Nagar", 
  "landmark": "", 
  "sublocality": "Bungalow Road"
 }, 
 {
  "city": "New Delhi", 
  "name": "Reebok Fit Hub - Pacific Mall - Delhi", 
  "locality": "Subhash Nagar", 
  "pincode": "110027", 
  "state": "New Delhi", 
  "address": "Shop Number 21 , Pacific Mall , Subhash Nagar", 
  "landmark": "", 
  "sublocality": "Najafgarh Road"
 }, 
 {
  "city": "New Delhi", 
  "name": "Reebok Exclusive Store - Shakti Nagar", 
  "locality": "Shakti Nagar", 
  "pincode": "110007", 
  "state": "New Delhi", 
  "address": "4A , Shakti Nagar", 
  "landmark": "", 
  "sublocality": "G T Karnal Road"
 }, 
 {
  "city": "New Delhi", 
  "name": "Reebok Factory Outlet - Mukherjee Nagar", 
  "locality": "Mukherjee Nagar", 
  "pincode": "110008", 
  "state": "New Delhi", 
  "address": "639 , Mukherjee Nagar", 
  "landmark": "", 
  "sublocality": "Mukherjee Nagar"
 }, 
 {
  "city": "New Delhi", 
  "name": "Reebok Exclusive Store - Paschim Vihar", 
  "locality": "Jwala Heri", 
  "pincode": "110063", 
  "state": "New Delhi", 
  "address": "A3/1 , Paschim Vihar , Jwala Heri", 
  "landmark": "", 
  "sublocality": "Road Number 30"
 }, 
 {
  "city": "New Delhi", 
  "name": "Reebok Exclusive Store - Rohini Sector 8", 
  "locality": "Rohini", 
  "pincode": "110085", 
  "state": "New Delhi", 
  "address": "195 , D14 , Sector 8 , Rohini", 
  "landmark": "", 
  "sublocality": "Pradeep Bhatia Marg"
 }, 
 {
  "city": "New Delhi", 
  "name": "Reebok Exclusive Store - Pitampura", 
  "locality": "Pitampura", 
  "pincode": "110088", 
  "state": "New Delhi", 
  "address": "GD - 28 , GD Block , Pitampura", 
  "landmark": "", 
  "sublocality": "Pitampura Marg"
 }, 
 {
  "city": "New Delhi", 
  "name": "Reebok Fit Hub - Unitech, Rohini", 
  "locality": "Rohini", 
  "pincode": "110085", 
  "state": "New Delhi", 
  "address": "Shop Number GA - 28 Unitech Metro Walk Sector 10 , Rohini", 
  "landmark": "", 
  "sublocality": "Rammurti Passi Marg"
 }, 
 {
  "city": "New Delhi", 
  "name": "Reebok Exclusive Store - City Centre, Rohini", 
  "locality": "Rohini", 
  "pincode": "110085", 
  "state": "New Delhi", 
  "address": "47 , City Centre Mall , Plot Number 1B3 , Twin District Centre , Sector 10 , Rohini", 
  "landmark": "", 
  "sublocality": "Bhagwan Mahavir Marg"
 }, 
 {
  "city": "Meerut", 
  "name": "Reebok Exclusive Store - Bombay Bazaar", 
  "locality": "Bombay Bazar ", 
  "pincode": "250001", 
  "state": "Uttar Pradesh", 
  "address": "Bombay Bazar ", 
  "landmark": "Near Hanuman Chowk", 
  "sublocality": "W End Road"
 }, 
 {
  "city": "Sikar", 
  "name": "Reebok Exclusive Store - Cinemall Sikar", 
  "locality": "Rani Sati Nagar", 
  "pincode": "332001", 
  "state": "Rajasthan", 
  "address": "3 , Biscope Cinemall , Rani Sati Nagar", 
  "landmark": "", 
  "sublocality": "State Highway 8A"
 }, 
 {
  "city": "Sonipat", 
  "name": "Reebok Fit Hub - Atlas Road Sonipat", 
  "locality": "Atlas Road ", 
  "pincode": "131001", 
  "state": "Haryana", 
  "address": "Atlas Road ", 
  "landmark": "Near Central Bank", 
  "sublocality": "Atlas Road"
 }, 
 {
  "city": "Gangtok", 
  "name": "Reebok Fit Hub - Krishna Company", 
  "locality": "Deorali", 
  "pincode": "737101", 
  "state": "Sikkim", 
  "address": "NH 31A, Deorali", 
  "landmark": "", 
  "sublocality": "National Highway 31A"
 }, 
 {
  "city": "Gangtok", 
  "name": "Reebok Exclusive Store - Style", 
  "locality": "Kazi Road", 
  "pincode": "737101", 
  "state": "Sikkim", 
  "address": "The Arcade , Kazi Road", 
  "landmark": "", 
  "sublocality": "Kazi Road"
 }, 
 {
  "city": "Rohtak", 
  "name": "Reebok Exclusive Store - Om Sai Dev Blessing (Rohtak)", 
  "locality": "Medical Mode", 
  "pincode": "124001", 
  "state": "Haryana", 
  "address": "Medical Mode", 
  "landmark": "", 
  "sublocality": "Medical Road"
 }, 
 {
  "city": "Bhiwani", 
  "name": "Reebok Fit Hub - Crown Plaza Bhiwani", 
  "locality": "Old Bus Stand", 
  "pincode": "127021", 
  "state": "Haryana", 
  "address": "205 , Crown Plaza , Old Bus Stand", 
  "landmark": "", 
  "sublocality": "State Highway 14"
 }, 
 {
  "city": "Salem", 
  "name": "Reebok Fit Hub - Fairlands Salem", 
  "locality": "Fairlands", 
  "pincode": "636016", 
  "state": "Tamil Nadu", 
  "address": "Number 101 H , Sharada College Main Road , Fairlands", 
  "landmark": "", 
  "sublocality": "Sharada College Main Road"
 }, 
 {
  "city": "Jodhpur", 
  "name": "Reebok Fit Hub - Jodhpur", 
  "locality": "103B1 ,", 
  "pincode": "342011", 
  "state": "Rajasthan", 
  "address": "103B1 ,", 
  "landmark": " Opposite Medical College", 
  "sublocality": "Medical College Road"
 }, 
 {
  "city": "Panipat", 
  "name": "Reebok Exclusive Store - Sham Shoe", 
  "locality": "Sector 25", 
  "pincode": "132103", 
  "state": "Haryana", 
  "address": "G - 29 , Mittal Mega Mall , Sector 25", 
  "landmark": "", 
  "sublocality": "Haridwar Bypass Road"
 }, 
 {
  "city": "Panipat", 
  "name": "Reebok Fit Hub - Palika Bazar Panipat", 
  "locality": "Palika Bazar", 
  "pincode": "132103", 
  "state": "Haryana", 
  "address": "Shop Number - 2 , Palika Bazar", 
  "landmark": "", 
  "sublocality": "Insar Bazar Road"
 }, 
 {
  "city": "Manipal", 
  "name": "Reebok Exclusive Store - Manipal", 
  "locality": "Trade Centre Syndicate Circle", 
  "pincode": "576104", 
  "state": "Karnataka", 
  "address": "16/124K, Trade Centre Syndicate Circle", 
  "landmark": "", 
  "sublocality": "State Highway 65"
 }, 
 {
  "city": "Mysore", 
  "name": "Reebok Exclusive Store - Devraja Urs", 
  "locality": "Devraja Urs Road", 
  "pincode": "570001", 
  "state": "Karnataka", 
  "address": "135A , Devraja Urs Road", 
  "landmark": "", 
  "sublocality": "DD Urs Road"
 }, 
 {
  "city": "Haridwar", 
  "name": "Reebok Exclusive Store - Haridwar", 
  "locality": "Ranipur More", 
  "pincode": "249407", 
  "state": "Uttrakhand", 
  "address": "Opposite Khanna Nagar , Ranipur More", 
  "landmark": "", 
  "sublocality": "Ranipur More"
 }, 
 {
  "city": "Hissar", 
  "name": "Reebok Exclusive Store - Jay Ganapati Creation , Hissar", 
  "locality": "Commercial Urban State", 
  "pincode": "125005", 
  "state": "Haryana", 
  "address": "Reebok Store , SCF 86 , Commercial Urban State", 
  "landmark": "", 
  "sublocality": "Urban Estate II Road"
 }, 
 {
  "city": "Mangalore", 
  "name": "Reebok Exclusive Store - Bharat Mall Mangalore", 
  "locality": "Bejai Main Road", 
  "pincode": "575003", 
  "state": "Karnataka", 
  "address": "Bharat Mall , Bejai Main Road", 
  "landmark": "", 
  "sublocality": "Bejai Road"
 }, 
 {
  "city": "Mangalore", 
  "name": "Reebok Exclusive Store - City Center Mangalore", 
  "locality": "Ground Floor City Center", 
  "pincode": "575001", 
  "state": "Karnataka", 
  "address": "22 , Ground Floor City Center", 
  "landmark": "", 
  "sublocality": "KMC Mercara Trunk Road"
 }, 
 {
  "city": "Rajkot", 
  "name": "Reebok Exclusive Store - Malviya Chowk", 
  "locality": "Malaviya Chowk", 
  "pincode": "360001", 
  "state": "Gujarat", 
  "address": "Shop Number 1 , 1/2 , Pramukhswami Arcade , Malaviya Chowk", 
  "landmark": "", 
  "sublocality": "Dr Yagnik Road"
 }, 
 {
  "city": "Rajkot", 
  "name": "Reebok Exclusive Store - Crystal Mall", 
  "locality": "Kalawad Road", 
  "pincode": "360005", 
  "state": "Gujarat", 
  "address": "17B Crystal Mall , Kalawad Road", 
  "landmark": "", 
  "sublocality": "Kalawad Road"
 }, 
 {
  "city": "Dehradun", 
  "name": "Reebok Exclusive Store - Rajpura Road", 
  "locality": "Rajpur Road", 
  "pincode": "248001", 
  "state": "Uttrakhand", 
  "address": "65C , Rajpur Road", 
  "landmark": "", 
  "sublocality": "Rajpur Road"
 }, 
 {
  "city": "Dehradun", 
  "name": "Reebok Fit Hub - Pacific Mall Jakhan, Dehradun", 
  "locality": "Rajpur Road", 
  "pincode": "248001", 
  "state": "Uttrakhand", 
  "address": "First Floor , Mauja Jakhan , Rajpur Road", 
  "landmark": "", 
  "sublocality": "Rajpur Road"
 }, 
 {
  "city": "Jagadhri", 
  "name": "Reebok Exclusive Store - M/s Govindaz", 
  "locality": "59C/L Model Town", 
  "pincode": "135001", 
  "state": "Haryana", 
  "address": "59C/L Model Town", 
  "landmark": "", 
  "sublocality": "Workshop Road"
 }, 
 {
  "city": "Kaithal", 
  "name": "Reebok Fit Hub - Dhand Road Kaithal", 
  "locality": "Dhand Road ", 
  "pincode": "136027", 
  "state": "Haryana", 
  "address": "Dhand Road ", 
  "landmark": "Near Eazy Day", 
  "sublocality": "Dhand Road"
 }, 
 {
  "city": "Mussourie", 
  "name": "Reebok Factory Outlet - Mall Road, Mussourie", 
  "locality": "Mall Road", 
  "pincode": "248179", 
  "state": "Uttrakhand", 
  "address": "Mall Road", 
  "landmark": "", 
  "sublocality": "Mall Road"
 }, 
 {
  "city": "Tiruppur", 
  "name": "Reebok Fit Hub - Sabari Salai Tiruppur", 
  "locality": "Binny Compound", 
  "pincode": "641601", 
  "state": "Tamil Nadu", 
  "address": "Gemini Towers , Number 40 A , 41 A, Sabari Salai , Balaji Layout , Binny Compound", 
  "landmark": "", 
  "sublocality": "Tiruppur - Avinashi Road"
 }, 
 {
  "city": "Shahbad", 
  "name": "Reebok Exclusive Store - Ambala - Shahbad", 
  "locality": "GT Road ", 
  "pincode": "136135", 
  "state": "Haryana", 
  "address": "Aman\u00b4s Creations  Aman Hotel , GT Road ", 
  "landmark": "Near Nau Gajja Pir Shahabad Markanda", 
  "sublocality": "GT Road"
 }, 
 {
  "city": "Bikaner", 
  "name": "Reebok Exclusive Store - Bikaner", 
  "locality": "Rani Bazar", 
  "pincode": "334001", 
  "state": "Rajasthan", 
  "address": "Mittal Bhawan , Rani Bazar", 
  "landmark": "", 
  "sublocality": "Station Road"
 }, 
 {
  "city": "Kannur", 
  "name": "Reebok Exclusive Store - Kannur", 
  "locality": "Thavakar Road", 
  "pincode": "670002", 
  "state": "Kerala", 
  "address": "A5 To A9 , Sharanya Arcade , Thavakar Road", 
  "landmark": "", 
  "sublocality": "Thavakar Road"
 }, 
 {
  "city": "Ambala", 
  "name": "Reebok Exclusive Store - Excellent Fashions", 
  "locality": "Ambala Cantt", 
  "pincode": "133001", 
  "state": "Haryana", 
  "address": "5365/66 Nicholson Road , Ambala Cantt", 
  "landmark": "", 
  "sublocality": "Nicholson Road"
 }, 
 {
  "city": "Coimbatore", 
  "name": "Reebok Fit Hub - DB Road , Coimbatore", 
  "locality": "R S Puram", 
  "pincode": "641002", 
  "state": "Tamil Nadu", 
  "address": "Old Number 60 - 61 , New Number 69 , DB Road , R S Puram", 
  "landmark": "", 
  "sublocality": "D B Road"
 }, 
 {
  "city": "Patiala", 
  "name": "Reebok Exclusive Store - Garg Sports", 
  "locality": "Bhupindra Road", 
  "pincode": "147001", 
  "state": "Punjab", 
  "address": "SCO - 20 City Centre Market , Bhupindra Road", 
  "landmark": "", 
  "sublocality": "Bhupindra Road"
 }, 
 {
  "city": "Dehradun", 
  "name": "Reebok Exclusive Store - Chakrata Road", 
  "locality": "Chakrata Road", 
  "pincode": "248123", 
  "state": "Uttrakhand", 
  "address": "Chakrata Road", 
  "landmark": "", 
  "sublocality": "Chakrata Road"
 }, 
 {
  "city": "Jamnagar", 
  "name": "Reebok Exclusive Store - P N Marg", 
  "locality": "Manek Center P N Marg", 
  "pincode": "361001", 
  "state": "Gujarat", 
  "address": "8/9 , Manek Center P N Marg", 
  "landmark": "", 
  "sublocality": "P N Marg"
 }, 
 {
  "city": "Shillong", 
  "name": "Reebok Fit Hub - Tanishkaa Shillong", 
  "locality": "Keating Road Police Bazar", 
  "pincode": "793001", 
  "state": "Meghalaya", 
  "address": "Keating Road Police Bazar", 
  "landmark": "", 
  "sublocality": "Keating Road"
 }, 
 {
  "city": "Gandhidham", 
  "name": "Reebok Exclusive Store - Suncity Gandhidham", 
  "locality": "Dbz-190 (South) Ward - 12A ,", 
  "pincode": "370201", 
  "state": "Gujarat", 
  "address": "Dbz-190 (South) Ward - 12A ,", 
  "landmark": " Opposite Shivji Park", 
  "sublocality": "Kandla Port Road"
 }, 
 {
  "city": "Aizawl", 
  "name": "Reebok Exclusive Store - Ronnie Agencies", 
  "locality": "Zarakawt", 
  "pincode": "796001", 
  "state": "Mizoram", 
  "address": "Zarakawt", 
  "landmark": "", 
  "sublocality": "Zarkawt"
 }, 
 {
  "city": "Chandigarh", 
  "name": "Reebok Exclusive Store - Arena Chandigarh", 
  "locality": "NAC Manimajra", 
  "pincode": "160038", 
  "state": "Chandigarh", 
  "address": "SCO - 38 , Pocket Number 1 , NAC Manimajra", 
  "landmark": "", 
  "sublocality": "Manimajra"
 }, 
 {
  "city": "Chandigarh", 
  "name": "Reebok Fit Hub - Elante Mall", 
  "locality": "11 Industrial Area", 
  "pincode": "160002", 
  "state": "Chandigarh", 
  "address": "Shop Number 10 , 11 Industrial Area", 
  "landmark": "", 
  "sublocality": "Himalaya Marg"
 }, 
 {
  "city": "Chandigarh", 
  "name": "Reebok Store", 
  "locality": "Reebok Store  Industrial Area Centra Mall Chandigarh", 
  "pincode": "", 
  "state": "Chandigarh", 
  "address": "Reebok Store  Industrial Area Centra Mall Chandigarh", 
  "landmark": "", 
  "sublocality": "Reebok Store  Industrial Area Centra Mall Chandigarh"
 }, 
 {
  "city": "Guwahati", 
  "name": "Reebok Exclusive Store - Christian Basti", 
  "locality": "", 
  "pincode": "781007", 
  "state": "Assam", 
  "address": "", 
  "landmark": "Near Christian Basti", 
  "sublocality": "AT Road"
 }, 
 {
  "city": "Pinjore", 
  "name": "Reebok Factory Outlet - United Sports", 
  "locality": "United Sports", 
  "pincode": "134102", 
  "state": "Haryana", 
  "address": "United Sports", 
  "landmark": " Opposite White House Chandigarh Shimla Highway", 
  "sublocality": "Chandigarh Shimla Highway"
 }, 
 {
  "city": "Guwahati", 
  "name": "Reebok Exclusive Store - Ambari", 
  "locality": "Ambari ", 
  "pincode": "781003", 
  "state": "Assam", 
  "address": "Shop Number 1 , GNB Road Mapple , Ambari ", 
  "landmark": "Near AGP Office", 
  "sublocality": "GNB Road"
 }, 
 {
  "city": "Guwahati", 
  "name": "Reebok Exclusive Store - Spanish Garden", 
  "locality": "Spanish Garden ,", 
  "pincode": "781005", 
  "state": "Assam", 
  "address": "Zoo Road , Spanish Garden ,", 
  "landmark": " Opposite Assam State Zoo", 
  "sublocality": "Zoo Road"
 }, 
 {
  "city": "Guwahati", 
  "name": "Reebok Exclusive Store - Nabarup Trading", 
  "locality": "Suraj Nagar", 
  "pincode": "781022", 
  "state": "Assam", 
  "address": "M/S Nabarup Trading G S Road , Suraj Nagar", 
  "landmark": "", 
  "sublocality": "Guwahati Shillong Road"
 }, 
 {
  "city": "Solan", 
  "name": "Reebok Fit Hub - Mall Road", 
  "locality": "Mall Road", 
  "pincode": "173211", 
  "state": "Himachal", 
  "address": "Haryana Handloom ,, Mall Road", 
  "landmark": " Opposite Children Park ", 
  "sublocality": "Mall Road"
 }, 
 {
  "city": "Barnala", 
  "name": "Reebok Exclusive Store - Ankur Gallery", 
  "locality": "KC Road ,", 
  "pincode": "148101", 
  "state": "Punjab", 
  "address": "KC Road ,", 
  "landmark": " Opposite Naresh Hospital", 
  "sublocality": "KC Road"
 }, 
 {
  "city": "Sangariya", 
  "name": "Reebok Exclusive Store - Sangariya", 
  "locality": "Aggarsein Market ", 
  "pincode": "335063", 
  "state": "Rajasthan", 
  "address": "Aggarsein Market ", 
  "landmark": "Near ICICI Prudential Office", 
  "sublocality": "Sangriya Road"
 }, 
 {
  "city": "Bhatinda", 
  "name": "Reebok Exclusive Store - Mall Road, Bathinda", 
  "locality": "Mall Road", 
  "pincode": "151001", 
  "state": "Punjab", 
  "address": "Shop Number 2090C , Mall Road", 
  "landmark": "Near Suncity Classic Hotel ", 
  "sublocality": "Mall Road"
 }, 
 {
  "city": "Silchar", 
  "name": "Reebok Exclusive Store - Silchar", 
  "locality": "First Floor Central Road", 
  "pincode": "788001", 
  "state": "Assam", 
  "address": "First Floor Central Road", 
  "landmark": "", 
  "sublocality": "Central Road"
 }, 
 {
  "city": "Bhuj", 
  "name": "Reebok Exclusive Store - Bhuj", 
  "locality": "Mirzapur Highway", 
  "pincode": "370001", 
  "state": "Gujarat", 
  "address": "Shop Number - 1 , Royal Plaza , Mirzapur Highway", 
  "landmark": "Near Cargo Honda ", 
  "sublocality": "Mirzapur Highway"
 }, 
 {
  "city": "Balachaur", 
  "name": "Reebok Factory Outlet - Balachaur SFO", 
  "locality": "Jalandhar Road", 
  "pincode": "144521", 
  "state": "Punjab", 
  "address": "Balachaur , Jalandhar Road", 
  "landmark": "", 
  "sublocality": "State Highway 18"
 }, 
 {
  "city": "Ludhiana", 
  "name": "Reebok Fit Hub - Mall Road Ludhiana", 
  "locality": "Mall Road", 
  "pincode": "141001", 
  "state": "Punjab", 
  "address": "14 ,15 Ground Floor , Mall Road", 
  "landmark": "", 
  "sublocality": "Mall Road"
 }, 
 {
  "city": "Sri Ganganagar", 
  "name": "Reebok Fit Hub - Ganganagar", 
  "locality": "Gaushala Road", 
  "pincode": "335001", 
  "state": "Rajasthan", 
  "address": "129G Block , Gaushala Road", 
  "landmark": "", 
  "sublocality": "Gaushala Road"
 }, 
 {
  "city": "Moga", 
  "name": "Reebok Exclusive Store - Moga", 
  "locality": "Gandhi Road ", 
  "pincode": "142001", 
  "state": "Punjab", 
  "address": "Gandhi Road ", 
  "landmark": "Near Union Bank of India", 
  "sublocality": "Gandhi Road"
 }, 
 {
  "city": "Cochin", 
  "name": "Reebok Fit Hub - Lulu Mall", 
  "locality": "36 Second Floor Edapally", 
  "pincode": "682024", 
  "state": "Kerala", 
  "address": "Shop Number S - 35 , 36 Second Floor Edapally", 
  "landmark": "", 
  "sublocality": "National Highway 47"
 }, 
 {
  "city": "Nagaon", 
  "name": "Reebok Exclusive Store - Nagaon", 
  "locality": "Haibargaon", 
  "pincode": "782002", 
  "state": "Assam", 
  "address": "A T Road , Haibargaon", 
  "landmark": "", 
  "sublocality": "A T Road"
 }, 
 {
  "city": "Cochin", 
  "name": "Reebok Exclusive Store - MG Road", 
  "locality": "JOS Junction", 
  "pincode": "682016", 
  "state": "Kerala", 
  "address": "Shop Number 1 , M G Road , JOS Junction", 
  "landmark": "", 
  "sublocality": "MG Road"
 }, 
 {
  "city": "Cochin", 
  "name": "Reebok Fit Hub - Centre Square Mall Cochin", 
  "locality": "First Floor M G Road", 
  "pincode": "682016", 
  "state": "Kerala", 
  "address": "Shop Number  15 , First Floor M G Road", 
  "landmark": "", 
  "sublocality": "M G Road"
 }, 
 {
  "city": "Lumding", 
  "name": "Reebok Exclusive Store - Lumding Punam Retail", 
  "locality": "Lanka Road ,", 
  "pincode": "782447", 
  "state": "Assam", 
  "address": "Lanka Road ,", 
  "landmark": "Near SBI Branch", 
  "sublocality": "Lanka Road"
 }, 
 {
  "city": "Jalandhar", 
  "name": "Reebok Exclusive Store - Model Town, Jalandhar", 
  "locality": "Model Town Market", 
  "pincode": "144003", 
  "state": "Punjab", 
  "address": "186 ,, Model Town Market", 
  "landmark": " Opposite Niku Park ", 
  "sublocality": "Nikku Park Road"
 }, 
 {
  "city": "Jalandhar", 
  "name": "Reebok Factory Outlet - Satnam Trading Co.", 
  "locality": "GT Road Jalandhar Bypass ", 
  "pincode": "144005", 
  "state": "Punjab", 
  "address": "GT Road Jalandhar Bypass ", 
  "landmark": "near Lilly Resort", 
  "sublocality": "G T Road"
 }, 
 {
  "city": "Tezpur", 
  "name": "Reebok Exclusive Store - Ishaan Tezpur", 
  "locality": "Main Road", 
  "pincode": "784001", 
  "state": "Assam", 
  "address": "Main Road", 
  "landmark": "", 
  "sublocality": "Chowk Bazar Road"
 }, 
 {
  "city": "Imphal", 
  "name": "Reebok Exclusive Store - Muskaan", 
  "locality": "Paona Bazar", 
  "pincode": "795001", 
  "state": "Manipur", 
  "address": "Paona Bazar", 
  "landmark": "", 
  "sublocality": "Paona Bazar Road"
 }, 
 {
  "city": "Palampur", 
  "name": "Reebok Exclusive Store - S D Stores", 
  "locality": "Palampur", 
  "pincode": "176061", 
  "state": "Himachal", 
  "address": "Main Bazar , Palampur", 
  "landmark": "", 
  "sublocality": "Palampur Dharamshala Road"
 }, 
 {
  "city": "Dimapur", 
  "name": "Reebok Exclusive Store - Dimapur Exclusive", 
  "locality": "Circular Road ,", 
  "pincode": "797112", 
  "state": "Nagaland", 
  "address": "Circular Road ,", 
  "landmark": " Opposite Holy Cross School", 
  "sublocality": "Circular Road"
 }, 
 {
  "city": "Dimapur", 
  "name": "Reebok Exclusive Store - The Zone", 
  "locality": "Road Bank Colony ,", 
  "pincode": "797112", 
  "state": "Nagaland", 
  "address": "Kohima , Road Bank Colony ,", 
  "landmark": " Opposite Town Hall", 
  "sublocality": "Half Nagarjan Road"
 }, 
 {
  "city": "Mukerian", 
  "name": "Reebok Factory Outlet - Modern Enterprises (Mukerian)", 
  "locality": "G T Road ", 
  "pincode": "144211", 
  "state": "Punjab", 
  "address": "G T Road ", 
  "landmark": "Near Makkar Hospital", 
  "sublocality": "G T Road"
 }, 
 {
  "city": "Tirunelveli", 
  "name": "Reebok Fit Hub - Goodwill Sports - Tirunelveli", 
  "locality": "S N High Road", 
  "pincode": "627001", 
  "state": "Tamil Nadu", 
  "address": "21C , MKM Complex , S N High Road", 
  "landmark": "", 
  "sublocality": "S N High Road"
 }, 
 {
  "city": "Amritsar", 
  "name": "Reebok Fit Hub - Trillium Mall - Amritsar", 
  "locality": "Basant Avenue", 
  "pincode": "143001", 
  "state": "Punjab", 
  "address": "Shop Number 3 & 41 , Circular Road, Basant Avenue", 
  "landmark": "", 
  "sublocality": "Basant Avenue"
 }, 
 {
  "city": "Amritsar", 
  "name": "Reebok Fit Hub - Alpha Mall Amritsar", 
  "locality": "G T Road", 
  "pincode": "143501", 
  "state": "Punjab", 
  "address": "Shop Number 51 , G T Road", 
  "landmark": "", 
  "sublocality": "G T Road"
 }, 
 {
  "city": "Pathankot", 
  "name": "Reebok Exclusive Store - Avon Enterprises Pathankot", 
  "locality": "Saily Road", 
  "pincode": "145001", 
  "state": "Punjab", 
  "address": "SCF - 05 ,, Saily Road", 
  "landmark": " Opposite Truck Union ", 
  "sublocality": "Saily Road"
 }, 
 {
  "city": "Itanagar", 
  "name": "Reebok Exclusive Store - Dooria Garments", 
  "locality": " (Papum Pare Dist)", 
  "pincode": "791111", 
  "state": "Arunachal Pradesh", 
  "address": "Tele Plaza , E - Sector,  (Papum Pare Dist)", 
  "landmark": "", 
  "sublocality": "National Highway 52A"
 }, 
 {
  "city": "Jammu", 
  "name": "Reebok Fit Hub - Wave Mall, Jammu", 
  "locality": "Kunjwani Bypass", 
  "pincode": "180015", 
  "state": "Jammu & Kashmir", 
  "address": "Shop Number 23 , Lower Ground Floor , Channi Rama ,, Kunjwani Bypass", 
  "landmark": " Opposite Bhatindi Road ", 
  "sublocality": "Bhatindi Road"
 }, 
 {
  "city": "Jammu", 
  "name": "Reebok Exclusive Store - City Square - Jammu", 
  "locality": "11 City Square Mall", 
  "pincode": "180001", 
  "state": "Jammu & Kashmir", 
  "address": "Shop Number , 11 City Square Mall", 
  "landmark": "", 
  "sublocality": "Gulab Singh Marg"
 }, 
 {
  "city": "Dibrugarh", 
  "name": "Reebok Exclusive Store - Omega Retail", 
  "locality": "R K B Path ", 
  "pincode": "786001", 
  "state": "Assam", 
  "address": "Shop Number 1 , Junction Mall , R K B Path ", 
  "landmark": "Beside Union Bank of India", 
  "sublocality": "RKB Path"
 }, 
 {
  "city": "Duliajan", 
  "name": "Reebok Exclusive Store - Fancy Footwear", 
  "locality": "Oil Market ", 
  "pincode": "786602", 
  "state": "Assam", 
  "address": "Shop Number 4 , Oil Market ", 
  "landmark": "Near Old Bus Stand", 
  "sublocality": "Percy Evens Road"
 }, 
 {
  "city": "Tinsukia", 
  "name": "Reebok Exclusive Store - R.D. Enterprise", 
  "locality": "ATC Mall", 
  "pincode": "786125", 
  "state": "Assam", 
  "address": "Shop Number 1 , GNB Road , ATC Mall", 
  "landmark": "", 
  "sublocality": "GNB Road"
 }
]